{"type":"FeatureCollection","features":[{"type":"Feature","geometry":{"type":"Polygon","coordinates":[[[-69.3161,-19.131],[-69.2716,-19.2362],[-69.1421,-19.2961],[-69.2351,-19.3917],[-69.3084,-19.4016],[-69.3121,-19.4426],[-69.3822,-19.5158],[-69.5794,-19.583],[-69.7496,-19.6956],[-69.7494,-19.2763],[-69.6436,-19.2591],[-69.5858,-19.2043],[-69.4852,-19.1971],[-69.396,-19.0613],[-69.3149,-19.103],[-69.3161,-19.131]]]},"properties":{"cod_comuna":1402,"comuna":"Camiña","provincia":"Iquique","codregion":1}},{"type":"Feature","geometry":{"type":"Polygon","coordinates":[[[-69.0074,-18.9527],[-68.9502,-18.9366],[-68.8708,-19.0603],[-68.8059,-19.0835],[-68.6197,-19.2764],[-68.5427,-19.2967],[-68.4048,-19.4161],[-68.5724,-19.6054],[-68.6242,-19.702],[-68.6817,-19.7184],[-68.6928,-19.7502],[-68.8059,-19.748],[-68.8455,-19.6439],[-69.1009,-19.4948],[-69.0231,-19.3315],[-69.0782,-19.2734],[-69.1187,-19.2678],[-69.1429,-19.2967],[-69.2688,-19.2387],[-69.3169,-19.1352],[-69.2334,-19.0939],[-69.1534,-19.1027],[-69.0142,-19.0032],[-69.0074,-18.9527]]]},"properties":{"cod_comuna":1403,"comuna":"Colchane","provincia":"Iquique","codregion":1}},{"type":"Feature","geometry":{"type":"Polygon","coordinates":[[[-68.9918,-19.921],[-68.9688,-20.0232],[-69.0087,-20.1101],[-68.9615,-20.199],[-69.0194,-20.2873],[-69.1051,-20.2894],[-69.218,-20.2437],[-69.4745,-20.2517],[-69.4774,-20.7307],[-69.3075,-20.703],[-69.2246,-20.7361],[-69.1046,-20.7207],[-69.0646,-20.6855],[-68.9669,-20.689],[-68.9672,-21.0967],[-68.8997,-21.1731],[-68.8596,-21.2849],[-69.313,-21.3981],[-69.5513,-21.63],[-69.6667,-21.4629],[-69.7656,-21.4195],[-69.8303,-21.4433],[-69.904,-21.4254],[-69.912,-21.4299],[-69.9185,-21.4258],[-69.925,-21.4264],[-69.9273,-21.4248],[-69.9323,-21.4255],[-69.9341,-21.4241],[-69.9367,-21.4243],[-69.9373,-21.4242],[-69.9376,-21.424],[-69.9381,-21.4236],[-69.8816,-21.3045],[-69.8907,-21.1102],[-69.8198,-21.1171],[-70.0512,-20.6992],[-70.0258,-20.5782],[-70.1079,-20.3505],[-70.028,-20.306],[-69.9659,-20.3213],[-69.9112,-20.2283],[-69.8906,-20.0494],[-69.8112,-20.1027],[-69.2732,-19.9751],[-69.1617,-19.99],[-68.9918,-19.921]]]},"properties":{"cod_comuna":1401,"comuna":"Pozo Almonte","provincia":"Iquique","codregion":1}},{"type":"Feature","geometry":{"type":"Polygon","coordinates":[[[-70.2739,-19.2494],[-70.279,-19.2299],[-69.942,-19.0499],[-69.6383,-19.0216],[-69.4025,-19.0304],[-69.39,-19.0628],[-69.4738,-19.1941],[-69.5795,-19.2049],[-69.6368,-19.2575],[-69.7431,-19.2768],[-69.7433,-19.6962],[-69.5731,-19.5835],[-69.3759,-19.5163],[-69.3067,-19.4423],[-69.3021,-19.4022],[-69.2288,-19.3922],[-69.1185,-19.2709],[-69.0719,-19.274],[-69.0168,-19.3321],[-69.0946,-19.4954],[-68.9014,-19.6009],[-68.9226,-19.7441],[-69.0322,-19.8344],[-69.004,-19.9172],[-69.1554,-19.9906],[-69.2669,-19.9756],[-69.8049,-20.1033],[-69.8843,-20.0499],[-70.0941,-20.0801],[-70.1281,-20.0611],[-70.1254,-19.8831],[-70.1589,-19.8293],[-70.1401,-19.7856],[-70.1631,-19.6582],[-70.2338,-19.6025],[-70.1995,-19.5906],[-70.1959,-19.4985],[-70.2782,-19.3091],[-70.2739,-19.2494]]]},"properties":{"cod_comuna":1404,"comuna":"Huara","provincia":"Iquique","codregion":1}},{"type":"Feature","geometry":{"type":"Polygon","coordinates":[[[-69.8918,-20.0694],[-69.9112,-20.2283],[-69.9659,-20.3213],[-70.028,-20.306],[-70.1094,-20.3512],[-70.0991,-20.0853],[-69.8906,-20.0494],[-69.8918,-20.0694]]]},"properties":{"cod_comuna":1107,"comuna":"Alto Hospicio","provincia":"Iquique","codregion":1}},{"type":"Feature","geometry":{"type":"MultiPolygon","coordinates":[[[[-70.1603,-20.2107],[-70.1602,-20.2108],[-70.1605,-20.2109],[-70.1605,-20.2108],[-70.1603,-20.2107]]],[[[-70.1617,-20.2107],[-70.1617,-20.2108],[-70.1619,-20.2107],[-70.1618,-20.2106],[-70.1617,-20.2107]]],[[[-70.1596,-20.2105],[-70.1598,-20.2105],[-70.1598,-20.2104],[-70.1597,-20.2104],[-70.1596,-20.2105]]],[[[-70.1624,-20.2101],[-70.1624,-20.2101],[-70.1625,-20.2101],[-70.1624,-20.21],[-70.1624,-20.2101]]],[[[-70.1632,-20.2095],[-70.1634,-20.2094],[-70.1632,-20.2091],[-70.1632,-20.2095],[-70.1632,-20.2095]]],[[[-70.1632,-20.209],[-70.1634,-20.209],[-70.1632,-20.2089],[-70.1632,-20.209],[-70.1632,-20.209]]],[[[-70.1638,-20.208],[-70.1639,-20.2082],[-70.1641,-20.2082],[-70.1641,-20.208],[-70.1638,-20.208]]],[[[-70.1633,-20.208],[-70.1634,-20.208],[-70.1634,-20.2079],[-70.1634,-20.2079],[-70.1633,-20.208]]],[[[-70.1551,-20.2078],[-70.1552,-20.2077],[-70.1552,-20.2077],[-70.1551,-20.2077],[-70.1551,-20.2078]]],[[[-70.1549,-20.2078],[-70.1551,-20.2077],[-70.1551,-20.2076],[-70.1549,-20.2077],[-70.1549,-20.2078]]],[[[-70.1549,-20.2076],[-70.1549,-20.2076],[-70.1549,-20.2075],[-70.1549,-20.2075],[-70.1549,-20.2076]]],[[[-70.1547,-20.2075],[-70.1547,-20.2075],[-70.1548,-20.2074],[-70.1547,-20.2074],[-70.1547,-20.2075]]],[[[-70.1544,-20.2074],[-70.1543,-20.2074],[-70.1542,-20.2075],[-70.1544,-20.2075],[-70.1544,-20.2074]]],[[[-70.1619,-20.2065],[-70.162,-20.2065],[-70.162,-20.2064],[-70.1619,-20.2065],[-70.1619,-20.2065]]],[[[-70.1618,-20.2063],[-70.1619,-20.2063],[-70.1618,-20.2062],[-70.1618,-20.2063],[-70.1618,-20.2063]]],[[[-70.1632,-20.2061],[-70.1633,-20.2061],[-70.1633,-20.206],[-70.1632,-20.206],[-70.1632,-20.2061]]],[[[-70.162,-20.206],[-70.162,-20.206],[-70.162,-20.206],[-70.162,-20.206],[-70.162,-20.206]]],[[[-70.1633,-20.206],[-70.1634,-20.206],[-70.1634,-20.2059],[-70.1633,-20.206],[-70.1633,-20.206]]],[[[-70.1631,-20.2059],[-70.1631,-20.206],[-70.1632,-20.2059],[-70.1631,-20.2059],[-70.1631,-20.2059]]],[[[-70.1625,-20.206],[-70.1625,-20.206],[-70.1625,-20.2059],[-70.1624,-20.2059],[-70.1625,-20.206]]],[[[-70.1633,-20.2059],[-70.1633,-20.2059],[-70.1633,-20.2058],[-70.1633,-20.2058],[-70.1633,-20.2059]]],[[[-70.1625,-20.2058],[-70.1625,-20.2058],[-70.1626,-20.2058],[-70.1625,-20.2058],[-70.1625,-20.2058]]],[[[-70.1956,-20.7269],[-70.1995,-20.5335],[-70.1583,-20.4612],[-70.1827,-20.363],[-70.1292,-20.2954],[-70.1308,-20.2645],[-70.1634,-20.2076],[-70.1377,-20.1944],[-70.1344,-20.0605],[-70.0912,-20.0836],[-70.1243,-20.3123],[-70.0258,-20.5782],[-70.0512,-20.6992],[-69.8198,-21.1171],[-69.8907,-21.1102],[-69.8816,-21.3045],[-69.9297,-21.3729],[-69.9306,-21.4246],[-70.0583,-21.4302],[-70.0876,-21.3772],[-70.0982,-21.339],[-70.0663,-21.2953],[-70.1337,-21.1296],[-70.1247,-21.0873],[-70.1774,-21.0245],[-70.127,-20.9352],[-70.1447,-20.8723],[-70.207,-20.811],[-70.1851,-20.7978],[-70.1956,-20.7269]],[[-69.912,-20.9716],[-69.9129,-20.9699],[-69.9153,-20.9652],[-69.9129,-20.9699],[-69.912,-20.9716]]]]},"properties":{"cod_comuna":1101,"comuna":"Iquique","provincia":"Iquique","codregion":1}},{"type":"Feature","geometry":{"type":"Polygon","coordinates":[[[-68.8029,-19.7493],[-68.6659,-19.7521],[-68.5993,-19.8279],[-68.5281,-19.8455],[-68.5216,-19.9242],[-68.5662,-20.05],[-68.7621,-20.0781],[-68.7738,-20.1296],[-68.7043,-20.1337],[-68.7126,-20.2489],[-68.6605,-20.319],[-68.6743,-20.3567],[-68.7415,-20.369],[-68.7387,-20.4568],[-68.4386,-20.6408],[-68.5531,-20.729],[-68.5532,-20.8762],[-68.4807,-20.9451],[-68.5357,-21.0646],[-68.8596,-21.2849],[-68.8997,-21.1731],[-68.9672,-21.0967],[-68.9669,-20.689],[-69.0646,-20.6855],[-69.1046,-20.7207],[-69.2246,-20.7361],[-69.3075,-20.703],[-69.4774,-20.7307],[-69.4752,-20.2574],[-69.218,-20.2437],[-69.1051,-20.2894],[-69.0194,-20.2873],[-68.9615,-20.199],[-69.0087,-20.1101],[-68.9687,-20.0219],[-68.9791,-19.9353],[-69.0249,-19.8992],[-69.0391,-19.8371],[-68.9289,-19.7436],[-68.9077,-19.6003],[-68.8329,-19.6618],[-68.8029,-19.7493]]]},"properties":{"cod_comuna":1405,"comuna":"Pica","provincia":"Iquique","codregion":1}}]}