{"type":"FeatureCollection", "features": [
{"type":"Feature","geometry":{"type":"Polygon","coordinates":[[[-72.9712,-40.5076],[-72.9071,-40.4406],[-73.0778,-40.3452],[-73.4068,-40.3375],[-73.4251,-40.4151],[-73.2771,-40.4278],[-73.2673,-40.5308],[-73.0689,-40.4606],[-73.0632,-40.5099],[-72.9712,-40.5076]]]},"properties":{"cod_comuna":10307,"comuna":"San Pablo","provincia":"Osorno","codregion":10}},
{"type":"Feature","geometry":{"type":"Polygon","coordinates":[[[-73.5936,-42.5701],[-73.7436,-42.6302],[-73.596,-42.6521],[-73.5936,-42.5701]]]},"properties":{"cod_comuna":10206,"comuna":"Puqueldón","provincia":"Chiloe","codregion":10}},
{"type":"Feature","geometry":{"type":"Polygon","coordinates":[[[-73.896,-41.0272],[-73.9334,-41.0603],[-73.8429,-41.29],[-73.7111,-41.2103],[-73.6408,-41.3122],[-73.2962,-41.2672],[-73.287,-41.1774],[-73.3426,-41.091],[-73.396,-41.073],[-73.361,-41.0119],[-73.377,-40.9996],[-73.4489,-40.9971],[-73.513,-41.0564],[-73.7107,-41.0515],[-73.896,-41.0272]]]},"properties":{"cod_comuna":10104,"comuna":"Fresia","provincia":"Llanquihue","codregion":10}},
{"type":"Feature","geometry":{"type":"Polygon","coordinates":[[[-73.2334,-41.1681],[-73.2997,-41.3128],[-72.9641,-41.2919],[-72.8902,-41.1811],[-72.9604,-41.204],[-73.014,-41.1819],[-73.1528,-41.166],[-73.2334,-41.1681]]]},"properties":{"cod_comuna":10107,"comuna":"Llanquihue","provincia":"Llanquihue","codregion":10}},
{"type":"Feature","geometry":{"type":"Polygon","coordinates":[[[-73.2673,-40.5308],[-73.3533,-40.5202],[-73.3303,-40.6224],[-73.2345,-40.6682],[-73.0316,-40.6906],[-72.9792,-40.7636],[-72.8692,-40.7883],[-72.7842,-40.7765],[-72.8785,-40.7013],[-72.8932,-40.6757],[-72.8715,-40.538],[-72.9712,-40.5076],[-73.0632,-40.5099],[-73.0689,-40.4606],[-73.2673,-40.5308]]]},"properties":{"cod_comuna":10301,"comuna":"Osorno","provincia":"Osorno","codregion":10}},
{"type":"Feature","geometry":{"type":"Polygon","coordinates":[[[-73.8146,-40.8062],[-73.896,-41.0272],[-73.7107,-41.0515],[-73.513,-41.0564],[-73.4486,-40.997],[-73.2525,-40.9788],[-73.1999,-41.0051],[-72.9932,-41.0282],[-72.9826,-40.9266],[-72.9818,-40.8153],[-73.2666,-40.8787],[-73.4448,-40.853],[-73.6038,-40.8527],[-73.8047,-40.8366],[-73.8146,-40.8062]]]},"properties":{"cod_comuna":10303,"comuna":"Purranque","provincia":"Osorno","codregion":10}},
{"type":"Feature","geometry":{"type":"Polygon","coordinates":[[[-72.1007,-40.8],[-71.9275,-40.7942],[-71.9627,-40.719],[-71.8681,-40.6628],[-71.9703,-40.6348],[-72.1989,-40.6716],[-72.2865,-40.6463],[-72.6069,-40.6811],[-72.6557,-40.6253],[-72.772,-40.6012],[-72.853,-40.5349],[-72.8947,-40.6],[-72.8785,-40.7013],[-72.7842,-40.7765],[-72.7356,-40.8169],[-72.6146,-40.7935],[-72.2817,-40.886],[-72.1699,-40.8713],[-72.1007,-40.8]]]},"properties":{"cod_comuna":10304,"comuna":"Puyehue","provincia":"Osorno","codregion":10}},
{"type":"Feature","geometry":{"type":"Polygon","coordinates":[[[-72.2741,-42.1212],[-71.9577,-42.1407],[-71.7315,-42.1232],[-71.7944,-41.9616],[-71.753,-41.7855],[-71.8855,-41.6056],[-71.8363,-41.4327],[-71.9692,-41.3872],[-72.0933,-41.3153],[-72.244,-41.4497],[-72.3158,-41.6558],[-72.6112,-41.7383],[-72.5203,-41.8493],[-72.3959,-41.7812],[-72.2673,-41.8828],[-72.2158,-41.9192],[-72.3233,-42.0563],[-72.2741,-42.1212]]]},"properties":{"cod_comuna":10103,"comuna":"Cochamó","provincia":"Llanquihue","codregion":10}},
{"type":"Feature","geometry":{"type":"Polygon","coordinates":[[[-73.5248,-42.0017],[-73.5393,-41.7967],[-73.6629,-41.7971],[-73.8561,-41.8828],[-74.0571,-41.8382],[-74.0075,-42.2149],[-73.8667,-42.1703],[-73.7221,-42.2551],[-73.7108,-42.1595],[-73.5359,-42.1733],[-73.5248,-42.0017]]]},"properties":{"cod_comuna":10202,"comuna":"Ancud","provincia":"Chiloe","codregion":10}},
{"type":"Feature","geometry":{"type":"MultiPolygon","coordinates":[[[[-74.7423,-43.5176],[-74.8377,-43.5634],[-74.7706,-43.6832],[-74.5964,-43.5817],[-74.7423,-43.5176]]],[[[-74.1515,-42.848],[-74.2252,-43.0279],[-74.3241,-43.0765],[-74.4042,-43.2675],[-74.299,-43.3269],[-73.9264,-43.3701],[-73.8096,-43.3126],[-73.704,-43.1505],[-73.4939,-43.0859],[-73.5455,-42.9734],[-73.6167,-42.9172],[-73.74,-42.8535],[-73.7896,-42.8831],[-73.931,-42.829],[-74.1515,-42.848]]]]},"properties":{"cod_comuna":10208,"comuna":"Quellón","provincia":"Chiloe","codregion":10}},
{"type":"Feature","geometry":{"type":"Polygon","coordinates":[[[-73.714,-42.7667],[-73.7442,-42.8383],[-73.5862,-42.8898],[-73.5465,-42.755],[-73.714,-42.7667]]]},"properties":{"cod_comuna":10207,"comuna":"Queilén","provincia":"Chiloe","codregion":10}},
{"type":"Feature","geometry":{"type":"Polygon","coordinates":[[[-73.714,-42.7667],[-73.632,-42.7015],[-73.7871,-42.6123],[-73.8689,-42.4886],[-74.1033,-42.4862],[-74.1515,-42.848],[-73.931,-42.829],[-73.7716,-42.8816],[-73.7363,-42.854],[-73.7491,-42.8297],[-73.7147,-42.8069],[-73.714,-42.7667]]]},"properties":{"cod_comuna":10203,"comuna":"Chonchi","provincia":"Chiloe","codregion":10}},
{"type":"Feature","geometry":{"type":"Polygon","coordinates":[[[-73.1398,-41.6822],[-73.0404,-41.5183],[-72.9219,-41.475],[-72.7397,-41.5327],[-72.6383,-41.6975],[-72.4136,-41.5749],[-72.3772,-41.4825],[-72.5214,-41.3778],[-72.7643,-41.3368],[-73.1159,-41.4083],[-73.193,-41.3873],[-73.2633,-41.4744],[-73.2866,-41.5588],[-73.1309,-41.5845],[-73.1398,-41.6822]]]},"properties":{"cod_comuna":10101,"comuna":"Puerto Montt","provincia":"Llanquihue","codregion":10}},
{"type":"Feature","geometry":{"type":"Polygon","coordinates":[[[-73.8038,-40.636],[-73.8146,-40.8062],[-73.8047,-40.8366],[-73.6038,-40.8527],[-73.4448,-40.853],[-73.2666,-40.8787],[-72.9818,-40.8153],[-73.0316,-40.6906],[-73.2345,-40.6682],[-73.3301,-40.6623],[-73.3569,-40.6952],[-73.5733,-40.7485],[-73.6883,-40.7164],[-73.8038,-40.636]]]},"properties":{"cod_comuna":10305,"comuna":"Río Negro","provincia":"Osorno","codregion":10}},
{"type":"Feature","geometry":{"type":"Polygon","coordinates":[[[-73.8689,-42.4886],[-73.7199,-42.5693],[-73.672,-42.3997],[-73.8393,-42.3525],[-73.8875,-42.4345],[-74.1465,-42.4528],[-73.8689,-42.4886]]]},"properties":{"cod_comuna":10201,"comuna":"Castro","provincia":"Chiloe","codregion":10}},
{"type":"Feature","geometry":{"type":"Polygon","coordinates":[[[-73.8393,-42.3525],[-73.6886,-42.3995],[-73.5971,-42.3651],[-73.5082,-42.3266],[-73.3557,-42.3384],[-73.4219,-42.2885],[-73.5451,-42.2076],[-73.7221,-42.2551],[-73.8667,-42.1703],[-74.0075,-42.2149],[-74.144,-42.2176],[-74.1465,-42.4528],[-73.8875,-42.4345],[-73.8393,-42.3525]]]},"properties":{"cod_comuna":10205,"comuna":"Dalcahue","provincia":"Chiloe","codregion":10}},
{"type":"Feature","geometry":{"type":"Polygon","coordinates":[[[-73.4219,-42.2885],[-73.4818,-42.1672],[-73.4144,-42.073],[-73.5248,-42.0017],[-73.5359,-42.1733],[-73.4219,-42.2885]]]},"properties":{"cod_comuna":10209,"comuna":"Quemchi","provincia":"Chiloe","codregion":10}},
{"type":"Feature","geometry":{"type":"Polygon","coordinates":[[[-73.4251,-40.4151],[-73.4543,-40.2701],[-73.5972,-40.3017],[-73.7311,-40.2603],[-73.7785,-40.4555],[-73.7166,-40.534],[-73.8038,-40.636],[-73.6883,-40.7164],[-73.5991,-40.7491],[-73.498,-40.7398],[-73.3356,-40.6771],[-73.3372,-40.6605],[-73.4166,-40.6626],[-73.4165,-40.6402],[-73.3303,-40.6224],[-73.3533,-40.5202],[-73.4251,-40.4151]]]},"properties":{"cod_comuna":10306,"comuna":"San Juan de la Costa","provincia":"Osorno","codregion":10}},
{"type":"Feature","geometry":{"type":"Polygon","coordinates":[[[-73.3945,-41.7462],[-73.1604,-41.791],[-73.1398,-41.6822],[-73.2634,-41.6063],[-73.3945,-41.7462]]]},"properties":{"cod_comuna":10102,"comuna":"Calbuco","provincia":"Llanquihue","codregion":10}},
{"type":"Feature","geometry":{"type":"Polygon","coordinates":[[[-72.4225,-42.4802],[-72.5882,-42.188],[-72.7367,-42.2253],[-72.7977,-42.3154],[-72.6306,-42.5131],[-72.8119,-42.5102],[-72.854,-42.6197],[-72.7993,-42.699],[-72.8337,-42.8355],[-72.7125,-42.9132],[-72.7804,-43.0288],[-72.9142,-43.1305],[-72.8706,-43.2332],[-73.0627,-43.3227],[-73.0913,-43.4674],[-72.9491,-43.6365],[-72.7636,-43.77],[-72.5014,-43.7967],[-72.4022,-43.6895],[-72.32,-43.6898],[-72.2577,-43.6667],[-72.2278,-43.6414],[-72.2008,-43.5708],[-72.3081,-43.3892],[-72.2469,-43.4073],[-72.1975,-43.2374],[-72.1637,-43.179],[-72.1847,-43.0976],[-72.1856,-42.9137],[-72.1287,-42.7314],[-72.1728,-42.637],[-72.2258,-42.667],[-72.3988,-42.5783],[-72.4225,-42.4802]]]},"properties":{"cod_comuna":10401,"comuna":"Chaitén","provincia":"Palena","codregion":10}},
{"type":"Feature","geometry":{"type":"Polygon","coordinates":[[[-73.5071,-41.5502],[-73.4915,-41.523],[-73.4177,-41.495],[-73.3474,-41.5222],[-73.334,-41.4745],[-73.247,-41.4604],[-73.2764,-41.4044],[-73.3547,-41.3242],[-73.2962,-41.2672],[-73.6408,-41.3122],[-73.7111,-41.2103],[-73.8416,-41.2761],[-73.8314,-41.3746],[-73.854,-41.4637],[-73.5469,-41.5549],[-73.5071,-41.5502]]]},"properties":{"cod_comuna":10106,"comuna":"Los Muermos","provincia":"Llanquihue","codregion":10}},
{"type":"Feature","geometry":{"type":"Polygon","coordinates":[[[-73.2866,-41.5588],[-73.3291,-41.5085],[-73.3546,-41.5247],[-73.3839,-41.5261],[-73.4187,-41.5073],[-73.4895,-41.5314],[-73.5037,-41.6246],[-73.6497,-41.6025],[-73.718,-41.7251],[-73.54,-41.7735],[-73.3945,-41.7462],[-73.2634,-41.6063],[-73.2866,-41.5588]]]},"properties":{"cod_comuna":10108,"comuna":"Maullín","provincia":"Llanquihue","codregion":10}},
{"type":"Feature","geometry":{"type":"Polygon","coordinates":[[[-73.5169,-42.4555],[-73.5107,-42.5051],[-73.4481,-42.519],[-73.4428,-42.5715],[-73.3893,-42.5836],[-73.3959,-42.5402],[-73.5169,-42.4555]]]},"properties":{"cod_comuna":10210,"comuna":"Quinchao","provincia":"Chiloe","codregion":10}},
{"type":"Feature","geometry":{"type":"Polygon","coordinates":[[[-73.6532,-42.388],[-73.6035,-42.4379],[-73.5139,-42.4556],[-73.5241,-42.3938],[-73.6532,-42.388]]]},"properties":{"cod_comuna":10204,"comuna":"Curaco de Vélez","provincia":"Chiloe","codregion":10}},
{"type":"Feature","geometry":{"type":"Polygon","coordinates":[[[-72.9263,-41.009],[-72.7987,-41.0512],[-72.6206,-41.1192],[-72.4951,-41.104],[-72.1853,-40.9232],[-72.1007,-40.8],[-72.1512,-40.8407],[-72.1727,-40.8725],[-72.3113,-40.8837],[-72.6146,-40.7935],[-72.7356,-40.8169],[-72.8017,-40.8198],[-72.8558,-40.7804],[-72.9799,-40.7633],[-72.9826,-40.9266],[-72.9932,-41.0282],[-72.9263,-41.009]]]},"properties":{"cod_comuna":10302,"comuna":"Puerto Octay","provincia":"Osorno","codregion":10}},
{"type":"Feature","geometry":{"type":"Polygon","coordinates":[[[-72.9932,-41.0282],[-73.1999,-41.0051],[-73.2525,-40.9788],[-73.3213,-41.02],[-73.3805,-41.0166],[-73.3956,-41.0736],[-73.3279,-41.1301],[-73.2334,-41.1681],[-73.1528,-41.166],[-73.014,-41.1819],[-72.9689,-41.2039],[-72.9064,-41.1916],[-72.798,-41.0502],[-72.9263,-41.009],[-72.9932,-41.0282]]]},"properties":{"cod_comuna":10105,"comuna":"Frutillar","provincia":"Llanquihue","codregion":10}},
{"type":"Feature","geometry":{"type":"Polygon","coordinates":[[[-71.9692,-41.3872],[-71.8339,-41.2717],[-71.8867,-41.161],[-71.8181,-41.0625],[-71.8593,-40.8794],[-71.9268,-40.7941],[-72.1007,-40.8],[-72.1853,-40.9232],[-72.4951,-41.104],[-72.7984,-41.0512],[-72.9579,-41.2886],[-73.2997,-41.3128],[-73.3547,-41.3242],[-73.2764,-41.4044],[-73.26,-41.448],[-73.1924,-41.3872],[-73.1159,-41.4083],[-72.7643,-41.3368],[-72.5214,-41.3778],[-72.2817,-41.4595],[-72.1015,-41.3151],[-71.9692,-41.3872]]]},"properties":{"cod_comuna":10109,"comuna":"Puerto Varas","provincia":"Llanquihue","codregion":10}},
{"type":"Feature","geometry":{"type":"Polygon","coordinates":[[[-72.1728,-42.637],[-72.0126,-42.4981],[-72.1298,-42.3855],[-72.1569,-42.1938],[-72.2741,-42.1212],[-72.3233,-42.0563],[-72.2158,-41.9192],[-72.2673,-41.8828],[-72.3959,-41.7812],[-72.5203,-41.8493],[-72.6112,-41.7383],[-72.8779,-41.9141],[-72.6887,-42.0313],[-72.535,-42.0435],[-72.4646,-42.1443],[-72.4225,-42.4802],[-72.401,-42.5743],[-72.2258,-42.667],[-72.1728,-42.637]]]},"properties":{"cod_comuna":10403,"comuna":"Hualaihué","provincia":"Palena","codregion":10}},
{"type":"Feature","geometry":{"type":"Polygon","coordinates":[[[-72.3081,-43.3892],[-72.1958,-43.5559],[-72.2562,-43.6077],[-72.2285,-43.6438],[-72.3227,-43.6919],[-72.2403,-43.8074],[-72.0438,-43.9363],[-71.8566,-43.9292],[-71.7368,-44.067],[-71.6505,-43.9195],[-71.7538,-43.7879],[-71.5811,-43.6518],[-71.7029,-43.6255],[-71.8533,-43.4765],[-71.8854,-43.4501],[-71.9302,-43.457],[-71.9441,-43.4266],[-72.0574,-43.3611],[-72.0705,-43.371],[-72.139,-43.3206],[-72.1108,-43.2985],[-72.1379,-43.3016],[-72.1975,-43.2374],[-72.2469,-43.4073],[-72.3081,-43.3892]]]},"properties":{"cod_comuna":10404,"comuna":"Palena","provincia":"Palena","codregion":10}},
{"type":"Feature","geometry":{"type":"Polygon","coordinates":[[[-72.1108,-43.2985],[-72.1385,-43.3212],[-71.984,-43.4181],[-71.9278,-43.4384],[-71.933,-43.3862],[-71.8909,-43.3815],[-71.7871,-43.2965],[-71.7341,-43.19],[-71.9329,-43.1019],[-72.1382,-42.8934],[-72.1856,-42.9137],[-72.1847,-43.0976],[-72.1637,-43.179],[-72.1379,-43.3016],[-72.1108,-43.2985]]]},"properties":{"cod_comuna":10402,"comuna":"Futaleufú","provincia":"Palena","codregion":10}}
]}