{"type":"FeatureCollection", "features": [
{"type":"Feature","geometry":{"type":"Polygon","coordinates":[[[-71.7034,-46.4571],[-71.7503,-46.3376],[-71.7245,-46.2814],[-71.7782,-46.1982],[-71.86,-46.1938],[-71.9008,-46.1648],[-71.9168,-46.1299],[-71.973,-46.1285],[-71.9827,-46.0963],[-72.0713,-46.0486],[-72.1112,-46.0554],[-72.1513,-46.0283],[-72.2493,-46.0421],[-72.3113,-46.0656],[-72.3023,-46.0293],[-72.3558,-46.0167],[-72.3925,-46.0492],[-72.4697,-46.0582],[-72.4863,-45.9806],[-72.5433,-45.9623],[-72.581,-45.921],[-72.6402,-45.9446],[-72.7008,-45.9236],[-72.7798,-45.9364],[-72.9285,-45.9214],[-72.9652,-46.0267],[-72.9387,-46.071],[-73.0073,-46.1052],[-73.0492,-46.1256],[-73.1371,-46.1284],[-73.078,-46.1965],[-73.1021,-46.2161],[-73.0712,-46.2688],[-73.0139,-46.318],[-73.0373,-46.3476],[-72.9905,-46.3454],[-72.9645,-46.3995],[-72.9964,-46.4533],[-73.0017,-46.4862],[-73.0268,-46.4731],[-73.0832,-46.4862],[-73.0998,-46.5183],[-73.0753,-46.5606],[-72.9681,-46.5715],[-72.8357,-46.6784],[-72.6792,-46.672],[-72.6554,-46.6542],[-72.6708,-46.6261],[-72.5518,-46.66],[-72.4578,-46.6476],[-72.3145,-46.5608],[-72.2329,-46.5318],[-72.1328,-46.5368],[-71.8804,-46.436],[-71.7034,-46.4571]]]},"properties":{"cod_comuna":11402,"comuna":"Río Ibáñez","provincia":"General Carrera","codregion":11}},
{"type":"Feature","geometry":{"type":"Polygon","coordinates":[[[-72.2855,-46.8868],[-72.1646,-46.8597],[-72.113,-46.9252],[-71.9608,-46.9752],[-71.97,-46.9037],[-71.9312,-46.8668],[-71.9558,-46.8152],[-71.8382,-46.7979],[-71.6447,-46.6799],[-71.7034,-46.4571],[-71.8803,-46.436],[-72.1331,-46.5369],[-72.233,-46.5318],[-72.3146,-46.5608],[-72.4585,-46.6479],[-72.5517,-46.66],[-72.6708,-46.6261],[-72.6588,-46.6616],[-72.7408,-46.6847],[-72.8754,-46.6646],[-72.982,-46.5653],[-73.0753,-46.5606],[-73.1007,-46.5164],[-73.0832,-46.4862],[-73.1136,-46.4852],[-73.1732,-46.5082],[-73.2039,-46.5555],[-73.3453,-46.5958],[-73.3298,-46.6646],[-73.3885,-46.68],[-73.378,-46.7523],[-73.4109,-46.8357],[-73.3808,-46.868],[-73.4009,-46.9071],[-73.3636,-46.9276],[-73.3935,-46.9666],[-73.3714,-47.0053],[-73.3856,-47.0512],[-73.2624,-47.036],[-73.2062,-47.0715],[-73.1455,-47.0598],[-73.0999,-47.094],[-73.053,-47.0363],[-72.9953,-47.0531],[-72.8746,-47.0285],[-72.8492,-47.0828],[-72.8102,-47.059],[-72.6048,-47.0338],[-72.5491,-46.9968],[-72.5527,-46.9382],[-72.5189,-46.9018],[-72.3899,-46.9509],[-72.3387,-46.9408],[-72.2855,-46.8868]]]},"properties":{"cod_comuna":11401,"comuna":"Chile Chico","provincia":"General Carrera","codregion":11}},
{"type":"Feature","geometry":{"type":"Polygon","coordinates":[[[-72.2423,-44.8806],[-72.0496,-44.8363],[-72.0057,-44.7846],[-71.9301,-44.8033],[-71.8561,-44.8019],[-71.7846,-44.7514],[-71.6901,-44.764],[-71.6706,-44.7878],[-71.4709,-44.7377],[-71.3947,-44.7906],[-71.2926,-44.8138],[-71.2516,-44.8012],[-71.2054,-44.7507],[-71.1941,-44.6854],[-71.2353,-44.6402],[-71.2008,-44.5916],[-71.0966,-44.5869],[-71.0918,-44.5323],[-71.1617,-44.4991],[-71.1288,-44.4711],[-71.1723,-44.4393],[-71.2467,-44.4174],[-71.3485,-44.4245],[-71.3861,-44.3855],[-71.6693,-44.4094],[-71.7145,-44.381],[-71.8134,-44.4179],[-71.8401,-44.3508],[-71.7861,-44.331],[-71.8031,-44.2719],[-71.7801,-44.2171],[-71.8451,-44.1608],[-71.8495,-44.1148],[-71.7682,-44.1076],[-71.7369,-44.067],[-71.7902,-44.0551],[-71.8265,-43.9999],[-71.8075,-43.9549],[-71.8566,-43.9292],[-71.9556,-43.9462],[-71.9797,-43.967],[-72.0559,-43.9377],[-72.1098,-44.0175],[-72.0512,-44.0977],[-72.1099,-44.0917],[-72.1526,-44.2329],[-72.1303,-44.264],[-72.2429,-44.2801],[-72.292,-44.3073],[-72.2516,-44.3621],[-72.3919,-44.3984],[-72.3291,-44.4375],[-72.379,-44.5155],[-72.3242,-44.5392],[-72.3478,-44.5976],[-72.2894,-44.6666],[-72.3619,-44.6592],[-72.3487,-44.713],[-72.3829,-44.7509],[-72.3724,-44.7664],[-72.2672,-44.7716],[-72.2876,-44.8607],[-72.2423,-44.8806]]]},"properties":{"cod_comuna":11102,"comuna":"Lago Verde","provincia":"Coyhaique","codregion":11}},
{"type":"Feature","geometry":{"type":"Polygon","coordinates":[[[-71.973,-46.1285],[-71.9129,-46.1383],[-71.7152,-46.0893],[-71.6184,-45.9468],[-71.6577,-45.8835],[-71.7677,-45.847],[-71.7429,-45.803],[-71.8021,-45.719],[-71.7723,-45.6953],[-71.796,-45.6654],[-71.7772,-45.6191],[-71.7262,-45.5775],[-71.7609,-45.5569],[-71.6822,-45.513],[-71.5598,-45.5233],[-71.4699,-45.4951],[-71.5344,-45.4329],[-71.5278,-45.3916],[-71.4382,-45.3958],[-71.4471,-45.3662],[-71.3493,-45.3318],[-71.3198,-45.2929],[-71.3331,-45.2413],[-71.4174,-45.1579],[-71.4854,-45.1432],[-71.5053,-45.0716],[-71.5579,-45.0304],[-71.5598,-44.9778],[-71.7415,-44.9589],[-71.8153,-44.9197],[-71.8801,-44.9593],[-71.978,-44.9039],[-72.0403,-44.9019],[-72.0658,-44.8761],[-72.036,-44.8627],[-72.0636,-44.8389],[-72.2423,-44.8806],[-72.2095,-44.994],[-72.151,-45.0187],[-72.084,-45.0874],[-72.0424,-45.0551],[-72.013,-45.0823],[-71.9612,-45.088],[-71.967,-45.1967],[-72.0512,-45.2503],[-72.0275,-45.282],[-72.1177,-45.3732],[-72.1511,-45.358],[-72.1905,-45.4461],[-72.1254,-45.4421],[-72.1301,-45.5325],[-72.2768,-45.539],[-72.2928,-45.5754],[-72.3533,-45.5892],[-72.3823,-45.6187],[-72.3301,-45.6405],[-72.3306,-45.6723],[-72.4438,-45.6767],[-72.4463,-45.7345],[-72.6199,-45.7949],[-72.714,-45.7819],[-72.7317,-45.7573],[-72.813,-45.7991],[-72.8376,-45.7748],[-72.8774,-45.7743],[-72.9161,-45.8007],[-72.8943,-45.8586],[-72.9315,-45.9162],[-72.7811,-45.9364],[-72.697,-45.9239],[-72.6402,-45.9446],[-72.5785,-45.9215],[-72.5433,-45.9623],[-72.4863,-45.9806],[-72.4697,-46.0582],[-72.3925,-46.0492],[-72.3558,-46.0167],[-72.3023,-46.0293],[-72.3113,-46.0656],[-72.1513,-46.0283],[-71.9838,-46.0956],[-71.973,-46.1285]]]},"properties":{"cod_comuna":11101,"comuna":"Coyhaique","provincia":"Coyhaique","codregion":11}},
{"type":"Feature","geometry":{"type":"MultiPolygon","coordinates":[[[[-74.2712,-44.8711],[-74.2966,-44.9126],[-74.3787,-44.9162],[-74.451,-44.8923],[-74.4555,-44.9249],[-74.4014,-44.9635],[-74.3196,-44.9432],[-74.2574,-44.8974],[-74.2712,-44.8711]]],[[[-74.139,-44.8629],[-74.2023,-44.8766],[-74.2525,-44.9309],[-74.3602,-44.9923],[-74.3515,-45.0158],[-74.2657,-45.0372],[-74.1865,-44.998],[-74.1475,-45.0108],[-74.0212,-44.9975],[-73.8927,-44.965],[-73.9534,-44.8944],[-74.0598,-44.8934],[-74.139,-44.8629]]],[[[-75.1391,-44.7646],[-75.2021,-44.8139],[-75.1481,-44.8726],[-75.1626,-44.9198],[-75.1019,-44.9266],[-75.0304,-44.9006],[-75.0232,-44.8485],[-75.0981,-44.7758],[-75.1391,-44.7646]]],[[[-73.9928,-44.7708],[-74.1887,-44.8204],[-73.9915,-44.86],[-73.9299,-44.8332],[-73.9233,-44.8015],[-73.9928,-44.7708]]],[[[-73.8617,-44.7739],[-73.9072,-44.7873],[-73.9175,-44.8646],[-73.8249,-44.9599],[-73.7419,-44.9399],[-73.7936,-44.8034],[-73.8617,-44.7739]]],[[[-74.4549,-44.7115],[-74.535,-44.7404],[-74.4499,-44.8416],[-74.3829,-44.8605],[-74.3018,-44.8422],[-74.3273,-44.803],[-74.3989,-44.7734],[-74.4282,-44.712],[-74.4549,-44.7115]]],[[[-73.6121,-44.7347],[-73.6719,-44.7567],[-73.7361,-44.7535],[-73.7307,-44.8054],[-73.6789,-44.8439],[-73.5945,-44.829],[-73.58,-44.7476],[-73.6121,-44.7347]]],[[[-74.4522,-44.6936],[-74.4579,-44.6311],[-74.5606,-44.6133],[-74.6427,-44.6266],[-74.6782,-44.6682],[-74.4522,-44.6936]]],[[[-74.105,-44.5931],[-74.2938,-44.5991],[-74.316,-44.6171],[-74.403,-44.6179],[-74.4116,-44.6566],[-74.3378,-44.776],[-74.2359,-44.8073],[-74.1911,-44.7782],[-74.0703,-44.7628],[-73.9723,-44.7087],[-73.8409,-44.7004],[-73.9278,-44.611],[-74.105,-44.5931]]],[[[-74.7815,-44.54],[-74.828,-44.5739],[-74.78,-44.6753],[-74.7145,-44.6554],[-74.7352,-44.6315],[-74.7119,-44.5857],[-74.731,-44.5519],[-74.7815,-44.54]]],[[[-73.9075,-44.5628],[-73.9537,-44.5966],[-73.8843,-44.6254],[-73.9075,-44.5628]]],[[[-73.6818,-44.5311],[-73.8024,-44.5615],[-73.8255,-44.5915],[-73.8365,-44.6522],[-73.7432,-44.7519],[-73.5891,-44.6226],[-73.6311,-44.5818],[-73.6103,-44.5588],[-73.6818,-44.5311]]],[[[-74.1838,-44.4707],[-74.2188,-44.5003],[-74.2834,-44.4901],[-74.3002,-44.5018],[-74.338,-44.5091],[-74.3657,-44.5065],[-74.3595,-44.5411],[-74.3118,-44.5761],[-74.1027,-44.5557],[-74.1838,-44.4707]]],[[[-73.8417,-44.4781],[-73.8939,-44.4867],[-73.8798,-44.5244],[-73.8332,-44.5116],[-73.8417,-44.4781]]],[[[-74.1653,-44.4155],[-74.1293,-44.4707],[-73.9743,-44.4795],[-73.9742,-44.5051],[-74.1207,-44.4905],[-74.0907,-44.545],[-74.0332,-44.5603],[-73.9221,-44.5398],[-73.9169,-44.5068],[-73.9748,-44.4648],[-74.0766,-44.4499],[-74.1653,-44.4155]]],[[[-74.3007,-44.3885],[-74.3989,-44.4309],[-74.5169,-44.4253],[-74.5569,-44.4827],[-74.5171,-44.5155],[-74.3968,-44.5372],[-74.3797,-44.5045],[-74.3317,-44.5064],[-74.2819,-44.4835],[-74.2205,-44.4898],[-74.2015,-44.4678],[-74.2459,-44.4046],[-74.3007,-44.3885]]],[[[-73.8233,-44.3728],[-73.8896,-44.4035],[-73.8975,-44.4554],[-73.7526,-44.4521],[-73.7601,-44.417],[-73.8233,-44.3728]]],[[[-74.3171,-44.3266],[-74.4111,-44.3598],[-74.4219,-44.3942],[-74.3443,-44.3877],[-74.3024,-44.3692],[-74.3171,-44.3266]]],[[[-73.6534,-44.3401],[-73.758,-44.3816],[-73.6646,-44.4423],[-73.6283,-44.3791],[-73.6534,-44.3401]]],[[[-72.9729,-44.3638],[-73.0375,-44.3863],[-73.1308,-44.4535],[-73.1635,-44.3989],[-73.2465,-44.4355],[-73.2473,-44.5011],[-73.1818,-44.552],[-73.2783,-44.5418],[-73.2618,-44.5935],[-73.3762,-44.5982],[-73.4277,-44.6423],[-73.4286,-44.7334],[-73.3883,-44.7508],[-73.3627,-44.7994],[-73.3909,-44.8153],[-73.2632,-44.9301],[-73.2128,-44.9372],[-73.042,-44.8796],[-72.9541,-44.7888],[-72.8199,-44.7333],[-72.7933,-44.669],[-72.8043,-44.6466],[-72.6887,-44.5386],[-72.7791,-44.4634],[-72.8678,-44.4271],[-72.8986,-44.4464],[-72.9729,-44.3638]]],[[[-74.1394,-44.3028],[-74.1875,-44.3808],[-74.0737,-44.4175],[-74.1158,-44.3177],[-74.1394,-44.3028]]],[[[-74.0785,-44.2975],[-74.0481,-44.3957],[-73.9095,-44.4473],[-73.9156,-44.3713],[-73.96,-44.3384],[-74.0124,-44.3414],[-74.0785,-44.2975]]],[[[-73.2358,-44.3116],[-73.2868,-44.3389],[-73.2797,-44.3891],[-73.1519,-44.3839],[-73.1893,-44.3233],[-73.2358,-44.3116]]],[[[-73.051,-44.3099],[-73.0464,-44.3659],[-72.98,-44.3542],[-72.9975,-44.3136],[-73.051,-44.3099]]],[[[-73.8054,-44.2617],[-73.8457,-44.2948],[-73.8925,-44.305],[-73.9381,-44.2567],[-73.9735,-44.2766],[-73.9438,-44.3253],[-73.8019,-44.3575],[-73.7627,-44.3243],[-73.7807,-44.2678],[-73.8054,-44.2617]]],[[[-73.9,-44.2455],[-73.9149,-44.2763],[-73.8527,-44.2874],[-73.8396,-44.2606],[-73.9,-44.2455]]],[[[-74.3166,-44.2252],[-74.4169,-44.2541],[-74.3435,-44.3037],[-74.2377,-44.3087],[-74.2456,-44.2622],[-74.3166,-44.2252]]],[[[-74.1373,-44.228],[-74.1609,-44.2944],[-74.1143,-44.3069],[-74.1,-44.2581],[-74.1373,-44.228]]],[[[-73.6697,-44.2371],[-73.7441,-44.2524],[-73.7154,-44.3077],[-73.6316,-44.2623],[-73.6697,-44.2371]]],[[[-74.0172,-44.1366],[-74.1048,-44.2032],[-74.0571,-44.2485],[-74.0627,-44.2926],[-73.9925,-44.3386],[-73.9456,-44.3236],[-73.9861,-44.2611],[-73.9355,-44.2395],[-73.8571,-44.2378],[-73.8866,-44.197],[-73.9728,-44.195],[-74.0172,-44.1366]]],[[[-74.3393,-44.0918],[-74.3436,-44.1207],[-74.1968,-44.1375],[-74.1826,-44.1148],[-74.3393,-44.0918]]],[[[-73.9243,-44.0955],[-73.9952,-44.144],[-73.9578,-44.1898],[-73.8099,-44.1931],[-73.8278,-44.1486],[-73.8961,-44.1744],[-73.8713,-44.1116],[-73.9243,-44.0955]]],[[[-73.1417,-43.8796],[-73.2411,-43.9151],[-73.2659,-43.9695],[-73.2172,-44.0223],[-73.1435,-44.0292],[-73.1146,-43.9023],[-73.1417,-43.8796]]],[[[-72.6915,-44.7725],[-72.746,-44.7468],[-72.9282,-44.8663],[-72.9728,-44.8591],[-73.0973,-44.9507],[-73.1234,-44.9304],[-73.2181,-44.9623],[-73.3556,-44.9544],[-73.3631,-45.0666],[-73.3207,-45.1008],[-73.2476,-45.0867],[-73.2143,-45.1],[-73.1646,-45.1089],[-73.0993,-45.0419],[-73.0039,-45.0645],[-72.9318,-45.0502],[-72.9098,-45.0168],[-72.8297,-45.0513],[-72.7401,-45.0168],[-72.7023,-45.074],[-72.5994,-45.0491],[-72.572,-45.0847],[-72.5068,-45.1047],[-72.4461,-45.0206],[-72.4042,-45.0089],[-72.3579,-45.0366],[-72.3434,-45.0047],[-72.2966,-45.003],[-72.2572,-45.013],[-72.2095,-44.994],[-72.2196,-44.9093],[-72.2876,-44.8607],[-72.2658,-44.7729],[-72.3724,-44.7664],[-72.3829,-44.7509],[-72.3494,-44.7157],[-72.3668,-44.669],[-72.3473,-44.6492],[-72.3838,-44.6441],[-72.3729,-44.6382],[-72.3515,-44.6414],[-72.3184,-44.6701],[-72.291,-44.6657],[-72.3478,-44.5976],[-72.3242,-44.5392],[-72.379,-44.5155],[-72.3291,-44.4375],[-72.3923,-44.3998],[-72.2516,-44.3621],[-72.292,-44.3073],[-72.2429,-44.2801],[-72.1303,-44.264],[-72.1526,-44.2329],[-72.1099,-44.0917],[-72.0512,-44.0977],[-72.1077,-44.045],[-72.0717,-43.9619],[-72.1077,-43.9319],[-72.077,-43.901],[-72.1198,-43.8775],[-72.1811,-43.8948],[-72.1933,-43.8424],[-72.2403,-43.8074],[-72.3344,-43.674],[-72.4032,-43.69],[-72.4225,-43.7297],[-72.4758,-43.7353],[-72.5033,-43.7968],[-72.6121,-43.755],[-72.6618,-43.7773],[-72.7636,-43.77],[-72.7999,-43.7404],[-72.7666,-43.6854],[-72.8237,-43.6447],[-72.8547,-43.7403],[-72.8938,-43.7381],[-72.9377,-43.697],[-73.047,-43.738],[-72.9431,-43.751],[-72.8708,-43.7881],[-73.0438,-43.8471],[-73.0565,-43.8756],[-73.0299,-43.916],[-73.0997,-43.9537],[-73.1237,-44.0117],[-73.0839,-44.091],[-73.1293,-44.105],[-73.1531,-44.0628],[-73.2096,-44.0669],[-73.2025,-44.1503],[-73.2613,-44.1067],[-73.2825,-44.1631],[-73.2549,-44.1952],[-73.1705,-44.2001],[-73.1839,-44.2485],[-73.086,-44.2729],[-72.9787,-44.2816],[-72.9129,-44.3219],[-72.9132,-44.3705],[-72.808,-44.4002],[-72.7455,-44.4421],[-72.746,-44.4635],[-72.6739,-44.5107],[-72.6459,-44.4131],[-72.5553,-44.3269],[-72.6066,-44.4723],[-72.583,-44.5022],[-72.6463,-44.5307],[-72.6783,-44.5871],[-72.6639,-44.6234],[-72.7175,-44.6625],[-72.683,-44.73],[-72.6915,-44.7725]]]]},"properties":{"cod_comuna":11202,"comuna":"Cisnes","provincia":"Aysén","codregion":11}},
{"type":"Feature","geometry":{"type":"MultiPolygon","coordinates":[[[[-73.9191,-47.0058],[-73.9952,-46.9954],[-74.0485,-47.0049],[-74.1241,-46.9928],[-74.17,-47.0361],[-74.1949,-47.1178],[-74.0999,-47.1457],[-74.0933,-47.1922],[-74.0411,-47.2886],[-74.0805,-47.2874],[-74.104,-47.1969],[-74.2623,-47.1905],[-74.331,-47.2714],[-74.3804,-47.2798],[-74.3874,-47.3218],[-74.4454,-47.3528],[-74.4561,-47.4625],[-74.4181,-47.4529],[-74.3824,-47.5069],[-74.301,-47.5466],[-74.2561,-47.5891],[-74.1768,-47.5639],[-74.0962,-47.5756],[-74.0322,-47.6034],[-74.2123,-47.5986],[-74.1917,-47.6371],[-74.1151,-47.6221],[-74.0698,-47.6544],[-74.2406,-47.6364],[-74.2977,-47.6548],[-74.4041,-47.6589],[-74.3477,-47.6014],[-74.3888,-47.5275],[-74.522,-47.5217],[-74.6056,-47.5864],[-74.6399,-47.6401],[-74.6317,-47.6628],[-74.6858,-47.6917],[-74.6248,-47.7484],[-74.4746,-47.7785],[-74.4274,-47.744],[-74.3655,-47.7507],[-74.3149,-47.7781],[-74.2376,-47.7601],[-74.1485,-47.7814],[-74.0972,-47.7654],[-74.0202,-47.7668],[-73.9954,-47.8057],[-73.8972,-47.8139],[-73.8846,-47.8302],[-73.6787,-47.762],[-73.5777,-47.7846],[-73.5661,-47.8086],[-73.4788,-47.839],[-73.4948,-47.9049],[-73.4304,-47.9437],[-73.2754,-47.9336],[-73.2066,-47.9552],[-73.1765,-47.9574],[-73.1607,-47.9626],[-73.0798,-48.0093],[-73.05,-47.847],[-73.1931,-47.8317],[-73.2584,-47.8021],[-73.2074,-47.7517],[-73.2334,-47.7302],[-73.4275,-47.7148],[-73.394,-47.5955],[-73.4347,-47.5493],[-73.435,-47.4632],[-73.4617,-47.4264],[-73.4085,-47.3323],[-73.4786,-47.2399],[-73.4623,-47.1767],[-73.5074,-47.1554],[-73.4579,-47.105],[-73.3886,-47.1007],[-73.4014,-47.0642],[-73.6069,-47.07],[-73.8146,-47.0382],[-73.8705,-47.054],[-73.9191,-47.0058]]],[[[-74.4885,-47.928],[-74.5344,-47.9702],[-74.6063,-47.9913],[-74.5989,-48.0566],[-74.536,-48.0907],[-74.47,-48.0856],[-74.3687,-48.1871],[-74.2738,-48.213],[-74.1857,-48.284],[-74.2262,-48.3327],[-74.2053,-48.3522],[-74.1027,-48.3465],[-74.054,-48.389],[-74.0045,-48.3882],[-73.9513,-48.4153],[-73.9803,-48.4289],[-73.9773,-48.4922],[-74.0018,-48.5134],[-74.1458,-48.4661],[-74.3597,-48.5869],[-74.3055,-48.6283],[-74.3016,-48.6756],[-74.2434,-48.7178],[-74.1602,-48.6885],[-74.0698,-48.6956],[-74.0256,-48.7203],[-73.9847,-48.7036],[-73.5901,-48.9423],[-73.1165,-48.1595],[-73.1715,-48.2318],[-73.2676,-48.2434],[-73.3329,-48.2252],[-73.3825,-48.1762],[-73.4367,-48.1652],[-73.5154,-48.2422],[-73.5448,-48.1351],[-73.686,-48.0845],[-73.7112,-48.0241],[-73.7937,-48.0629],[-73.8223,-48.0201],[-73.8651,-48.0149],[-73.9108,-48.0396],[-73.9978,-47.988],[-74.0706,-47.9663],[-74.2592,-48.0001],[-74.1931,-48.1373],[-74.3017,-48.0193],[-74.2861,-48.0009],[-74.4885,-47.928]]],[[[-75.314,-47.9967],[-75.3765,-48.0443],[-75.4389,-48.0404],[-75.532,-48.0888],[-75.5003,-48.1409],[-75.4886,-48.2148],[-75.4523,-48.2414],[-75.4064,-48.2368],[-75.4089,-48.2856],[-75.349,-48.3257],[-75.4484,-48.3382],[-75.5002,-48.3763],[-75.4714,-48.4095],[-75.4208,-48.4149],[-75.3647,-48.391],[-75.2879,-48.3824],[-75.2246,-48.4126],[-75.2568,-48.467],[-75.2155,-48.5567],[-75.2283,-48.5824],[-75.175,-48.6886],[-75.007,-48.5926],[-75.0065,-48.5299],[-75.0341,-48.5117],[-75.0198,-48.4713],[-75.0745,-48.3832],[-75.1283,-48.3246],[-75.2031,-48.204],[-75.209,-48.1272],[-75.2835,-48.1326],[-75.2551,-48.0684],[-75.314,-47.9967]]],[[[-74.6901,-48.1154],[-74.7166,-48.1577],[-74.6969,-48.2115],[-74.7366,-48.2285],[-74.7665,-48.2988],[-74.7559,-48.354],[-74.7036,-48.4058],[-74.6665,-48.4174],[-74.6584,-48.4646],[-74.703,-48.4937],[-74.7654,-48.5081],[-74.7644,-48.3776],[-74.8437,-48.3912],[-74.9708,-48.4772],[-74.949,-48.4889],[-74.9601,-48.5676],[-74.8848,-48.6171],[-74.8413,-48.6069],[-74.7211,-48.6323],[-74.6456,-48.6575],[-74.5861,-48.6563],[-74.5465,-48.6918],[-74.4518,-48.6701],[-74.4719,-48.6269],[-74.5659,-48.5374],[-74.5535,-48.4598],[-74.5957,-48.417],[-74.5497,-48.408],[-74.5455,-48.3411],[-74.6276,-48.2784],[-74.6089,-48.2407],[-74.6351,-48.1695],[-74.6901,-48.1154]]],[[[-73.0836,-48.0733],[-73.0799,-48.0103],[-73.0962,-48.0113],[-73.1292,-47.9962],[-73.1549,-47.9772],[-73.162,-47.9638],[-73.1778,-47.9579],[-73.2025,-47.9748],[-73.3021,-47.9517],[-73.4101,-47.9679],[-73.5026,-47.9253],[-73.5023,-47.8836],[-73.5703,-47.8629],[-73.5969,-47.8867],[-73.6192,-47.954],[-73.4468,-48.125],[-73.2998,-48.1711],[-73.3327,-48.222],[-73.1992,-48.2236],[-73.1384,-48.1611],[-73.1113,-48.1498],[-73.1308,-48.0849],[-73.1063,-48.1007],[-73.1099,-48.1344],[-73.0706,-48.1504],[-73.0409,-48.14],[-73.0425,-48.0991],[-73.0836,-48.0733]]],[[[-75.1686,-48.0672],[-75.2132,-48.0748],[-75.1717,-48.1269],[-75.144,-48.2216],[-75.0901,-48.2621],[-74.9805,-48.4433],[-74.9602,-48.4485],[-74.8216,-48.3434],[-74.7768,-48.3664],[-74.7758,-48.2691],[-74.7387,-48.2131],[-74.736,-48.1692],[-74.8278,-48.1961],[-74.8389,-48.1596],[-74.978,-48.0832],[-75.073,-48.077],[-75.127,-48.0858],[-75.1686,-48.0672]]],[[[-74.0355,-47.8732],[-74.0188,-47.8958],[-74.0495,-47.9282],[-74.0667,-47.8632],[-73.9889,-47.8326],[-74.0773,-47.8165],[-74.1842,-47.7796],[-74.2379,-47.7784],[-74.3311,-47.8087],[-74.4694,-47.8878],[-74.32,-47.9234],[-74.2592,-47.9636],[-74.1261,-47.9483],[-74.091,-47.9258],[-73.9601,-47.9433],[-73.8209,-47.9423],[-73.7749,-47.9287],[-73.7465,-47.8592],[-73.8046,-47.8403],[-73.8558,-47.8699],[-74.0126,-47.808],[-74.0207,-47.8208],[-73.997,-47.8309],[-73.9686,-47.8301],[-73.9824,-47.8399],[-74.0176,-47.8465],[-74.0355,-47.8732]]],[[[-75.3082,-48.4857],[-75.2911,-48.4052],[-75.3527,-48.4059],[-75.4709,-48.4682],[-75.5005,-48.4252],[-75.5851,-48.4606],[-75.5762,-48.4987],[-75.6041,-48.54],[-75.5626,-48.643],[-75.4616,-48.6812],[-75.3711,-48.6484],[-75.2659,-48.5895],[-75.2345,-48.56],[-75.2575,-48.4992],[-75.2567,-48.4194],[-75.2864,-48.4224],[-75.3082,-48.4857]]],[[[-74.9834,-47.8682],[-75.0135,-47.909],[-75.1097,-47.9252],[-75.2061,-48.0318],[-75.0845,-47.998],[-75.086,-48.0522],[-74.9951,-48.062],[-74.828,-48.1588],[-74.7942,-48.1],[-74.8295,-48.0837],[-74.756,-48.0435],[-74.7608,-48.0211],[-74.932,-47.9738],[-74.9719,-47.9412],[-74.9409,-47.9061],[-74.9834,-47.8682]]],[[[-74.5531,-48.1052],[-74.553,-48.1728],[-74.5323,-48.2734],[-74.4578,-48.3442],[-74.3068,-48.2628],[-74.4782,-48.1204],[-74.5531,-48.1052]]],[[[-74.8449,-47.7886],[-74.9321,-47.8765],[-74.9487,-47.9459],[-74.8409,-47.9893],[-74.7702,-47.995],[-74.785,-47.9301],[-74.7618,-47.8958],[-74.7624,-47.8104],[-74.8449,-47.7886]]],[[[-74.2797,-48.2719],[-74.3685,-48.3316],[-74.4459,-48.3542],[-74.2632,-48.4233],[-74.2238,-48.4692],[-74.1405,-48.4277],[-74.2154,-48.3906],[-74.2481,-48.3321],[-74.2347,-48.2967],[-74.2797,-48.2719]]],[[[-75.0793,-47.6637],[-75.0949,-47.6973],[-75.176,-47.7435],[-75.2603,-47.713],[-75.3488,-47.7312],[-75.2863,-47.7575],[-75.1541,-47.7854],[-75.1415,-47.8196],[-75.0447,-47.8138],[-75.0182,-47.7878],[-75.0892,-47.6931],[-75.0793,-47.6637]]],[[[-75.2512,-48.5848],[-75.3578,-48.6512],[-75.4467,-48.6786],[-75.4541,-48.7012],[-75.5082,-48.6743],[-75.5525,-48.6714],[-75.5951,-48.6501],[-75.5807,-48.7538],[-75.5007,-48.7678],[-75.3964,-48.6992],[-75.3444,-48.6846],[-75.2497,-48.619],[-75.2512,-48.5848]]],[[[-74.4637,-48.3718],[-74.4539,-48.4316],[-74.3974,-48.4585],[-74.4123,-48.513],[-74.3552,-48.5389],[-74.2739,-48.5051],[-74.2351,-48.4712],[-74.4637,-48.3718]]],[[[-74.1187,-48.3516],[-74.1969,-48.3642],[-74.1997,-48.3924],[-74.1343,-48.4251],[-74.1479,-48.4402],[-73.9959,-48.4977],[-73.9854,-48.4117],[-74.0059,-48.3928],[-74.0632,-48.3974],[-74.1187,-48.3516]]],[[[-74.2935,-47.0283],[-74.4485,-47.0742],[-74.4259,-47.1691],[-74.2658,-47.0796],[-74.2469,-47.0438],[-74.2935,-47.0283]]],[[[-75.0325,-47.6677],[-75.0571,-47.6908],[-75.0023,-47.7517],[-74.9294,-47.7784],[-74.8497,-47.7559],[-74.916,-47.692],[-75.0325,-47.6677]]],[[[-73.7052,-47.8642],[-73.7478,-47.9273],[-73.6584,-47.9832],[-73.6223,-47.969],[-73.6183,-47.9217],[-73.6425,-47.88],[-73.7052,-47.8642]]],[[[-74.3872,-47.7621],[-74.4678,-47.8082],[-74.4768,-47.8844],[-74.3382,-47.789],[-74.3872,-47.7621]]],[[[-75.2349,-48.6165],[-75.3406,-48.7141],[-75.2937,-48.7237],[-75.2309,-48.6845],[-75.2349,-48.6165]]],[[[-74.7456,-47.9005],[-74.7635,-47.934],[-74.7407,-48.0107],[-74.6769,-47.9725],[-74.7456,-47.9005]]],[[[-74.5387,-47.7997],[-74.6189,-47.8003],[-74.5857,-47.8664],[-74.5267,-47.8777],[-74.5129,-47.8231],[-74.5387,-47.7997]]],[[[-74.6817,-47.8559],[-74.6178,-47.8619],[-74.6454,-47.7914],[-74.7001,-47.8192],[-74.6817,-47.8559]]],[[[-74.5312,-47.8954],[-74.6081,-47.907],[-74.6012,-47.9631],[-74.5075,-47.9162],[-74.5312,-47.8954]]],[[[-75.4112,-48.2556],[-75.4915,-48.2777],[-75.4941,-48.3199],[-75.4424,-48.3214],[-75.4112,-48.2556]]]]},"properties":{"cod_comuna":11303,"comuna":"Tortel","provincia":"Capitán Prat","codregion":11}},
{"type":"Feature","geometry":{"type":"Polygon","coordinates":[[[-72.9155,-47.7333],[-72.9235,-47.7757],[-72.949,-47.7974],[-72.9366,-47.861],[-72.9973,-47.8447],[-73.0643,-47.8693],[-73.0424,-47.8963],[-73.0749,-47.9327],[-73.0799,-48.0092],[-73.0557,-48.0076],[-73.0003,-48.0375],[-73.0234,-48.0376],[-73.0557,-48.0086],[-73.0799,-48.0102],[-73.0836,-48.0733],[-73.0426,-48.0991],[-73.0413,-48.1407],[-73.0853,-48.1467],[-73.1166,-48.1594],[-73.59,-48.942],[-73.1427,-49.2116],[-73.1418,-49.1799],[-73.0045,-49.0634],[-72.9935,-48.9983],[-72.9206,-48.9356],[-72.7959,-48.9683],[-72.7443,-48.906],[-72.6966,-48.8967],[-72.53,-48.7962],[-72.541,-48.6349],[-72.5884,-48.4916],[-72.5355,-48.4819],[-72.504,-48.5175],[-72.4421,-48.5129],[-72.3745,-48.4497],[-72.405,-48.4142],[-72.3472,-48.389],[-72.3804,-48.3495],[-72.28,-48.361],[-72.2281,-48.3203],[-72.3151,-48.235],[-72.3,-48.1555],[-72.3608,-48.0721],[-72.4435,-48.0634],[-72.425,-47.9663],[-72.499,-47.9616],[-72.5278,-47.9368],[-72.4741,-47.8574],[-72.4688,-47.8119],[-72.5058,-47.7618],[-72.5679,-47.7595],[-72.6369,-47.7978],[-72.6337,-47.84],[-72.6789,-47.8432],[-72.6769,-47.8932],[-72.6994,-47.9311],[-72.7413,-47.9341],[-72.8145,-47.8212],[-72.8692,-47.8005],[-72.8485,-47.7589],[-72.9155,-47.7333]]]},"properties":{"cod_comuna":11302,"comuna":"O'Higgins","provincia":"Capitán Prat","codregion":11}},
{"type":"Feature","geometry":{"type":"Polygon","coordinates":[[[-72.5527,-46.9382],[-72.5467,-46.9768],[-72.6048,-47.0338],[-72.8102,-47.059],[-72.8492,-47.0828],[-72.8746,-47.0285],[-72.9953,-47.0531],[-73.053,-47.0363],[-73.0999,-47.094],[-73.1455,-47.0598],[-73.2062,-47.0715],[-73.2615,-47.0362],[-73.3661,-47.0409],[-73.4011,-47.0643],[-73.3886,-47.1007],[-73.4579,-47.105],[-73.5074,-47.1554],[-73.4624,-47.1766],[-73.4786,-47.2398],[-73.4085,-47.3323],[-73.4617,-47.4264],[-73.435,-47.4632],[-73.4348,-47.5493],[-73.394,-47.5955],[-73.4276,-47.7148],[-73.2326,-47.7305],[-73.2074,-47.7517],[-73.2585,-47.8021],[-73.1931,-47.8317],[-73.072,-47.8337],[-73.0553,-47.8653],[-72.9973,-47.8447],[-72.9366,-47.861],[-72.949,-47.7974],[-72.9235,-47.7757],[-72.9155,-47.7333],[-72.8699,-47.7446],[-72.8481,-47.7598],[-72.8692,-47.8005],[-72.8145,-47.8212],[-72.7425,-47.934],[-72.6994,-47.9311],[-72.6769,-47.8932],[-72.6789,-47.8432],[-72.6337,-47.84],[-72.6369,-47.7978],[-72.5679,-47.7595],[-72.4432,-47.746],[-72.42,-47.6606],[-72.3534,-47.6371],[-72.3126,-47.5957],[-72.3263,-47.5702],[-72.2921,-47.5122],[-72.3415,-47.4552],[-72.2934,-47.4455],[-72.2445,-47.4045],[-72.1976,-47.4164],[-72.161,-47.3949],[-72.1278,-47.3282],[-72.0464,-47.3391],[-71.9967,-47.2949],[-72.0193,-47.1978],[-71.8684,-47.2337],[-71.8898,-47.1841],[-71.8499,-47.1629],[-71.8799,-47.1074],[-71.9551,-47.0768],[-71.8806,-47.009],[-71.9318,-46.9756],[-72.0926,-46.936],[-72.1614,-46.86],[-72.2855,-46.8868],[-72.3387,-46.9408],[-72.3899,-46.9509],[-72.5177,-46.9014],[-72.5527,-46.9382]]]},"properties":{"cod_comuna":11301,"comuna":"Cochrane","provincia":"Capitán Prat","codregion":11}},
{"type":"Feature","geometry":{"type":"MultiPolygon","coordinates":[[[[-73.845,-43.772],[-73.838,-43.8043],[-73.8994,-43.8408],[-73.9703,-43.846],[-74.0706,-43.8047],[-74.1293,-43.8232],[-74.1578,-43.8631],[-74.0751,-43.9052],[-74.0214,-43.9086],[-73.9386,-43.9535],[-73.9164,-43.9069],[-73.9415,-43.8521],[-73.7847,-43.8362],[-73.845,-43.772]]],[[[-73.6927,-43.934],[-73.7365,-43.9918],[-73.7113,-44.0354],[-73.6571,-44.052],[-73.6345,-44.0905],[-73.5807,-44.1031],[-73.5761,-44.0658],[-73.651,-44.0322],[-73.5982,-44.0028],[-73.6927,-43.934]]],[[[-73.7726,-43.8262],[-73.768,-43.8474],[-73.7952,-43.8433],[-73.8301,-43.8654],[-73.8481,-43.9033],[-73.7381,-43.8999],[-73.7726,-43.8262]]],[[[-73.8946,-43.932],[-73.9166,-43.9644],[-73.7975,-43.9936],[-73.78,-43.9724],[-73.8946,-43.932]]]]},"properties":{"cod_comuna":11203,"comuna":"Guaitecas","provincia":"Aysén","codregion":11}},
{"type":"Feature","geometry":{"type":"MultiPolygon","coordinates":[[[[-74.673,-46.8143],[-74.6422,-46.8406],[-74.6344,-46.8756],[-74.5899,-46.855],[-74.5211,-46.8888],[-74.3918,-46.8949],[-74.3852,-46.848],[-74.4633,-46.8501],[-74.5209,-46.8239],[-74.6329,-46.8444],[-74.673,-46.8143]]],[[[-73.8665,-45.9961],[-73.9036,-46.0031],[-73.9217,-46.0911],[-73.864,-46.0959],[-73.8184,-46.1571],[-73.7285,-46.2096],[-73.6797,-46.1557],[-73.6457,-46.0749],[-73.7436,-46.0317],[-73.8665,-45.9961]]],[[[-73.5286,-45.8619],[-73.5936,-45.924],[-73.5609,-45.9461],[-73.6361,-45.975],[-73.6028,-46.058],[-73.6493,-46.2188],[-73.6726,-46.329],[-73.5767,-46.2573],[-73.605,-46.2219],[-73.538,-46.1844],[-73.5231,-46.1429],[-73.4261,-46.0597],[-73.3571,-45.9212],[-73.3219,-45.8976],[-73.4707,-45.8843],[-73.5286,-45.8619]]],[[[-73.6978,-45.8069],[-73.7179,-45.8021],[-73.8654,-45.8559],[-73.9208,-45.94],[-73.9027,-45.989],[-73.8227,-45.9855],[-73.7815,-45.9027],[-73.737,-45.8925],[-73.7998,-46.0025],[-73.6605,-46.0295],[-73.6492,-45.8877],[-73.6978,-45.8069]]],[[[-74.4872,-45.7412],[-74.5754,-45.7956],[-74.5003,-45.821],[-74.468,-45.8127],[-74.4872,-45.7412]]],[[[-73.8323,-45.7647],[-73.8841,-45.8212],[-73.7625,-45.8071],[-73.8323,-45.7647]]],[[[-74.025,-45.7377],[-74.0336,-45.7693],[-74.0948,-45.7946],[-74.017,-45.8559],[-73.996,-45.9344],[-73.9597,-45.9216],[-73.9321,-45.8697],[-73.9263,-45.7965],[-73.8722,-45.7484],[-74.025,-45.7377]]],[[[-74.1931,-45.7397],[-74.2098,-45.7147],[-74.2751,-45.7086],[-74.323,-45.7515],[-74.3103,-45.7932],[-74.2565,-45.8109],[-74.1137,-45.8019],[-74.1461,-45.7469],[-74.1931,-45.7397]]],[[[-73.7382,-45.7088],[-73.7951,-45.7044],[-73.7309,-45.7715],[-73.6939,-45.7455],[-73.7382,-45.7088]]],[[[-74.8257,-45.5987],[-74.8594,-45.6564],[-74.7241,-45.718],[-74.7653,-45.6258],[-74.8257,-45.5987]]],[[[-74.5209,-45.5768],[-74.6055,-45.6036],[-74.6648,-45.6664],[-74.6836,-45.7175],[-74.6386,-45.7639],[-74.58,-45.7591],[-74.5435,-45.7129],[-74.5498,-45.6604],[-74.5082,-45.609],[-74.5209,-45.5768]]],[[[-73.9836,-45.5344],[-74.0825,-45.6031],[-74.0356,-45.7239],[-73.956,-45.7363],[-73.8789,-45.7093],[-73.8583,-45.6122],[-73.8875,-45.573],[-73.9836,-45.5344]]],[[[-74.3898,-45.4465],[-74.4573,-45.5465],[-74.4514,-45.5954],[-74.4848,-45.6098],[-74.425,-45.6905],[-74.4876,-45.7291],[-74.4484,-45.7837],[-74.3658,-45.7748],[-74.2913,-45.7217],[-74.2995,-45.6954],[-74.2071,-45.6928],[-74.1784,-45.6289],[-74.2088,-45.5585],[-74.261,-45.4914],[-74.3194,-45.4594],[-74.3898,-45.4465]]],[[[-74.4316,-45.4366],[-74.5003,-45.4476],[-74.5285,-45.5354],[-74.4841,-45.6019],[-74.4591,-45.5936],[-74.4724,-45.5265],[-74.4075,-45.4444],[-74.4316,-45.4366]]],[[[-74.0307,-45.4251],[-74.1002,-45.4971],[-74.1203,-45.5446],[-74.089,-45.5587],[-73.9823,-45.5268],[-73.9073,-45.5431],[-73.8371,-45.5742],[-73.775,-45.4628],[-73.8623,-45.4649],[-74.0307,-45.4251]]],[[[-73.6713,-45.435],[-73.7527,-45.5181],[-73.7929,-45.6691],[-73.689,-45.7008],[-73.6242,-45.7688],[-73.5791,-45.6849],[-73.6727,-45.6067],[-73.5579,-45.6454],[-73.5809,-45.5143],[-73.5425,-45.4836],[-73.5707,-45.4512],[-73.6713,-45.435]]],[[[-73.7934,-45.3692],[-73.8293,-45.3849],[-73.9776,-45.384],[-73.9916,-45.4025],[-74.0384,-45.4153],[-73.8775,-45.4517],[-73.7883,-45.4145],[-73.7934,-45.3692]]],[[[-74.0572,-45.343],[-74.077,-45.3877],[-74.0235,-45.41],[-73.9723,-45.3788],[-74.0137,-45.3697],[-74.0572,-45.343]]],[[[-74.1726,-45.3216],[-74.2149,-45.3695],[-74.1973,-45.3856],[-74.1246,-45.363],[-74.1726,-45.3216]]],[[[-74.3963,-45.2825],[-74.505,-45.3029],[-74.5149,-45.3376],[-74.3416,-45.4264],[-74.2688,-45.4144],[-74.3271,-45.3111],[-74.3963,-45.2825]]],[[[-73.4995,-45.3183],[-73.5802,-45.3262],[-73.5853,-45.3563],[-73.4804,-45.3603],[-73.4995,-45.3183]]],[[[-73.3247,-45.3001],[-73.4233,-45.3006],[-73.3796,-45.3347],[-73.3247,-45.3001]]],[[[-73.5417,-45.2406],[-73.5684,-45.3047],[-73.4915,-45.2907],[-73.4847,-45.2668],[-73.5417,-45.2406]]],[[[-73.7651,-45.3576],[-73.7512,-45.3318],[-73.804,-45.2499],[-73.878,-45.2641],[-73.9824,-45.264],[-74.0213,-45.2041],[-74.119,-45.2255],[-74.1584,-45.257],[-74.1061,-45.3124],[-73.9782,-45.369],[-73.8394,-45.3719],[-73.7651,-45.3576]]],[[[-74.4959,-45.1549],[-74.5723,-45.204],[-74.5422,-45.2316],[-74.4854,-45.2126],[-74.4959,-45.1549]]],[[[-74.358,-45.1611],[-74.3994,-45.1658],[-74.3966,-45.2511],[-74.288,-45.3285],[-74.2217,-45.3607],[-74.1869,-45.3237],[-74.188,-45.2291],[-74.358,-45.1611]]],[[[-74.3718,-45.0407],[-74.413,-45.1211],[-74.2973,-45.1677],[-74.2461,-45.1658],[-74.2773,-45.0726],[-74.3718,-45.0407]]],[[[-73.3848,-45.068],[-73.4176,-45.0731],[-73.4184,-45.1415],[-73.3392,-45.16],[-73.3848,-45.068]]],[[[-73.8069,-44.985],[-73.8387,-45.005],[-73.9048,-44.9946],[-73.953,-45.0286],[-74.0348,-45.0448],[-74.177,-45.0321],[-74.2346,-45.0774],[-74.2152,-45.1686],[-74.1483,-45.1614],[-74.059,-45.1753],[-74.0124,-45.2017],[-73.9758,-45.2559],[-73.8092,-45.2366],[-73.7589,-45.2787],[-73.6881,-45.2861],[-73.7212,-45.2345],[-73.6776,-45.1941],[-73.6941,-45.1724],[-73.6845,-45.1128],[-73.7099,-45.0553],[-73.798,-45.0242],[-73.8069,-44.985]]],[[[-73.2143,-45.1],[-73.2264,-45.0667],[-73.3206,-45.1008],[-73.2738,-45.1496],[-73.3004,-45.195],[-73.4262,-45.1886],[-73.4652,-45.2053],[-73.4657,-45.241],[-73.4249,-45.2745],[-73.3102,-45.2871],[-73.2725,-45.246],[-73.209,-45.2387],[-72.9882,-45.4043],[-72.906,-45.4255],[-72.8746,-45.389],[-72.8046,-45.3777],[-72.7769,-45.4061],[-72.8339,-45.484],[-72.9758,-45.4435],[-73.1056,-45.3943],[-73.1471,-45.3585],[-73.1488,-45.3153],[-73.1975,-45.2916],[-73.328,-45.3462],[-73.3931,-45.4068],[-73.4761,-45.4456],[-73.5645,-45.7795],[-73.4691,-45.7434],[-73.368,-45.6392],[-73.2998,-45.6231],[-73.2779,-45.646],[-73.1299,-45.6507],[-73.1902,-45.689],[-73.2348,-45.6784],[-73.3748,-45.6962],[-73.5312,-45.8249],[-73.5199,-45.8482],[-73.4448,-45.8583],[-73.3708,-45.8923],[-73.2353,-45.8842],[-73.1812,-45.8296],[-73.1576,-45.8288],[-73.2258,-45.8886],[-73.3162,-45.8994],[-73.3697,-45.9536],[-73.3896,-46.0455],[-73.4853,-46.1544],[-73.5564,-46.2719],[-73.4364,-46.2901],[-73.4218,-46.3167],[-73.5688,-46.3021],[-73.7212,-46.414],[-73.8323,-46.5893],[-73.9164,-46.5618],[-73.8646,-46.4973],[-73.8625,-46.4547],[-73.7711,-46.3794],[-73.7227,-46.2666],[-73.7261,-46.2316],[-73.8119,-46.2003],[-73.859,-46.1357],[-73.9823,-46.1466],[-73.9392,-46.0796],[-73.9442,-46.0337],[-74.0588,-46.0151],[-74.0086,-45.9722],[-74.0044,-45.937],[-74.1406,-45.8912],[-74.0599,-45.8603],[-74.0742,-45.8119],[-74.2126,-45.8151],[-74.266,-45.8342],[-74.3399,-45.7945],[-74.4509,-45.8397],[-74.4529,-45.8625],[-74.3242,-45.9758],[-74.3906,-45.9544],[-74.4863,-45.888],[-74.5241,-45.8392],[-74.6841,-45.816],[-74.7962,-45.8325],[-74.8147,-45.8667],[-74.8606,-45.882],[-74.9337,-45.8595],[-74.9122,-45.9201],[-74.9617,-45.92],[-75.0065,-45.8593],[-75.0769,-45.8762],[-75.06,-45.9725],[-75.0029,-46.0066],[-75.0568,-46.04],[-75.0468,-46.0922],[-75.0143,-46.1124],[-74.8631,-46.1075],[-74.8283,-46.0678],[-74.7493,-46.0534],[-74.7355,-46.0782],[-74.7865,-46.1685],[-74.8736,-46.1598],[-74.9188,-46.2313],[-75.001,-46.2145],[-75.0742,-46.2515],[-75.099,-46.3261],[-75.1462,-46.324],[-75.186,-46.3673],[-75.3015,-46.4018],[-75.3179,-46.4968],[-75.3858,-46.4964],[-75.3974,-46.5464],[-75.4568,-46.5145],[-75.5036,-46.5241],[-75.5016,-46.5907],[-75.5966,-46.587],[-75.5923,-46.6441],[-75.6341,-46.6532],[-75.6547,-46.7174],[-75.6246,-46.7656],[-75.6443,-46.8067],[-75.5825,-46.8251],[-75.5754,-46.8842],[-75.5001,-46.9039],[-75.5099,-46.9423],[-75.4693,-46.9648],[-75.314,-46.9341],[-75.2536,-46.9029],[-75.258,-46.8461],[-75.3921,-46.7141],[-75.4426,-46.7319],[-75.4798,-46.7142],[-75.4821,-46.6733],[-75.3971,-46.6557],[-75.3576,-46.6209],[-75.3118,-46.6354],[-75.1539,-46.6373],[-75.0548,-46.5677],[-75.0212,-46.5057],[-74.9183,-46.5056],[-74.9863,-46.5574],[-74.9786,-46.5799],[-75.0458,-46.6244],[-75.0354,-46.6583],[-74.9606,-46.7473],[-74.8348,-46.7691],[-74.7905,-46.8098],[-74.7334,-46.8013],[-74.6637,-46.812],[-74.6356,-46.8385],[-74.5864,-46.7765],[-74.5007,-46.7904],[-74.3203,-46.7468],[-74.3026,-46.7704],[-74.2193,-46.7556],[-74.253,-46.8055],[-74.1822,-46.8624],[-74.0619,-46.9846],[-73.9952,-46.9767],[-73.9191,-47.0058],[-73.8799,-47.0518],[-73.8146,-47.0382],[-73.6069,-47.07],[-73.3869,-47.0596],[-73.3714,-47.0053],[-73.3935,-46.9666],[-73.3636,-46.9276],[-73.4009,-46.9071],[-73.3808,-46.868],[-73.4109,-46.8357],[-73.378,-46.7523],[-73.3885,-46.68],[-73.3444,-46.6786],[-73.325,-46.6524],[-73.3453,-46.5958],[-73.2039,-46.5555],[-73.1398,-46.491],[-73.0268,-46.4731],[-73.0017,-46.4862],[-72.9964,-46.4533],[-72.9651,-46.4173],[-72.974,-46.3611],[-73.0373,-46.3476],[-73.0143,-46.3177],[-73.0712,-46.2688],[-73.1021,-46.2161],[-73.078,-46.1965],[-73.1371,-46.1284],[-73.0492,-46.1256],[-73.0073,-46.1052],[-72.9376,-46.0699],[-72.9652,-46.0267],[-72.8943,-45.8586],[-72.914,-45.7969],[-72.8677,-45.7723],[-72.7967,-45.7963],[-72.7317,-45.7573],[-72.714,-45.7819],[-72.6199,-45.7949],[-72.4463,-45.7345],[-72.4438,-45.6767],[-72.3306,-45.6723],[-72.3301,-45.6405],[-72.3823,-45.6187],[-72.3533,-45.5892],[-72.2928,-45.5754],[-72.2768,-45.539],[-72.1301,-45.5325],[-72.1254,-45.4421],[-72.1905,-45.4461],[-72.1511,-45.358],[-72.1177,-45.3732],[-72.0275,-45.282],[-72.0512,-45.2503],[-71.967,-45.1967],[-71.9622,-45.0867],[-72.013,-45.0823],[-72.0424,-45.0551],[-72.084,-45.0874],[-72.151,-45.0187],[-72.2766,-45.0017],[-72.2975,-45.0303],[-72.3433,-45.0047],[-72.3578,-45.0366],[-72.4041,-45.0088],[-72.4471,-45.021],[-72.5067,-45.1047],[-72.5719,-45.0847],[-72.5993,-45.0491],[-72.7023,-45.074],[-72.74,-45.0168],[-72.8296,-45.0513],[-72.9097,-45.0168],[-72.9317,-45.0502],[-73.0011,-45.0642],[-73.0993,-45.0419],[-73.1621,-45.1085],[-73.2143,-45.1]]]]},"properties":{"cod_comuna":11201,"comuna":"Aysén","provincia":"Aysén","codregion":11}}
]}