{"type":"FeatureCollection", "features": [
{"type":"Feature","geometry":{"type":"Polygon","coordinates":[[[-70.8764,-52.0001],[-71.694,-52.0001],[-71.6891,-52.0537],[-71.6356,-52.0564],[-71.6356,-52.4376],[-71.4412,-52.4402],[-71.4396,-52.5313],[-71.3393,-52.5347],[-71.334,-52.8055],[-71.2589,-52.792],[-71.1946,-52.8112],[-71.1571,-52.7323],[-71.0964,-52.7544],[-71.0564,-52.7161],[-70.9907,-52.7475],[-70.9193,-52.7101],[-70.9199,-52.0745],[-70.874,-52.0755],[-70.8764,-52.0001]]]},"properties":{"cod_comuna":12102,"comuna":"Laguna Blanca","provincia":"Magallanes","codregion":12}},
{"type":"Feature","geometry":{"type":"Polygon","coordinates":[[[-72.5718,-51.3312],[-72.408,-51.3806],[-72.3094,-51.3656],[-72.3715,-51.3363],[-72.2684,-51.2827],[-72.2586,-51.2441],[-72.3046,-51.2007],[-72.348,-51.2039],[-72.407,-51.0984],[-72.3762,-51.0805],[-72.3731,-51.0223],[-72.2657,-51.0351],[-72.2459,-50.9015],[-72.2596,-50.8368],[-72.3493,-50.753],[-72.2856,-50.6598],[-72.4045,-50.6369],[-72.4918,-50.6008],[-72.5468,-50.6217],[-72.5952,-50.6817],[-72.6255,-50.658],[-72.6926,-50.649],[-72.7305,-50.6143],[-72.8913,-50.6698],[-72.9551,-50.7412],[-73.1455,-50.7818],[-73.182,-50.7475],[-73.2627,-50.7632],[-73.3443,-50.8456],[-73.4255,-50.8894],[-73.4892,-51.1835],[-73.4549,-51.3391],[-73.1068,-51.3334],[-73.0685,-51.3945],[-73.0767,-51.4721],[-73.0306,-51.4973],[-72.9423,-51.5042],[-72.9065,-51.5445],[-72.866,-51.5367],[-72.77,-51.5641],[-72.7943,-51.3699],[-72.6547,-51.3654],[-72.5718,-51.3312]]]},"properties":{"cod_comuna":12402,"comuna":"Torres del Paine","provincia":"Ultima Esperanza","codregion":12}},
{"type":"Feature","geometry":{"type":"Polygon","coordinates":[[[-68.6065,-53.0011],[-68.6124,-52.6516],[-68.7685,-52.5426],[-68.7956,-52.5821],[-69.083,-52.6936],[-69.1461,-52.696],[-69.2096,-52.6667],[-69.3794,-52.4725],[-69.4302,-52.4529],[-69.6021,-52.5446],[-69.5914,-52.6481],[-69.6989,-52.7516],[-69.747,-52.7765],[-69.8365,-52.7858],[-69.9201,-52.845],[-69.9802,-52.8466],[-70.0428,-52.8178],[-70.1416,-52.7307],[-70.347,-52.7468],[-70.2798,-52.8043],[-70.234,-52.8814],[-70.1095,-52.8919],[-70.0893,-52.9276],[-70.1125,-52.9806],[-70.0703,-52.992],[-69.942,-52.9734],[-69.9012,-53.0084],[-69.8116,-53.0036],[-69.568,-53.005],[-69.4999,-53.0768],[-69.3377,-53.0359],[-69.1035,-53.0333],[-69.0925,-52.9998],[-68.6065,-53.0011]]]},"properties":{"cod_comuna":12302,"comuna":"Primavera","provincia":"Tierra del Fuego","codregion":12}},
{"type":"Feature","geometry":{"type":"Polygon","coordinates":[[[-70.9193,-52.7101],[-70.8781,-52.7345],[-70.8424,-52.7197],[-70.8234,-52.7606],[-70.7232,-52.7481],[-70.5895,-52.6889],[-70.5326,-52.7264],[-70.3195,-52.6409],[-70.2121,-52.6525],[-70.1641,-52.5884],[-70.0227,-52.5592],[-69.8537,-52.4872],[-69.7752,-52.5287],[-69.6706,-52.5383],[-69.5435,-52.4556],[-69.5568,-52.4049],[-69.4839,-52.3878],[-69.4799,-52.2962],[-69.4529,-52.2626],[-69.3416,-52.247],[-69.2106,-52.1958],[-69.0802,-52.2185],[-68.9642,-52.2927],[-68.7877,-52.3186],[-68.668,-52.3148],[-68.5593,-52.3432],[-68.4903,-52.3374],[-68.4177,-52.3869],[-68.4185,-52.3324],[-68.5722,-52.3259],[-68.5859,-52.3067],[-68.8379,-52.2777],[-68.9868,-52.2035],[-69.1901,-52.15],[-69.4861,-52.1516],[-69.9954,-52.0007],[-70.8764,-52.0001],[-70.874,-52.0755],[-70.9199,-52.0745],[-70.9193,-52.7101]]]},"properties":{"cod_comuna":12104,"comuna":"San Gregorio","provincia":"Magallanes","codregion":12}},
{"type":"Feature","geometry":{"type":"Polygon","coordinates":[[[-68.6065,-53.0011],[-69.0925,-52.9998],[-69.1035,-53.0333],[-69.3377,-53.0359],[-69.4999,-53.0768],[-69.568,-53.005],[-69.8116,-53.0036],[-69.9012,-53.0084],[-69.942,-52.9734],[-70.0703,-52.992],[-70.1125,-52.9806],[-70.1382,-53.0139],[-70.2472,-53.0624],[-70.3354,-53.0688],[-70.3112,-53.0351],[-70.3413,-53.0068],[-70.4119,-53.008],[-70.4321,-53.0415],[-70.4643,-53.3039],[-70.4397,-53.3129],[-70.4497,-53.3723],[-70.3272,-53.3958],[-70.2834,-53.4504],[-70.2141,-53.4772],[-69.8812,-53.3785],[-69.5741,-53.3463],[-69.504,-53.3616],[-69.3738,-53.3567],[-69.3332,-53.3962],[-69.308,-53.4786],[-69.3547,-53.5225],[-69.6046,-53.6142],[-69.519,-53.6687],[-69.3802,-53.7205],[-69.3355,-53.6485],[-69.2488,-53.6253],[-69.0826,-53.7113],[-69.0236,-53.7007],[-68.8956,-53.7941],[-68.6065,-53.8077],[-68.6065,-53.0011]]]},"properties":{"cod_comuna":12301,"comuna":"Porvenir","provincia":"Tierra del Fuego","codregion":12}},
{"type":"Feature","geometry":{"type":"MultiPolygon","coordinates":[[[[-73.591,-52.8369],[-73.646,-52.8589],[-73.7358,-52.8667],[-73.7991,-52.925],[-73.6516,-52.9209],[-73.6081,-52.8897],[-73.547,-52.8858],[-73.4683,-52.9058],[-73.477,-52.9581],[-73.3757,-52.9531],[-73.3369,-52.9364],[-73.4115,-52.8985],[-73.5779,-52.855],[-73.591,-52.8369]]],[[[-72.404,-52.7224],[-72.4825,-52.7443],[-72.4619,-52.7906],[-72.3811,-52.7633],[-72.404,-52.7224]]],[[[-71.4684,-52.6577],[-71.5269,-52.6515],[-71.6682,-52.697],[-71.7768,-52.7032],[-71.9194,-52.6868],[-71.9672,-52.6475],[-72.048,-52.6831],[-72.0894,-52.6566],[-72.1654,-52.6482],[-72.2016,-52.7031],[-72.2544,-52.7134],[-72.298,-52.759],[-72.432,-52.8209],[-72.5522,-52.8266],[-72.6025,-52.7708],[-72.6512,-52.7581],[-72.6821,-52.7233],[-72.7839,-52.785],[-72.9053,-52.8451],[-72.9484,-52.8374],[-73.0101,-52.8553],[-72.9035,-52.9216],[-72.9628,-52.939],[-72.9151,-53.0031],[-72.9272,-53.1058],[-72.8542,-53.1575],[-72.7882,-53.1353],[-72.7173,-53.2077],[-72.8095,-53.1818],[-72.8838,-53.1977],[-72.9392,-53.1738],[-73.0144,-53.1702],[-73.1293,-53.1888],[-73.26,-53.1806],[-73.2028,-53.2205],[-73.156,-53.274],[-73.0487,-53.2831],[-72.9081,-53.3846],[-72.8191,-53.3979],[-72.6535,-53.4851],[-72.5855,-53.4961],[-72.5564,-53.5392],[-72.3907,-53.5342],[-72.5426,-53.3779],[-72.5071,-53.3532],[-72.5363,-53.3215],[-72.4821,-53.3092],[-72.4207,-53.2591],[-72.2037,-53.1949],[-72.405,-53.0677],[-72.2881,-53.0875],[-72.237,-53.0613],[-72.1303,-53.1456],[-72.024,-53.1322],[-71.9812,-53.1014],[-71.9092,-53.0032],[-71.8595,-53.0023],[-71.6174,-52.893],[-71.5724,-52.889],[-71.487,-52.8369],[-71.4096,-52.8339],[-71.3882,-52.7961],[-71.4341,-52.7424],[-71.3952,-52.7222],[-71.4684,-52.6577]]],[[[-73.2417,-52.677],[-73.2624,-52.7598],[-73.2312,-52.8084],[-73.2964,-52.8008],[-73.315,-52.8306],[-73.3895,-52.7942],[-73.4433,-52.8078],[-73.523,-52.7927],[-73.5685,-52.8096],[-73.4415,-52.8659],[-73.3595,-52.8736],[-73.3199,-52.953],[-73.3719,-52.9999],[-73.4481,-53.0211],[-73.3116,-53.0893],[-73.1874,-53.1106],[-73.0257,-53.0732],[-72.989,-53.0759],[-72.9399,-53.0031],[-72.9752,-52.9437],[-72.9424,-52.907],[-73.0183,-52.8615],[-73.0101,-52.8485],[-72.9211,-52.8143],[-72.8708,-52.8171],[-72.6722,-52.6803],[-72.7565,-52.6231],[-72.8556,-52.6182],[-72.8355,-52.5401],[-72.763,-52.5775],[-72.6582,-52.5584],[-72.5724,-52.5894],[-72.5232,-52.5455],[-72.4924,-52.5534],[-72.4025,-52.508],[-72.3809,-52.5568],[-72.4895,-52.5556],[-72.563,-52.603],[-72.4313,-52.6755],[-72.352,-52.5806],[-72.3538,-52.5493],[-72.2788,-52.5284],[-72.2392,-52.5514],[-72.1578,-52.5209],[-71.9685,-52.559],[-71.9222,-52.5431],[-71.6376,-52.5772],[-71.5595,-52.5626],[-71.3836,-52.7199],[-71.3981,-52.7526],[-71.3744,-52.7992],[-71.3335,-52.8066],[-71.3375,-52.533],[-71.4396,-52.5312],[-71.4412,-52.4402],[-71.6356,-52.4376],[-71.6349,-52.3634],[-71.8562,-52.3609],[-71.8557,-52.3287],[-72.0469,-52.3267],[-72.0472,-52.3641],[-72.553,-52.3617],[-72.9311,-52.5056],[-72.9375,-52.4948],[-72.9881,-52.5285],[-73.1289,-52.5389],[-73.1228,-52.5964],[-73.2417,-52.677]]]]},"properties":{"cod_comuna":12103,"comuna":"Río Verde","provincia":"Magallanes","codregion":12}},
{"type":"Feature","geometry":{"type":"MultiPolygon","coordinates":[[[[-72.3105,-54.3924],[-72.3652,-54.4173],[-72.3436,-54.4536],[-72.2825,-54.4355],[-72.3105,-54.3924]]],[[[-72.088,-54.4107],[-72.1752,-54.3712],[-72.2338,-54.3817],[-72.1763,-54.435],[-72.0778,-54.4375],[-72.088,-54.4107]]],[[[-72.2952,-54.2846],[-72.3509,-54.3093],[-72.2689,-54.342],[-72.2564,-54.3105],[-72.2952,-54.2846]]],[[[-71.6936,-54.2744],[-71.7574,-54.2846],[-71.7473,-54.315],[-71.6442,-54.3159],[-71.6936,-54.2744]]],[[[-72.0286,-54.2417],[-72.0607,-54.2838],[-71.9969,-54.2879],[-71.9804,-54.2483],[-72.0286,-54.2417]]],[[[-72.2041,-54.2142],[-72.2458,-54.2714],[-72.1717,-54.264],[-72.2041,-54.2142]]],[[[-72.6503,-54.1123],[-72.6678,-54.1447],[-72.5899,-54.1622],[-72.557,-54.1278],[-72.6503,-54.1123]]],[[[-73.392,-54.01],[-73.4918,-54.0794],[-73.3457,-54.0793],[-73.3457,-54.136],[-73.2698,-54.1492],[-73.2367,-54.1169],[-73.2427,-54.0453],[-73.392,-54.01]]],[[[-70.314,-54.0433],[-70.4135,-54.0821],[-70.4857,-54.0607],[-70.5081,-54.0868],[-70.4216,-54.1402],[-70.3395,-54.1574],[-70.307,-54.1461],[-70.2797,-54.0828],[-70.314,-54.0433]]],[[[-71.5894,-53.9354],[-71.6483,-53.9795],[-71.6541,-54.0149],[-71.6047,-54.0907],[-71.7046,-54.1514],[-71.6711,-54.2316],[-71.5971,-54.2449],[-71.5215,-54.2806],[-71.4533,-54.3422],[-71.358,-54.3173],[-71.297,-54.3314],[-71.1456,-54.3992],[-71.088,-54.393],[-70.97,-54.278],[-70.9723,-54.1643],[-71.0008,-54.091],[-71.1455,-54.0873],[-71.2397,-54.13],[-71.2411,-54.0911],[-71.2743,-54.0546],[-71.2723,-54.0004],[-71.3908,-53.9708],[-71.3626,-54.0379],[-71.3954,-54.0567],[-71.4396,-53.9495],[-71.5894,-53.9354]]],[[[-72.8385,-53.8908],[-72.925,-53.9393],[-72.889,-53.961],[-72.8035,-53.9249],[-72.803,-53.8963],[-72.8385,-53.8908]]],[[[-71.9197,-53.8451],[-71.9869,-53.8637],[-71.9843,-53.8876],[-72.0686,-53.9473],[-72.1897,-53.9342],[-72.2195,-53.9118],[-72.2862,-53.9177],[-72.2206,-54.0659],[-72.2757,-54.0833],[-72.3403,-54.0582],[-72.4237,-54.1269],[-72.4398,-54.1773],[-72.5143,-54.1787],[-72.575,-54.226],[-72.6009,-54.2742],[-72.5293,-54.3014],[-72.4401,-54.2818],[-72.385,-54.3091],[-72.4076,-54.3478],[-72.5469,-54.3481],[-72.5384,-54.3863],[-72.4579,-54.4141],[-72.3276,-54.3744],[-72.2876,-54.343],[-72.3673,-54.3289],[-72.3712,-54.2888],[-72.3174,-54.266],[-72.2614,-54.2007],[-72.2584,-54.1431],[-72.2174,-54.1402],[-72.1227,-54.0625],[-72.087,-54.0948],[-72.1661,-54.1225],[-72.1197,-54.2135],[-72.0057,-54.2234],[-71.9341,-54.2402],[-71.9308,-54.2874],[-71.9709,-54.3347],[-71.884,-54.345],[-71.7511,-54.2699],[-71.7285,-54.2397],[-71.7835,-54.2123],[-71.879,-54.1005],[-71.8284,-54.1044],[-71.8079,-54.1435],[-71.7488,-54.1556],[-71.6133,-54.0923],[-71.693,-54.0559],[-71.7002,-53.986],[-71.6495,-53.9253],[-71.7905,-53.8864],[-71.8275,-53.9013],[-71.9197,-53.8451]]],[[[-73.2407,-53.8038],[-73.2788,-53.8378],[-73.1669,-53.8391],[-73.1578,-53.8724],[-73.0766,-53.9051],[-73.0722,-53.8278],[-73.2407,-53.8038]]],[[[-72.0909,-53.8206],[-72.151,-53.8278],[-72.2161,-53.8796],[-72.114,-53.922],[-72.0472,-53.8307],[-72.0909,-53.8206]]],[[[-73.0654,-53.7111],[-73.113,-53.7692],[-73.0955,-53.7864],[-73.0134,-53.7905],[-72.9082,-53.7673],[-72.8771,-53.7446],[-73.0654,-53.7111]]],[[[-72.4126,-53.5614],[-72.4298,-53.5808],[-72.3662,-53.6532],[-72.2837,-53.6737],[-72.2501,-53.6551],[-72.298,-53.6042],[-72.4126,-53.5614]]],[[[-70.4781,-53.5658],[-70.5354,-53.5677],[-70.5967,-53.6496],[-70.7151,-53.6976],[-70.7124,-53.7758],[-70.6005,-53.8249],[-70.6134,-53.8703],[-70.7834,-53.8238],[-70.8588,-53.8346],[-70.8539,-53.8679],[-70.9077,-53.8818],[-70.9012,-53.9338],[-70.8697,-53.986],[-70.8813,-54.0597],[-70.7912,-54.0957],[-70.8413,-54.1223],[-70.6859,-54.1971],[-70.4921,-54.2522],[-70.2661,-54.2861],[-70.2146,-54.2431],[-70.244,-54.2179],[-70.3557,-54.2011],[-70.3684,-54.1822],[-70.5123,-54.138],[-70.5451,-54.1076],[-70.5603,-54.0394],[-70.662,-53.9718],[-70.6717,-53.9135],[-70.442,-54.0596],[-70.3698,-54.0478],[-70.3334,-54.0213],[-70.4552,-53.8803],[-70.4156,-53.8737],[-70.4816,-53.6691],[-70.4781,-53.5658]]],[[[-73.8393,-53.4695],[-73.8588,-53.5375],[-73.835,-53.5764],[-73.784,-53.547],[-73.7016,-53.5984],[-73.6558,-53.5634],[-73.8393,-53.4695]]],[[[-73.5729,-53.385],[-73.5832,-53.4352],[-73.5196,-53.471],[-73.6626,-53.461],[-73.7202,-53.5237],[-73.6638,-53.5214],[-73.6042,-53.5577],[-73.5209,-53.546],[-73.4357,-53.6033],[-73.3946,-53.5505],[-73.4288,-53.4786],[-73.4624,-53.481],[-73.4312,-53.4465],[-73.3699,-53.4181],[-73.4751,-53.3888],[-73.5434,-53.4165],[-73.5729,-53.385]]],[[[-73.0409,-53.3756],[-73.1708,-53.4002],[-73.0962,-53.4569],[-73.1417,-53.4914],[-73.1859,-53.4788],[-73.2264,-53.5035],[-73.2961,-53.4759],[-73.4323,-53.4666],[-73.3191,-53.5617],[-73.2702,-53.5874],[-73.2455,-53.6331],[-73.1121,-53.6448],[-73.0264,-53.5781],[-72.9527,-53.6696],[-73.147,-53.683],[-72.982,-53.7047],[-72.8672,-53.7344],[-72.8842,-53.7683],[-72.993,-53.7896],[-73.0441,-53.9085],[-72.9084,-53.899],[-72.7808,-53.8682],[-72.7953,-53.9159],[-72.6745,-53.8661],[-72.6587,-53.8922],[-72.7198,-53.8912],[-72.8589,-53.9785],[-72.7801,-54.0404],[-72.9218,-54.0445],[-72.8435,-54.0754],[-73.0386,-54.0705],[-73.0764,-54.0907],[-72.9645,-54.1248],[-72.8274,-54.1364],[-72.6858,-54.0916],[-72.6521,-54.0208],[-72.6007,-54.0346],[-72.6287,-54.0971],[-72.5499,-54.1103],[-72.5286,-54.0456],[-72.4751,-54.0662],[-72.3761,-54.0586],[-72.337,-54.0343],[-72.3617,-53.9589],[-72.4172,-53.9056],[-72.3366,-53.9052],[-72.3517,-53.8497],[-72.2252,-53.8587],[-72.2098,-53.8157],[-72.1513,-53.7874],[-72.2348,-53.728],[-72.3869,-53.6775],[-72.4375,-53.6978],[-72.4893,-53.6716],[-72.3845,-53.6389],[-72.5346,-53.5648],[-72.5609,-53.5785],[-72.6655,-53.5237],[-72.6708,-53.5945],[-72.7342,-53.5699],[-72.7244,-53.5089],[-72.7759,-53.476],[-72.8579,-53.4504],[-72.8035,-53.5585],[-72.8891,-53.6222],[-72.8496,-53.5322],[-72.9285,-53.4208],[-73.0409,-53.3756]]],[[[-74.0954,-53.253],[-74.2799,-53.3251],[-74.1981,-53.3545],[-74.1337,-53.3235],[-74.0954,-53.253]]],[[[-74.3593,-53.1268],[-74.3477,-53.1827],[-74.2891,-53.1664],[-74.2984,-53.1403],[-74.3593,-53.1268]]],[[[-73.981,-53.137],[-74.0705,-53.1554],[-74.0431,-53.1991],[-73.9553,-53.192],[-73.981,-53.137]]],[[[-73.8883,-53.1087],[-73.9653,-53.1214],[-73.9021,-53.1854],[-73.8289,-53.1677],[-73.8448,-53.126],[-73.8883,-53.1087]]],[[[-74.6871,-52.7149],[-74.7329,-52.7315],[-74.7137,-52.7989],[-74.6223,-52.8117],[-74.6505,-52.8673],[-74.6195,-52.9117],[-74.542,-52.9631],[-74.4663,-52.9814],[-74.4104,-53.0445],[-74.3304,-53.0651],[-74.32,-53.1262],[-74.2394,-53.1239],[-74.2136,-53.0885],[-74.1679,-53.1031],[-74.1029,-53.0972],[-74.0758,-53.1399],[-73.999,-53.1263],[-73.9413,-53.0937],[-73.8504,-53.0943],[-73.7965,-53.1746],[-73.7161,-53.1739],[-73.607,-53.2421],[-73.5864,-53.3192],[-73.6093,-53.3371],[-73.4368,-53.3518],[-73.4055,-53.3146],[-73.3047,-53.3633],[-73.2295,-53.3798],[-73.0958,-53.3745],[-73.0955,-53.3488],[-73.1974,-53.3126],[-73.282,-53.2948],[-73.3143,-53.2365],[-73.369,-53.2225],[-73.3685,-53.1938],[-73.4773,-53.1426],[-73.5301,-53.165],[-73.5868,-53.1151],[-73.6513,-53.0861],[-73.6907,-53.0977],[-73.8006,-53.0695],[-73.8489,-53.0299],[-73.9367,-52.999],[-74.0386,-52.9755],[-74.1491,-52.9874],[-74.1757,-52.9588],[-74.2393,-52.9406],[-74.3013,-52.9523],[-74.3631,-52.9375],[-74.3657,-52.9093],[-74.4114,-52.8709],[-74.4293,-52.8295],[-74.5821,-52.7711],[-74.6871,-52.7149]]],[[[-70.6338,-52.8448],[-70.7788,-52.8874],[-70.7276,-52.9087],[-70.6338,-52.8448]]],[[[-71.1946,-52.8112],[-71.1465,-52.8288],[-71.1147,-52.908],[-71.2447,-52.9883],[-71.261,-53.0324],[-71.3572,-53.1229],[-71.4167,-53.1428],[-71.5041,-53.1416],[-71.5441,-53.1699],[-71.5895,-53.1647],[-71.6146,-53.2041],[-71.7408,-53.2091],[-71.7317,-53.2409],[-71.7839,-53.3056],[-71.7479,-53.4468],[-71.8171,-53.5213],[-71.9716,-53.5656],[-72.042,-53.5518],[-71.99,-53.5203],[-71.8079,-53.4677],[-71.7842,-53.4322],[-71.8279,-53.363],[-71.8252,-53.2738],[-71.8695,-53.2258],[-72.021,-53.2336],[-72.0447,-53.2851],[-72.0181,-53.3786],[-72.0954,-53.3593],[-72.1211,-53.2526],[-72.3083,-53.2535],[-72.4435,-53.3249],[-72.4202,-53.3707],[-72.4752,-53.3912],[-72.4471,-53.4546],[-72.3494,-53.5454],[-72.11,-53.6836],[-72.0304,-53.7068],[-71.9252,-53.7005],[-71.8524,-53.7481],[-71.7613,-53.765],[-71.6662,-53.8074],[-71.41,-53.8507],[-71.3056,-53.8952],[-71.1198,-53.8496],[-71.117,-53.8334],[-70.9714,-53.7855],[-70.9524,-53.6225],[-70.9244,-53.5863],[-70.9883,-53.39],[-70.9359,-53.3176],[-70.9354,-53.1996],[-70.8537,-53.1305],[-70.8788,-53.1018],[-70.8153,-53.0066],[-70.8258,-52.9625],[-70.7814,-52.9367],[-70.8464,-52.9103],[-70.8378,-52.861],[-70.7971,-52.818],[-70.7357,-52.7822],[-70.8325,-52.7762],[-70.8678,-52.7366],[-70.9186,-52.7101],[-70.9914,-52.7475],[-71.0564,-52.7161],[-71.0964,-52.7544],[-71.1547,-52.7336],[-71.1946,-52.8112]]]]},"properties":{"cod_comuna":12101,"comuna":"Punta Arenas","provincia":"Magallanes","codregion":12}},
{"type":"Feature","geometry":{"type":"MultiPolygon","coordinates":[[[[-74.1144,-52.5696],[-74.1429,-52.6186],[-74.0738,-52.6081],[-74.1144,-52.5696]]],[[[-73.7255,-52.4198],[-73.8065,-52.4377],[-73.8406,-52.4522],[-73.8139,-52.4732],[-73.8745,-52.5068],[-73.8842,-52.5395],[-73.9567,-52.527],[-73.9817,-52.5777],[-74.0327,-52.5911],[-74.0077,-52.6369],[-73.8959,-52.5756],[-73.8384,-52.5713],[-73.9661,-52.6659],[-73.9052,-52.753],[-73.7173,-52.6456],[-73.7018,-52.5903],[-73.7243,-52.5485],[-73.6751,-52.4901],[-73.7255,-52.4198]]],[[[-73.883,-52.4049],[-73.9628,-52.4598],[-73.9165,-52.4828],[-73.844,-52.4293],[-73.883,-52.4049]]],[[[-74.6342,-52.3397],[-74.6685,-52.3466],[-74.6839,-52.3927],[-74.584,-52.3805],[-74.6342,-52.3397]]],[[[-74.5702,-52.2342],[-74.6131,-52.2968],[-74.5594,-52.315],[-74.5364,-52.2669],[-74.5702,-52.2342]]],[[[-74.1669,-52.2276],[-74.2111,-52.2648],[-74.1599,-52.3036],[-74.2379,-52.3592],[-74.1164,-52.3806],[-74.0816,-52.4053],[-74.034,-52.3855],[-73.9627,-52.3863],[-73.9647,-52.345],[-74.071,-52.2946],[-74.1669,-52.2276]]],[[[-74.5913,-52.2085],[-74.671,-52.2335],[-74.6814,-52.2788],[-74.769,-52.2501],[-74.8346,-52.1975],[-74.911,-52.2269],[-74.8337,-52.2505],[-74.7788,-52.2936],[-74.7751,-52.3201],[-74.6983,-52.3374],[-74.6147,-52.3091],[-74.6368,-52.2879],[-74.5912,-52.243],[-74.5913,-52.2085]]],[[[-74.229,-52.2117],[-74.3252,-52.2353],[-74.26,-52.255],[-74.229,-52.2117]]],[[[-73.7452,-52.2094],[-73.7649,-52.2508],[-73.6884,-52.2793],[-73.6766,-52.2527],[-73.7452,-52.2094]]],[[[-73.91,-52.1419],[-73.9304,-52.1674],[-73.8375,-52.1987],[-73.8099,-52.1814],[-73.91,-52.1419]]],[[[-74.5757,-52.0857],[-74.6481,-52.108],[-74.7949,-52.1727],[-74.7534,-52.2134],[-74.6632,-52.2125],[-74.6297,-52.1919],[-74.6329,-52.1563],[-74.5757,-52.0857]]],[[[-74.2757,-52.0934],[-74.3973,-52.13],[-74.3594,-52.1758],[-74.223,-52.2034],[-74.1529,-52.2264],[-74.0624,-52.2891],[-73.9024,-52.3631],[-73.9016,-52.3393],[-74.0523,-52.2171],[-74.1833,-52.1293],[-74.2757,-52.0934]]],[[[-74.2091,-52.0819],[-74.2362,-52.1006],[-74.1571,-52.1348],[-74.1113,-52.1731],[-74.0597,-52.1733],[-73.974,-52.274],[-73.7541,-52.3561],[-73.8505,-52.3548],[-73.8766,-52.3907],[-73.8071,-52.4218],[-73.7602,-52.4213],[-73.7591,-52.4037],[-73.7213,-52.4197],[-73.7519,-52.2739],[-73.8933,-52.1961],[-73.9991,-52.1716],[-74.0247,-52.1324],[-74.1106,-52.0847],[-74.2091,-52.0819]]],[[[-74.0249,-52.0655],[-73.9743,-52.1276],[-73.9266,-52.1046],[-74.0249,-52.0655]]],[[[-74.4453,-52.0233],[-74.5514,-52.0797],[-74.5411,-52.1001],[-74.4259,-52.0354],[-74.4453,-52.0233]]],[[[-74.4947,-51.9424],[-74.5498,-51.9571],[-74.6742,-52.0272],[-74.7058,-52.1163],[-74.554,-52.0641],[-74.4926,-52.0301],[-74.4947,-51.9424]]],[[[-74.0428,-51.9019],[-74.098,-51.9252],[-74.0724,-51.9983],[-74.0928,-52.0289],[-73.8806,-52.1081],[-73.8256,-52.1484],[-73.7541,-52.1739],[-73.6874,-52.2171],[-73.6418,-52.2247],[-73.6915,-52.1414],[-73.8012,-52.0295],[-73.957,-51.9408],[-74.0428,-51.9019]]],[[[-72.9375,-52.4948],[-72.7507,-52.4052],[-72.7181,-52.3511],[-72.6848,-52.3456],[-72.6355,-52.3838],[-72.5918,-52.3558],[-72.5987,-52.2867],[-72.5641,-52.2284],[-72.5221,-52.2206],[-72.6254,-52.1132],[-72.6572,-52.1365],[-72.7126,-52.092],[-72.7272,-51.9969],[-72.7705,-51.9483],[-72.8204,-51.9395],[-72.8984,-51.9797],[-72.913,-52.083],[-72.967,-52.084],[-72.9781,-52.1475],[-72.9119,-52.2211],[-72.8749,-52.1892],[-72.8757,-52.1403],[-72.8369,-52.0857],[-72.7569,-52.081],[-72.8471,-52.1496],[-72.8781,-52.281],[-72.9424,-52.2645],[-72.9482,-52.2043],[-73.0579,-52.1607],[-73.0135,-52.1493],[-72.9995,-52.0614],[-73.1633,-52.1184],[-73.2182,-52.1457],[-73.2523,-52.2],[-73.363,-52.2216],[-73.4517,-52.1328],[-73.5185,-52.1396],[-73.4907,-52.188],[-73.5363,-52.1907],[-73.5418,-52.1439],[-73.5866,-52.1277],[-73.6728,-52.0696],[-73.5957,-52.2164],[-73.5511,-52.2118],[-73.5993,-52.2987],[-73.5502,-52.3916],[-73.633,-52.3901],[-73.6501,-52.4302],[-73.6096,-52.4625],[-73.5405,-52.4779],[-73.5378,-52.513],[-73.5785,-52.5242],[-73.5217,-52.5879],[-73.6092,-52.5976],[-73.6695,-52.6223],[-73.6626,-52.6447],[-73.5485,-52.6565],[-73.7172,-52.7388],[-73.5968,-52.7517],[-73.511,-52.6963],[-73.4606,-52.6941],[-73.3764,-52.73],[-73.2417,-52.677],[-73.1251,-52.5997],[-73.129,-52.5383],[-72.9899,-52.53],[-72.9375,-52.4948]]],[[[-73.7877,-51.8935],[-73.8065,-51.9326],[-73.8628,-51.9419],[-73.7461,-52.0248],[-73.6887,-51.9758],[-73.7875,-51.9148],[-73.7877,-51.8935]]],[[[-74.7241,-51.8336],[-74.8059,-51.9741],[-74.8305,-52.0615],[-74.8897,-52.1422],[-74.8508,-52.1661],[-74.7753,-52.1342],[-74.6965,-52.0218],[-74.6343,-51.9907],[-74.6302,-51.9592],[-74.6712,-51.9267],[-74.6164,-51.9125],[-74.5744,-51.8529],[-74.6046,-51.8417],[-74.6651,-51.8879],[-74.7241,-51.8336]]],[[[-74.5439,-51.8249],[-74.5949,-51.899],[-74.5362,-51.9074],[-74.5439,-51.8249]]],[[[-74.9317,-51.8075],[-75.0093,-51.9536],[-75.0637,-52.019],[-74.999,-52.0999],[-74.9492,-52.1332],[-74.8705,-52.0914],[-74.8065,-51.9513],[-74.7843,-51.8649],[-74.8687,-51.8726],[-74.9154,-51.8563],[-74.9317,-51.8075]]],[[[-72.8951,-51.8727],[-72.9268,-51.9063],[-72.9868,-51.9014],[-73.0861,-51.9513],[-73.1315,-52.0308],[-73.1104,-52.0869],[-72.9972,-52.0545],[-72.9497,-51.9482],[-72.8842,-51.8976],[-72.8951,-51.8727]]],[[[-73.759,-51.8254],[-73.8015,-51.8515],[-73.7105,-51.9493],[-73.7005,-51.8879],[-73.759,-51.8254]]],[[[-74.6585,-51.7655],[-74.7298,-51.8166],[-74.6407,-51.8524],[-74.6286,-51.817],[-74.6585,-51.7655]]],[[[-74.158,-51.7615],[-74.0475,-51.8509],[-74.0158,-51.8255],[-74.158,-51.7615]]],[[[-74.983,-51.7191],[-75.0542,-51.7281],[-75.127,-51.8242],[-75.0614,-51.8551],[-75.0753,-51.9008],[-74.9951,-51.9004],[-74.9824,-51.8346],[-74.9495,-51.7815],[-74.983,-51.7191]]],[[[-74.4933,-51.71],[-74.4172,-51.8197],[-74.4143,-51.8458],[-74.3567,-51.9],[-74.2081,-51.9559],[-74.1022,-51.9834],[-74.1034,-51.9298],[-74.1394,-51.9058],[-74.1459,-51.847],[-74.2357,-51.8139],[-74.2874,-51.8191],[-74.3259,-51.7911],[-74.3206,-51.7628],[-74.3633,-51.7394],[-74.4933,-51.71]]],[[[-74.8555,-51.6256],[-74.9319,-51.6598],[-74.8414,-51.7548],[-74.8759,-51.7664],[-74.8525,-51.8494],[-74.7813,-51.8627],[-74.7507,-51.8279],[-74.7538,-51.7258],[-74.7822,-51.6979],[-74.7682,-51.6564],[-74.8555,-51.6256]]],[[[-73.9281,-51.6504],[-73.9255,-51.7085],[-73.8867,-51.7355],[-73.8502,-51.7909],[-73.7453,-51.7736],[-73.7981,-51.7361],[-73.8339,-51.6855],[-73.9281,-51.6504]]],[[[-74.0529,-51.53],[-74.0813,-51.59],[-74.1238,-51.5954],[-74.0975,-51.6469],[-74.134,-51.6668],[-74.2318,-51.6761],[-74.2482,-51.7213],[-74.1552,-51.7498],[-74.0857,-51.787],[-73.9808,-51.7973],[-73.9852,-51.8219],[-73.9231,-51.861],[-73.9575,-51.8917],[-73.8404,-51.903],[-73.788,-51.8841],[-73.8159,-51.8431],[-73.9116,-51.7955],[-73.9079,-51.7734],[-74.0221,-51.6405],[-74.0273,-51.5785],[-74.0529,-51.53]]],[[[-74.9098,-51.4666],[-74.9919,-51.4976],[-74.9924,-51.5433],[-74.8928,-51.549],[-74.9098,-51.4666]]],[[[-74.6777,-51.3317],[-74.7529,-51.4491],[-74.6843,-51.4362],[-74.6592,-51.3494],[-74.6777,-51.3317]]],[[[-75.1206,-51.2482],[-75.1572,-51.3053],[-75.2223,-51.3336],[-75.1829,-51.3755],[-75.2221,-51.4017],[-75.2351,-51.4434],[-75.1957,-51.4862],[-75.2624,-51.5242],[-75.3362,-51.5344],[-75.3174,-51.5675],[-75.3488,-51.5867],[-75.2828,-51.6198],[-75.2139,-51.629],[-75.1649,-51.5954],[-75.1191,-51.4735],[-75.0901,-51.4804],[-75.0763,-51.3642],[-74.9766,-51.3621],[-74.9916,-51.3248],[-75.0962,-51.2858],[-75.1206,-51.2482]]],[[[-74.214,-51.288],[-74.2573,-51.3048],[-74.2626,-51.3509],[-74.1945,-51.4089],[-74.0874,-51.4043],[-74.1325,-51.3193],[-74.214,-51.288]]],[[[-71.694,-52.0001],[-71.9229,-51.9991],[-71.9653,-51.9721],[-71.9318,-51.9201],[-71.948,-51.874],[-72.1218,-51.744],[-72.2296,-51.7029],[-72.2972,-51.6991],[-72.2831,-51.6382],[-72.3191,-51.6253],[-72.327,-51.5873],[-72.4417,-51.5847],[-72.4048,-51.5134],[-72.3446,-51.5206],[-72.3087,-51.366],[-72.3777,-51.3811],[-72.4694,-51.369],[-72.5718,-51.3312],[-72.6547,-51.3654],[-72.7943,-51.3699],[-72.77,-51.5641],[-72.706,-51.5688],[-72.6669,-51.6541],[-72.5159,-51.7024],[-72.5124,-51.7342],[-72.4526,-51.7763],[-72.5135,-51.8373],[-72.4595,-51.8813],[-72.4628,-51.9208],[-72.5334,-51.9487],[-72.621,-51.9096],[-72.6618,-51.954],[-72.665,-52.0521],[-72.4737,-52.2167],[-72.5193,-52.2612],[-72.5163,-52.3482],[-72.553,-52.3616],[-72.0472,-52.3641],[-72.0469,-52.3267],[-71.8557,-52.3287],[-71.8562,-52.3609],[-71.6349,-52.3634],[-71.6356,-52.0564],[-71.6891,-52.0537],[-71.694,-52.0001]]],[[[-74.9327,-51.2272],[-74.9994,-51.2552],[-75.0489,-51.2599],[-75.0481,-51.3028],[-74.9922,-51.3206],[-74.8692,-51.251],[-74.9327,-51.2272]]],[[[-73.8001,-51.2473],[-73.8985,-51.2927],[-73.8473,-51.3673],[-73.7807,-51.3609],[-73.7318,-51.3786],[-73.7253,-51.3038],[-73.8001,-51.2473]]],[[[-74.0415,-51.2234],[-74.0992,-51.2313],[-74.1066,-51.2899],[-74.0872,-51.3363],[-74.0307,-51.3867],[-73.9238,-51.3344],[-73.9545,-51.2308],[-74.0415,-51.2234]]],[[[-74.6069,-51.189],[-74.6613,-51.2127],[-74.7194,-51.1893],[-74.7497,-51.2107],[-74.7979,-51.2094],[-74.8212,-51.2525],[-74.9302,-51.2918],[-74.9811,-51.3444],[-74.9107,-51.3701],[-74.9313,-51.4081],[-75.0321,-51.4298],[-75.0304,-51.4789],[-74.9687,-51.4787],[-74.9084,-51.4442],[-74.8418,-51.4296],[-74.7227,-51.3749],[-74.6849,-51.3187],[-74.645,-51.3621],[-74.6207,-51.3592],[-74.6142,-51.4081],[-74.5444,-51.3868],[-74.521,-51.3566],[-74.5571,-51.2388],[-74.6069,-51.189]]],[[[-74.8413,-51.1655],[-74.9745,-51.182],[-74.881,-51.2135],[-74.8464,-51.2446],[-74.8008,-51.1864],[-74.8413,-51.1655]]],[[[-74.9034,-51.0917],[-74.989,-51.1124],[-75.0152,-51.1848],[-74.9394,-51.1579],[-74.8313,-51.1557],[-74.8285,-51.107],[-74.9034,-51.0917]]],[[[-74.61,-51.0883],[-74.68,-51.1355],[-74.7525,-51.1369],[-74.7327,-51.1909],[-74.7139,-51.1657],[-74.7048,-51.188],[-74.6523,-51.2001],[-74.6317,-51.1512],[-74.5795,-51.1543],[-74.61,-51.0883]]],[[[-74.4537,-51.0161],[-74.5887,-51.0644],[-74.5849,-51.1027],[-74.539,-51.1587],[-74.4904,-51.1896],[-74.4464,-51.1928],[-74.3945,-51.2265],[-74.3665,-51.1865],[-74.3756,-51.1079],[-74.4616,-51.0986],[-74.4251,-51.0564],[-74.4537,-51.0161]]],[[[-74.8598,-50.9845],[-74.9003,-50.9834],[-74.9509,-51.0222],[-74.8813,-51.0367],[-74.8598,-50.9845]]],[[[-74.3086,-50.9089],[-74.3405,-50.9318],[-74.2419,-51.2566],[-74.2107,-51.2058],[-74.1643,-51.2077],[-74.2091,-51.1373],[-74.2152,-51.0687],[-74.3086,-50.9089]]],[[[-74.636,-50.7096],[-74.6491,-50.7477],[-74.6058,-50.7965],[-74.6381,-50.8956],[-74.6663,-50.904],[-74.7802,-50.9089],[-74.8829,-50.8721],[-74.9344,-50.8807],[-74.952,-50.9486],[-74.882,-50.9432],[-74.8112,-50.9579],[-74.8296,-51.0001],[-74.8905,-51.0517],[-74.7963,-51.0846],[-74.7604,-51.0296],[-74.7612,-50.9895],[-74.6578,-51.0085],[-74.6434,-51.0316],[-74.7474,-51.0343],[-74.7682,-51.0734],[-74.7192,-51.0901],[-74.612,-51.0806],[-74.5887,-51.0584],[-74.4559,-50.9906],[-74.4219,-51.0391],[-74.3543,-51.028],[-74.3742,-50.936],[-74.4367,-50.924],[-74.3731,-50.8865],[-74.3993,-50.816],[-74.4626,-50.8491],[-74.4866,-50.8201],[-74.4199,-50.7951],[-74.5206,-50.7383],[-74.636,-50.7096]]],[[[-74.8244,-50.6542],[-74.8927,-50.6686],[-74.9409,-50.7232],[-74.9484,-50.7884],[-74.8556,-50.8269],[-74.9381,-50.8451],[-74.8217,-50.8811],[-74.6861,-50.9036],[-74.6363,-50.816],[-74.7406,-50.7616],[-74.7168,-50.6924],[-74.788,-50.6815],[-74.8244,-50.6542]]],[[[-74.9705,-50.6432],[-75.0668,-50.6797],[-75.1034,-50.7107],[-75.0537,-50.7861],[-74.978,-50.8183],[-74.9705,-50.6432]]],[[[-74.6165,-50.5085],[-74.6889,-50.5131],[-74.6661,-50.5444],[-74.6576,-50.6087],[-74.5794,-50.5499],[-74.6165,-50.5085]]],[[[-75.3696,-50.4643],[-75.428,-50.4732],[-75.4742,-50.5012],[-75.4159,-50.5643],[-75.5096,-50.6665],[-75.4438,-50.6986],[-75.4541,-50.7378],[-75.3752,-50.791],[-75.3211,-50.7839],[-75.2724,-50.7988],[-75.264,-50.7475],[-75.2812,-50.6918],[-75.2371,-50.6708],[-75.2268,-50.6355],[-75.1517,-50.5687],[-75.0602,-50.5046],[-75.2093,-50.506],[-75.251,-50.4874],[-75.3696,-50.4643]]],[[[-75.0361,-50.4083],[-75.0544,-50.4142],[-75.0691,-50.4092],[-75.1063,-50.4541],[-75.0785,-50.4787],[-75.0171,-50.4636],[-75.0361,-50.4083]]],[[[-74.2339,-50.8482],[-74.1445,-50.8453],[-74.1718,-50.7468],[-74.2076,-50.7068],[-74.2543,-50.7164],[-74.4041,-50.6536],[-74.3837,-50.6409],[-74.2546,-50.7024],[-74.2074,-50.6818],[-74.2659,-50.6192],[-74.3053,-50.6262],[-74.3557,-50.4617],[-74.4634,-50.4747],[-74.5428,-50.413],[-74.6875,-50.4933],[-74.5906,-50.4766],[-74.5873,-50.5082],[-74.4603,-50.5262],[-74.4492,-50.5452],[-74.5232,-50.5962],[-74.5496,-50.6489],[-74.5485,-50.6961],[-74.5049,-50.7339],[-74.423,-50.7636],[-74.3674,-50.7975],[-74.3325,-50.8397],[-74.2945,-50.8138],[-74.2425,-50.7507],[-74.2054,-50.8113],[-74.2339,-50.8482]]],[[[-74.6894,-50.3499],[-74.7535,-50.3817],[-74.7893,-50.4837],[-74.7506,-50.516],[-74.5396,-50.405],[-74.5856,-50.3614],[-74.6894,-50.3499]]],[[[-74.9303,-50.2676],[-75.0973,-50.3544],[-75.1053,-50.3779],[-75.0533,-50.4109],[-75.0228,-50.3993],[-74.9745,-50.4075],[-74.9908,-50.3888],[-75.0375,-50.3781],[-75.0221,-50.33],[-74.921,-50.3603],[-74.8823,-50.3121],[-74.9303,-50.2676]]],[[[-74.6443,-50.2772],[-74.7153,-50.279],[-74.756,-50.3078],[-74.6521,-50.3189],[-74.6443,-50.2772]]],[[[-74.916,-50.229],[-74.9165,-50.2581],[-74.8775,-50.2944],[-74.8326,-50.2524],[-74.916,-50.229]]],[[[-74.7057,-50.0684],[-74.7603,-50.0953],[-74.7366,-50.1292],[-74.6663,-50.0893],[-74.7057,-50.0684]]],[[[-75.2967,-49.993],[-75.4171,-50.0259],[-75.3534,-50.0797],[-75.339,-50.125],[-75.2561,-50.1249],[-75.2316,-50.1607],[-75.187,-50.1445],[-75.1616,-50.2109],[-75.1682,-50.2417],[-75.2275,-50.2433],[-75.3072,-50.2061],[-75.247,-50.1833],[-75.3699,-50.1437],[-75.4182,-50.1661],[-75.4086,-50.2032],[-75.4406,-50.2275],[-75.398,-50.2596],[-75.4621,-50.2699],[-75.4798,-50.314],[-75.472,-50.363],[-75.4182,-50.3738],[-75.3744,-50.3417],[-75.2668,-50.3606],[-75.3407,-50.4404],[-75.2675,-50.4311],[-75.1551,-50.4766],[-75.1137,-50.4079],[-75.1713,-50.3875],[-75.0691,-50.3366],[-74.9308,-50.2479],[-74.9278,-50.2218],[-74.8293,-50.2417],[-74.7901,-50.1462],[-74.8224,-50.1107],[-74.9115,-50.1326],[-74.9554,-50.0675],[-75.0226,-50.0944],[-75.0641,-50.1294],[-75.0899,-50.0599],[-75.1427,-50.0151],[-75.221,-50.0136],[-75.2676,-50.0305],[-75.2967,-49.993]]],[[[-75.5392,-49.7009],[-75.5731,-49.7353],[-75.6329,-49.7627],[-75.5987,-49.8201],[-75.3793,-49.7479],[-75.3516,-49.7581],[-75.3816,-49.808],[-75.2905,-49.8828],[-75.1714,-49.8732],[-75.1565,-49.8387],[-75.2756,-49.6769],[-75.3256,-49.5923],[-75.3585,-49.615],[-75.4332,-49.5889],[-75.5647,-49.6023],[-75.5732,-49.6916],[-75.5392,-49.7009]]],[[[-74.3818,-49.4137],[-74.438,-49.5021],[-74.4043,-49.5397],[-74.4237,-49.5947],[-74.3807,-49.6359],[-74.2328,-49.5489],[-74.3105,-49.4562],[-74.3818,-49.4137]]],[[[-75.1867,-49.1624],[-75.2152,-49.1902],[-75.1619,-49.2392],[-75.0397,-49.2341],[-75.127,-49.2007],[-75.1339,-49.173],[-75.1867,-49.1624]]],[[[-75.6209,-48.9742],[-75.6037,-49.0497],[-75.5399,-49.0497],[-75.5212,-49.0736],[-75.4558,-49.0381],[-75.5043,-49.0037],[-75.6209,-48.9742]]],[[[-75.0449,-49.0009],[-75.1008,-49.0029],[-75.2058,-49.1287],[-75.1784,-49.1417],[-75.0495,-49.1557],[-75.0007,-49.1778],[-74.9544,-49.2403],[-74.8682,-49.2861],[-74.8541,-49.1793],[-74.8241,-49.0763],[-74.9426,-48.9994],[-74.9415,-49.0961],[-74.9519,-49.0375],[-75.0245,-49.0272],[-75.0449,-49.0009]]],[[[-74.9912,-48.9646],[-75.0699,-48.9757],[-74.9506,-49.0347],[-74.9547,-49.012],[-74.9795,-49.0121],[-74.9568,-48.9899],[-74.9912,-48.9646]]],[[[-75.5851,-49.15],[-75.6315,-49.1911],[-75.4758,-49.2452],[-75.3842,-49.1211],[-75.3212,-49.1277],[-75.2369,-49.0735],[-75.2782,-49.0037],[-75.2691,-48.9971],[-75.2805,-48.9338],[-75.3395,-48.9549],[-75.4202,-49.0308],[-75.361,-49.0353],[-75.5743,-49.1162],[-75.5851,-49.15]]],[[[-75.2276,-48.769],[-75.2599,-48.7756],[-75.2224,-48.8444],[-75.3428,-48.7946],[-75.4671,-48.8065],[-75.4953,-48.781],[-75.5467,-48.8016],[-75.5995,-48.8518],[-75.6323,-48.8494],[-75.6107,-48.9234],[-75.4484,-49.0373],[-75.3201,-48.9107],[-75.3244,-48.9437],[-75.2552,-48.9032],[-75.2747,-48.9398],[-75.2596,-49.0179],[-75.2074,-49.0576],[-75.1055,-48.9661],[-74.9933,-48.9314],[-75.0337,-48.846],[-75.2276,-48.769]]],[[[-73.182,-50.7475],[-73.1984,-50.7407],[-73.1447,-50.6523],[-73.1936,-50.6152],[-73.3313,-50.5704],[-73.3577,-50.5349],[-73.3582,-50.4287],[-73.4169,-50.3816],[-73.4377,-50.3436],[-73.3625,-50.3011],[-73.4519,-50.2411],[-73.416,-50.2003],[-73.5215,-50.1535],[-73.5141,-50.1063],[-73.4755,-50.0895],[-73.4355,-50.0099],[-73.4457,-49.9648],[-73.5547,-49.9496],[-73.5561,-49.9227],[-73.5068,-49.8918],[-73.4864,-49.8116],[-73.3088,-49.7359],[-73.2168,-49.669],[-73.1302,-49.5246],[-73.0454,-49.4507],[-73.0896,-49.2529],[-73.1339,-49.2664],[-73.1427,-49.2116],[-73.971,-48.7155],[-74.0253,-48.7392],[-74.1495,-48.7012],[-74.2753,-48.7498],[-74.3258,-48.745],[-74.4049,-48.8045],[-74.403,-48.8784],[-74.3244,-48.9088],[-74.3571,-48.9825],[-74.4194,-48.9863],[-74.4181,-49.0625],[-74.37,-49.1058],[-74.3336,-49.1727],[-74.3629,-49.1753],[-74.3445,-49.3224],[-74.3905,-49.3896],[-74.3067,-49.4352],[-74.2147,-49.5351],[-74.1613,-49.5414],[-74.0946,-49.2671],[-74.0176,-49.2081],[-74.0058,-49.2566],[-74.0472,-49.2851],[-74.0735,-49.505],[-73.9691,-49.5258],[-73.9047,-49.5094],[-73.851,-49.5458],[-73.7994,-49.6684],[-73.8604,-49.6495],[-73.8958,-49.5524],[-73.9647,-49.5607],[-74.0765,-49.5398],[-74.2091,-49.5794],[-74.306,-49.6425],[-74.3006,-49.7509],[-74.2562,-49.7373],[-74.0613,-49.7396],[-74.0812,-49.7629],[-74.1682,-49.7463],[-74.226,-49.7588],[-74.266,-49.8005],[-74.3083,-49.8072],[-74.3273,-49.882],[-74.236,-49.9155],[-74.1914,-49.9007],[-74.1239,-49.9094],[-74.0848,-49.9951],[-74.1152,-50.0157],[-74.1575,-49.9679],[-74.2124,-49.9424],[-74.2701,-49.948],[-74.3135,-49.9239],[-74.3473,-49.9534],[-74.3574,-49.9958],[-74.274,-50.0758],[-74.1554,-50.1427],[-74.2072,-50.1573],[-74.3463,-50.0793],[-74.433,-50.0154],[-74.5571,-50.0625],[-74.5247,-50.0788],[-74.6473,-50.1361],[-74.7052,-50.2027],[-74.5801,-50.2443],[-74.5432,-50.2666],[-74.5416,-50.3074],[-74.4686,-50.3514],[-74.3537,-50.4051],[-74.3313,-50.3817],[-74.2903,-50.2403],[-74.2513,-50.3024],[-74.2939,-50.3419],[-74.3257,-50.4047],[-74.2458,-50.4469],[-74.1586,-50.4322],[-73.9962,-50.5315],[-74.1635,-50.4803],[-74.2984,-50.4686],[-74.2315,-50.5577],[-74.2286,-50.5873],[-74.1529,-50.733],[-74.0291,-50.8508],[-74.0072,-50.8219],[-73.9333,-50.846],[-73.8219,-50.7746],[-73.8304,-50.6774],[-73.7931,-50.633],[-73.7683,-50.5239],[-73.6405,-50.633],[-73.6953,-50.6569],[-73.7617,-50.656],[-73.8014,-50.69],[-73.7717,-50.7435],[-73.7882,-50.7993],[-73.8239,-50.7981],[-73.8764,-50.8366],[-73.767,-50.9325],[-73.7999,-50.9589],[-73.8455,-50.9274],[-73.8721,-50.872],[-73.9561,-50.8865],[-74.1106,-50.8695],[-74.1953,-50.8886],[-74.2452,-50.9626],[-74.1913,-51.0574],[-74.1284,-51.0548],[-74.1097,-51.1307],[-74.125,-51.1825],[-74.0756,-51.2076],[-74.0015,-51.2055],[-73.9548,-51.1486],[-73.8999,-51.2575],[-73.7649,-51.1869],[-73.727,-51.1409],[-73.6626,-51.2802],[-73.687,-51.2818],[-73.7207,-51.1879],[-73.7743,-51.2282],[-73.7098,-51.2905],[-73.7146,-51.317],[-73.6765,-51.433],[-73.6368,-51.4535],[-73.6348,-51.5385],[-73.6545,-51.5439],[-73.7467,-51.438],[-73.8108,-51.3919],[-73.8548,-51.4044],[-73.9011,-51.369],[-73.9386,-51.4395],[-73.9364,-51.5112],[-73.8578,-51.5485],[-73.8933,-51.6046],[-73.8278,-51.6261],[-73.8141,-51.7057],[-73.7604,-51.7138],[-73.6822,-51.7859],[-73.6297,-51.6943],[-73.4814,-51.8913],[-73.4913,-51.9413],[-73.5971,-51.7999],[-73.6448,-51.8213],[-73.642,-51.8663],[-73.5926,-51.9242],[-73.6014,-51.9386],[-73.5657,-52.0178],[-73.4707,-52.0467],[-73.3799,-52.1331],[-73.27,-52.1614],[-73.3088,-51.8662],[-73.3061,-51.847],[-73.371,-51.6727],[-73.3345,-51.6983],[-73.2904,-51.8702],[-73.257,-51.9317],[-73.2603,-52.0249],[-73.2275,-52.0999],[-73.1618,-52.1045],[-73.1305,-52.0802],[-73.1604,-52.0127],[-73.124,-51.9376],[-72.9707,-51.8854],[-72.9365,-51.8922],[-72.9158,-51.8415],[-72.9833,-51.7993],[-73.0484,-51.8385],[-73.0977,-51.8863],[-73.2088,-51.8931],[-73.219,-51.8767],[-73.0752,-51.8628],[-73.0353,-51.8219],[-73.0909,-51.6962],[-72.9926,-51.7256],[-72.9684,-51.7729],[-72.9192,-51.7407],[-72.818,-51.76],[-72.7698,-51.8132],[-72.6419,-51.8295],[-72.6073,-51.8153],[-72.5262,-51.7359],[-72.531,-51.7175],[-72.6454,-51.6799],[-72.6885,-51.6958],[-72.7486,-51.603],[-72.8363,-51.5952],[-72.9295,-51.5634],[-72.9996,-51.5102],[-73.0566,-51.493],[-73.2057,-51.5116],[-73.2639,-51.4927],[-73.2404,-51.4589],[-73.1933,-51.4702],[-73.1192,-51.4437],[-73.0735,-51.4018],[-73.0805,-51.362],[-73.1092,-51.3333],[-73.4549,-51.3391],[-73.4892,-51.1835],[-73.4255,-50.8894],[-73.3443,-50.8456],[-73.2816,-50.7725],[-73.182,-50.7475]]],[[[-75.2531,-49.6181],[-75.2528,-49.6559],[-75.2074,-49.7168],[-75.1274,-49.8531],[-75.0617,-49.8684],[-75.0627,-49.9026],[-74.9968,-49.899],[-75.016,-49.8598],[-74.964,-49.8409],[-74.9284,-49.8042],[-74.9162,-49.7489],[-74.9506,-49.7487],[-75.0043,-49.7922],[-75.015,-49.719],[-74.9727,-49.7066],[-74.9244,-49.624],[-74.9745,-49.5931],[-74.94,-49.429],[-74.9165,-49.4692],[-74.9347,-49.5398],[-74.8605,-49.5039],[-74.7169,-49.4129],[-74.6837,-49.424],[-74.8733,-49.5303],[-74.8675,-49.5817],[-74.8888,-49.6587],[-74.8759,-49.7086],[-74.8858,-49.783],[-74.8345,-49.8152],[-74.8992,-49.8801],[-74.9133,-49.9359],[-74.8703,-49.9733],[-74.8676,-50.0284],[-74.7961,-50.0547],[-74.6888,-50.0404],[-74.6341,-50.0589],[-74.4984,-49.9797],[-74.4064,-49.902],[-74.4042,-49.7825],[-74.3892,-49.6786],[-74.4399,-49.624],[-74.4794,-49.514],[-74.4465,-49.4809],[-74.3872,-49.3008],[-74.4007,-49.1677],[-74.4304,-49.1274],[-74.4032,-49.0928],[-74.4376,-49.0711],[-74.4498,-49.0182],[-74.4068,-48.9468],[-74.4504,-48.9121],[-74.4639,-48.8717],[-74.4698,-48.696],[-74.5657,-48.7325],[-74.5845,-48.7046],[-74.683,-48.6528],[-74.8706,-48.7236],[-74.9252,-48.7631],[-74.9973,-48.7675],[-75.0151,-48.8232],[-74.9047,-48.9896],[-74.7692,-49.0817],[-74.7775,-49.1128],[-74.8406,-49.177],[-74.8565,-49.2989],[-74.8669,-49.3028],[-75.0627,-49.1695],[-75.0247,-49.2366],[-75.0998,-49.262],[-75.172,-49.2534],[-75.2726,-49.226],[-75.3052,-49.2484],[-75.3561,-49.2461],[-75.4382,-49.2771],[-75.417,-49.3327],[-75.4225,-49.3932],[-75.3881,-49.4847],[-75.3386,-49.4637],[-75.313,-49.5157],[-75.2376,-49.5337],[-75.2924,-49.5981],[-75.2531,-49.6181]]],[[[-74.9558,-48.6014],[-74.9591,-48.6559],[-74.9874,-48.7367],[-74.966,-48.746],[-74.8758,-48.7202],[-74.819,-48.6784],[-74.7651,-48.6564],[-74.8063,-48.6286],[-74.9288,-48.6299],[-74.9558,-48.6014]]],[[[-75.0049,-48.5958],[-75.0872,-48.6624],[-75.2227,-48.753],[-75.0506,-48.8271],[-74.9915,-48.6733],[-75.0049,-48.5958]]]]},"properties":{"cod_comuna":12401,"comuna":"Natales","provincia":"Ultima Esperanza","codregion":12}},
{"type":"Feature","geometry":{"type":"MultiPolygon","coordinates":[[[[-67.3001,-55.8043],[-67.4227,-55.8241],[-67.3476,-55.8656],[-67.2915,-55.8656],[-67.2508,-55.8929],[-67.2072,-55.852],[-67.299,-55.8231],[-67.3001,-55.8043]]],[[[-67.5958,-55.7954],[-67.7304,-55.8333],[-67.8041,-55.8172],[-67.8919,-55.8224],[-67.9074,-55.8723],[-67.8014,-55.8946],[-67.801,-55.8667],[-67.7486,-55.8455],[-67.6198,-55.8582],[-67.5567,-55.8946],[-67.5058,-55.8251],[-67.5958,-55.7954]]],[[[-67.5979,-55.6026],[-67.6015,-55.6506],[-67.6925,-55.6616],[-67.6656,-55.7029],[-67.5908,-55.68],[-67.5466,-55.6303],[-67.5979,-55.6026]]],[[[-67.3702,-55.5668],[-67.4469,-55.5752],[-67.4527,-55.6176],[-67.4244,-55.636],[-67.4365,-55.6838],[-67.5356,-55.6445],[-67.5699,-55.6751],[-67.5525,-55.7105],[-67.493,-55.7594],[-67.4477,-55.7727],[-67.3588,-55.7569],[-67.3392,-55.795],[-67.2628,-55.7854],[-67.3161,-55.7258],[-67.2775,-55.7043],[-67.3767,-55.6667],[-67.3218,-55.6394],[-67.379,-55.601],[-67.3702,-55.5668]]],[[[-69.0167,-55.5677],[-69.0375,-55.6066],[-69.012,-55.6522],[-68.9634,-55.639],[-68.9875,-55.5787],[-69.0167,-55.5677]]],[[[-69.2665,-55.5193],[-69.3216,-55.5397],[-69.2795,-55.5676],[-69.2268,-55.5385],[-69.2665,-55.5193]]],[[[-68.6753,-55.5186],[-68.695,-55.564],[-68.6213,-55.5533],[-68.6753,-55.5186]]],[[[-67.6651,-55.4967],[-67.7068,-55.5385],[-67.6949,-55.5681],[-67.7433,-55.6209],[-67.6516,-55.6131],[-67.6085,-55.5795],[-67.6079,-55.5299],[-67.6651,-55.4967]]],[[[-68.6267,-55.4755],[-68.6687,-55.5067],[-68.6226,-55.5281],[-68.5713,-55.4935],[-68.6267,-55.4755]]],[[[-69.5874,-55.4255],[-69.5567,-55.4785],[-69.5052,-55.504],[-69.4366,-55.4782],[-69.5874,-55.4255]]],[[[-69.7668,-55.3715],[-69.7533,-55.4417],[-69.6835,-55.4703],[-69.6297,-55.4034],[-69.7668,-55.3715]]],[[[-69.9783,-55.3146],[-70.1315,-55.3294],[-70.0334,-55.36],[-69.9416,-55.3463],[-69.9783,-55.3146]]],[[[-69.2644,-55.2602],[-69.3944,-55.2848],[-69.3958,-55.2937],[-69.3351,-55.3039],[-69.2435,-55.3025],[-69.2644,-55.2602]]],[[[-68.866,-55.2412],[-68.955,-55.2937],[-68.9449,-55.3526],[-68.8906,-55.3431],[-68.866,-55.2412]]],[[[-66.9025,-55.2173],[-66.9964,-55.2315],[-67.0523,-55.2658],[-67.0443,-55.3259],[-67.0156,-55.3466],[-66.8712,-55.3335],[-66.8385,-55.3018],[-66.8646,-55.2256],[-66.9025,-55.2173]]],[[[-66.5268,-55.1727],[-66.653,-55.2056],[-66.6437,-55.2877],[-66.5175,-55.2744],[-66.479,-55.2232],[-66.4312,-55.1933],[-66.5268,-55.1727]]],[[[-68.2861,-55.1549],[-68.3226,-55.1958],[-68.2092,-55.222],[-68.2404,-55.1681],[-68.2861,-55.1549]]],[[[-69.9871,-55.0184],[-70.08,-55.0343],[-70.0804,-55.0833],[-70.0316,-55.0815],[-69.9871,-55.0184]]],[[[-67.0447,-54.9874],[-67.0513,-55.024],[-66.858,-55.1168],[-66.8143,-55.119],[-66.8606,-55.0276],[-66.9274,-55.0269],[-67.0447,-54.9874]]],[[[-71.2199,-54.9439],[-71.2891,-54.9706],[-71.277,-55.0312],[-71.1865,-54.9525],[-71.2199,-54.9439]]],[[[-69.9894,-54.9362],[-70.1116,-54.9485],[-70.1776,-54.9708],[-70.2055,-55.0272],[-70.0998,-55.0234],[-69.9897,-54.9953],[-69.9481,-54.9567],[-69.9894,-54.9362]]],[[[-70.4779,-54.9632],[-70.4666,-55.0024],[-70.3989,-54.9825],[-70.3441,-54.9856],[-70.2454,-54.9519],[-70.3231,-54.9247],[-70.4779,-54.9632]]],[[[-68.5138,-54.9256],[-68.5807,-54.9452],[-68.7139,-54.9498],[-68.807,-54.9879],[-68.9799,-54.9915],[-69.0206,-55.0143],[-69.0684,-54.9945],[-69.2812,-55.0064],[-69.3759,-55.0303],[-69.5696,-55.053],[-69.6742,-55.086],[-69.7046,-55.0726],[-69.9138,-55.094],[-69.9224,-55.1185],[-70.0316,-55.1492],[-70.035,-55.1872],[-69.9981,-55.2094],[-69.947,-55.193],[-69.8776,-55.2301],[-69.8981,-55.2895],[-69.8525,-55.3056],[-69.6648,-55.2642],[-69.6627,-55.2993],[-69.7421,-55.3087],[-69.7871,-55.3461],[-69.6109,-55.3646],[-69.6055,-55.403],[-69.5241,-55.4179],[-69.4843,-55.4404],[-69.3463,-55.4702],[-69.2883,-55.5174],[-69.1539,-55.5213],[-69.0763,-55.484],[-69.1533,-55.4571],[-69.1751,-55.4853],[-69.2558,-55.4682],[-69.2472,-55.4321],[-69.2769,-55.3749],[-69.2531,-55.3504],[-69.3347,-55.3082],[-69.4108,-55.2982],[-69.4154,-55.2841],[-69.3849,-55.2801],[-69.2965,-55.2562],[-69.2258,-55.2538],[-69.2699,-55.1996],[-69.2269,-55.1901],[-69.0964,-55.264],[-68.9531,-55.2841],[-68.914,-55.2215],[-68.8606,-55.2116],[-68.8085,-55.2575],[-68.8698,-55.2846],[-68.8372,-55.3227],[-68.9301,-55.3842],[-68.9167,-55.4622],[-68.8493,-55.4949],[-68.7731,-55.5124],[-68.7007,-55.4717],[-68.489,-55.4624],[-68.4398,-55.4938],[-68.3183,-55.4668],[-68.3056,-55.5059],[-68.2148,-55.5335],[-68.2746,-55.6237],[-68.2358,-55.632],[-68.1451,-55.6116],[-68.1309,-55.6661],[-68.0665,-55.7158],[-67.9831,-55.6372],[-67.9752,-55.5888],[-68.039,-55.5798],[-68.0763,-55.5038],[-68.0421,-55.4654],[-68.1415,-55.4725],[-68.1107,-55.4216],[-68.1339,-55.3892],[-68.2058,-55.4106],[-68.2326,-55.3822],[-68.3066,-55.4087],[-68.3114,-55.3512],[-68.4928,-55.3402],[-68.4462,-55.3061],[-68.3842,-55.309],[-68.1761,-55.2776],[-68.2452,-55.2261],[-68.3438,-55.2111],[-68.345,-55.1824],[-68.5001,-55.1957],[-68.5818,-55.1765],[-68.6566,-55.1754],[-68.9703,-55.1165],[-68.9657,-55.0757],[-68.7977,-55.1165],[-68.7491,-55.1436],[-68.5853,-55.1583],[-68.5191,-55.1138],[-68.4483,-55.1105],[-68.4052,-55.0797],[-68.3314,-55.0809],[-68.3036,-55.033],[-68.4014,-54.9501],[-68.5138,-54.9256]]],[[[-67.0652,-55.0792],[-67.1673,-54.9726],[-67.2151,-54.9497],[-67.3176,-54.9254],[-67.388,-54.9323],[-67.5288,-54.923],[-67.711,-54.9405],[-67.7192,-54.9254],[-67.9437,-54.8953],[-68.1114,-54.9078],[-68.1844,-54.8961],[-68.2092,-54.9182],[-68.3277,-54.925],[-68.3783,-54.9466],[-68.3056,-55.0012],[-68.1735,-54.9918],[-68.1451,-55.0511],[-68.1712,-55.1001],[-68.1554,-55.1445],[-68.1171,-55.1725],[-68.1182,-55.222],[-68.0255,-55.2376],[-67.9556,-55.2218],[-67.9243,-55.1866],[-67.7346,-55.2309],[-67.7475,-55.2496],[-67.6128,-55.2776],[-67.6245,-55.2379],[-67.5952,-55.1965],[-67.5074,-55.176],[-67.4095,-55.1964],[-67.4685,-55.2696],[-67.4358,-55.317],[-67.2789,-55.331],[-67.1427,-55.2293],[-67.086,-55.2105],[-67.0479,-55.1625],[-67.0652,-55.0792]]],[[[-70.4433,-54.947],[-70.3132,-54.9029],[-70.3791,-54.8901],[-70.5129,-54.9013],[-70.6152,-54.9406],[-70.6016,-54.9659],[-70.6564,-54.9883],[-70.7769,-54.9453],[-70.8569,-54.9599],[-70.8625,-54.9235],[-70.9393,-54.9501],[-71.0159,-54.9602],[-70.9728,-54.9925],[-70.994,-55.0703],[-70.9378,-55.0931],[-70.8842,-55.0527],[-70.8337,-55.0744],[-70.7611,-55.0514],[-70.7255,-55.0731],[-70.7768,-55.1135],[-70.7178,-55.1318],[-70.6724,-55.1181],[-70.6793,-55.0758],[-70.5378,-55.1001],[-70.5801,-55.1251],[-70.5749,-55.1561],[-70.5053,-55.1563],[-70.4119,-55.1174],[-70.2972,-55.1299],[-70.2783,-55.1033],[-70.3166,-55.0333],[-70.433,-55.0441],[-70.5087,-55.0269],[-70.6544,-55.0411],[-70.6631,-55.0194],[-70.5467,-55.0107],[-70.4978,-54.995],[-70.5234,-54.9579],[-70.4433,-54.947]]],[[[-69.6705,-54.8796],[-69.7577,-54.8893],[-69.6568,-54.9429],[-69.677,-54.9775],[-69.7384,-54.9621],[-69.797,-54.8848],[-69.9374,-54.9183],[-69.9279,-54.9416],[-69.958,-54.9888],[-69.9296,-55.0691],[-69.8345,-55.0689],[-69.7027,-55.0494],[-69.4917,-55.0362],[-69.2782,-54.9918],[-69.1309,-54.9709],[-69.2208,-54.9389],[-69.2891,-54.9436],[-69.5996,-54.8828],[-69.6705,-54.8796]]],[[[-71.3144,-54.8139],[-71.3683,-54.8139],[-71.4001,-54.849],[-71.4805,-54.8654],[-71.4227,-54.8967],[-71.4428,-54.9367],[-71.3073,-54.9069],[-71.2424,-54.8577],[-71.1899,-54.859],[-71.1021,-54.9516],[-71.0071,-54.9099],[-70.9357,-54.9109],[-70.9874,-54.859],[-71.1026,-54.8777],[-71.1398,-54.8272],[-71.2129,-54.8466],[-71.3144,-54.8139]]],[[[-71.6051,-54.6946],[-71.643,-54.7169],[-71.6338,-54.7515],[-71.5621,-54.7653],[-71.5573,-54.6988],[-71.6051,-54.6946]]],[[[-72.0725,-54.5902],[-72.043,-54.6161],[-72.0021,-54.7033],[-71.9428,-54.7334],[-71.8991,-54.6885],[-72.0725,-54.5902]]],[[[-70.4318,-54.5719],[-70.7241,-54.6445],[-70.8359,-54.6236],[-70.8228,-54.5815],[-70.9711,-54.5687],[-71.1109,-54.4256],[-71.1855,-54.4335],[-71.2388,-54.389],[-71.3159,-54.391],[-71.351,-54.3699],[-71.4238,-54.4004],[-71.3804,-54.431],[-71.4957,-54.4366],[-71.6139,-54.3954],[-71.5844,-54.4572],[-71.5968,-54.4941],[-71.7066,-54.4228],[-71.7251,-54.3971],[-71.8738,-54.4171],[-71.8556,-54.4481],[-71.707,-54.4701],[-71.7541,-54.4889],[-71.7324,-54.5449],[-71.8118,-54.5393],[-71.8433,-54.4657],[-71.9741,-54.4636],[-72.0177,-54.5163],[-71.9415,-54.5661],[-71.9632,-54.6171],[-71.9106,-54.6467],[-71.8231,-54.6477],[-71.7117,-54.6018],[-71.6858,-54.6545],[-71.6041,-54.6039],[-71.5966,-54.6441],[-71.5365,-54.6434],[-71.5061,-54.6806],[-71.4535,-54.6675],[-71.4646,-54.6344],[-71.4157,-54.6053],[-71.4206,-54.5683],[-71.3828,-54.5497],[-71.2684,-54.5952],[-71.2497,-54.6273],[-71.3009,-54.643],[-71.2679,-54.6793],[-71.1481,-54.6961],[-71.1113,-54.6479],[-71.0564,-54.6592],[-70.9755,-54.6343],[-71.0254,-54.7031],[-70.9895,-54.7562],[-70.9474,-54.7524],[-70.822,-54.773],[-70.803,-54.7981],[-70.8517,-54.8259],[-70.7852,-54.8468],[-70.7303,-54.8815],[-70.6887,-54.8764],[-70.6126,-54.9108],[-70.3678,-54.8712],[-70.4158,-54.8379],[-70.4844,-54.8252],[-70.5949,-54.8238],[-70.5989,-54.7869],[-70.3501,-54.845],[-70.3135,-54.7525],[-70.2504,-54.7597],[-70.3323,-54.8086],[-70.3207,-54.8603],[-70.168,-54.8741],[-69.9209,-54.8463],[-69.769,-54.8342],[-69.6888,-54.8368],[-69.4631,-54.8917],[-69.2768,-54.923],[-69.2301,-54.9164],[-69.0821,-54.9655],[-68.842,-54.9537],[-68.7267,-54.9247],[-68.7026,-54.9032],[-68.8205,-54.8596],[-68.8299,-54.8302],[-68.7054,-54.8574],[-68.6596,-54.8962],[-68.5964,-54.873],[-68.6049,-54.5939],[-68.6826,-54.5906],[-68.7901,-54.6325],[-68.9392,-54.6171],[-68.9671,-54.585],[-69.0232,-54.5826],[-69.2097,-54.7267],[-69.2586,-54.7444],[-69.4995,-54.7435],[-69.5803,-54.6667],[-69.7229,-54.6547],[-69.8324,-54.6137],[-70.0595,-54.6385],[-70.2983,-54.5808],[-70.4318,-54.5719]]]]},"properties":{"cod_comuna":12201,"comuna":"Cabo de Hornos","provincia":"Antártica Chilena","codregion":12}},
{"type":"Feature","geometry":{"type":"Polygon","coordinates":[[[-68.6826,-54.5906],[-68.6047,-54.5939],[-68.6066,-53.8077],[-68.8955,-53.794],[-69.0236,-53.7006],[-69.0825,-53.7111],[-69.2488,-53.6252],[-69.3355,-53.6484],[-69.3802,-53.7204],[-69.5189,-53.6686],[-69.6046,-53.6141],[-69.7805,-53.6664],[-69.9069,-53.6612],[-69.9594,-53.7106],[-70.1348,-53.7449],[-70.1707,-53.7734],[-70.1629,-53.8745],[-70.0415,-54.0561],[-70.0505,-54.091],[-69.9017,-54.1537],[-69.9204,-54.1633],[-69.5347,-54.249],[-68.9627,-54.4466],[-68.9794,-54.4814],[-69.1318,-54.4515],[-69.1741,-54.5079],[-69.2598,-54.5428],[-69.3283,-54.6281],[-69.3656,-54.6099],[-69.3489,-54.5701],[-69.2066,-54.4903],[-69.1993,-54.4513],[-69.3927,-54.3939],[-69.4556,-54.3461],[-69.5484,-54.3408],[-69.5582,-54.4186],[-69.6021,-54.452],[-69.6107,-54.3654],[-69.739,-54.3096],[-69.8458,-54.2876],[-69.8692,-54.3216],[-69.8292,-54.3454],[-69.801,-54.4265],[-69.7121,-54.5041],[-69.7464,-54.5184],[-69.816,-54.4494],[-69.9308,-54.3619],[-69.9867,-54.2691],[-70.0819,-54.2541],[-70.1194,-54.3025],[-70.1979,-54.3154],[-70.2023,-54.3387],[-70.1478,-54.3863],[-70.3132,-54.3484],[-70.3294,-54.3231],[-70.4656,-54.2787],[-70.5022,-54.2839],[-70.8294,-54.1416],[-70.8584,-54.1673],[-70.9137,-54.1704],[-70.8731,-54.2562],[-70.5273,-54.3023],[-70.4894,-54.3482],[-70.5108,-54.3905],[-70.4069,-54.4517],[-70.1753,-54.5147],[-70.1995,-54.5239],[-70.3009,-54.5015],[-70.3314,-54.5092],[-70.4354,-54.4756],[-70.5575,-54.4015],[-70.644,-54.4465],[-70.6775,-54.4406],[-70.5752,-54.3551],[-70.6493,-54.3373],[-70.8792,-54.336],[-70.9355,-54.3696],[-70.9166,-54.4305],[-70.9842,-54.431],[-70.9968,-54.4556],[-71.1106,-54.4259],[-70.9737,-54.5672],[-70.8216,-54.5819],[-70.8393,-54.621],[-70.7591,-54.6416],[-70.603,-54.6231],[-70.4318,-54.5719],[-70.2983,-54.5808],[-70.0595,-54.6385],[-69.8324,-54.6137],[-69.7229,-54.6547],[-69.5803,-54.6667],[-69.4995,-54.7435],[-69.2586,-54.7444],[-69.2097,-54.7267],[-69.0232,-54.5826],[-68.9671,-54.585],[-68.9392,-54.6172],[-68.7901,-54.6325],[-68.6826,-54.5906]]]},"properties":{"cod_comuna":12303,"comuna":"Timaukel","provincia":"Tierra del Fuego","codregion":12}}
]}