{"type":"FeatureCollection","features":[{"type":"Feature","geometry":{"type":"MultiPolygon","coordinates":[[[[-73.7199,-40.1985],[-73.6529,-40.1339],[-73.6646,-40.0509],[-73.7062,-40.0062],[-73.6263,-39.9804],[-73.492,-40.0394],[-73.4628,-40.0766],[-73.4785,-40.102],[-73.4466,-40.1124],[-73.3018,-40.064],[-73.2147,-40.1113],[-73.1423,-40.0958],[-73.148,-40.064],[-73.0985,-40.0687],[-73.0628,-40.1026],[-73.0119,-40.0863],[-73.0225,-40.1276],[-72.9268,-40.1782],[-72.8442,-40.1557],[-72.8404,-40.2011],[-72.7937,-40.1807],[-72.7519,-40.2012],[-72.7031,-40.1611],[-72.6687,-40.1932],[-72.5402,-40.1677],[-72.5098,-40.1938],[-72.5629,-40.2781],[-72.6124,-40.2446],[-72.6637,-40.2474],[-72.7555,-40.2856],[-72.8012,-40.2727],[-72.9111,-40.3365],[-73.0654,-40.3196],[-73.1487,-40.361],[-73.4058,-40.3379],[-73.456,-40.2695],[-73.6001,-40.3013],[-73.6718,-40.2768],[-73.6846,-40.2383],[-73.7147,-40.2452],[-73.7199,-40.1985]]],[[[-73.7218,-40.234],[-73.722,-40.2343],[-73.7228,-40.2346],[-73.7224,-40.2338],[-73.7218,-40.234]]],[[[-73.7116,-40.1994],[-73.7123,-40.1992],[-73.712,-40.1988],[-73.7115,-40.1991],[-73.7116,-40.1994]]]]},"properties":{"cod_comuna":14201,"comuna":"La Unión","provincia":"Ranco","codregion":14}},{"type":"Feature","geometry":{"type":"Polygon","coordinates":[[[-72.7189,-39.6628],[-72.661,-39.6821],[-72.5443,-39.6664],[-72.5085,-39.7192],[-72.5272,-39.7517],[-72.4903,-39.7443],[-72.2502,-39.8711],[-72.2164,-39.8338],[-72.1405,-39.8761],[-72.1606,-39.9093],[-72.1224,-39.896],[-72.0785,-39.9224],[-72.0275,-39.9171],[-72.033,-39.9555],[-72.0632,-39.9736],[-72.0953,-39.9576],[-72.1243,-39.9811],[-72.1637,-39.9591],[-72.1826,-39.9851],[-72.2366,-39.9948],[-72.2413,-39.9939],[-72.2375,-39.9877],[-72.254,-39.9648],[-72.2824,-40.0079],[-72.4051,-40.0322],[-72.4975,-39.9925],[-72.5401,-40.0079],[-72.5829,-39.9733],[-72.6262,-40.0069],[-72.601,-40.0238],[-72.637,-40.0427],[-72.6926,-39.9933],[-72.7121,-40.0177],[-72.7733,-40.0168],[-72.8416,-39.954],[-72.9112,-39.9493],[-72.9591,-39.9033],[-72.982,-39.7859],[-72.9249,-39.8193],[-72.8698,-39.8109],[-72.8415,-39.7479],[-72.8239,-39.7749],[-72.7776,-39.7784],[-72.7547,-39.7452],[-72.7215,-39.7606],[-72.734,-39.7209],[-72.6863,-39.7051],[-72.7189,-39.6628]]]},"properties":{"cod_comuna":14104,"comuna":"Los Lagos","provincia":"Valdivia","codregion":14}},{"type":"Feature","geometry":{"type":"Polygon","coordinates":[[[-72.9506,-39.5918],[-72.9279,-39.6189],[-72.785,-39.6103],[-72.7986,-39.6258],[-72.7646,-39.6442],[-72.7201,-39.6118],[-72.6569,-39.6114],[-72.5927,-39.6512],[-72.6464,-39.6816],[-72.7202,-39.6622],[-72.6863,-39.7051],[-72.734,-39.7209],[-72.7197,-39.7596],[-72.7547,-39.7452],[-72.7776,-39.7784],[-72.8239,-39.7749],[-72.8415,-39.7479],[-72.8698,-39.8109],[-72.9337,-39.819],[-72.9751,-39.7859],[-73.0127,-39.7859],[-72.9883,-39.7763],[-73.0227,-39.6924],[-73.0815,-39.7103],[-73.0997,-39.6961],[-73.0837,-39.7055],[-73.0508,-39.6372],[-72.9506,-39.5918]]]},"properties":{"cod_comuna":14105,"comuna":"Máfil","provincia":"Valdivia","codregion":14}},{"type":"Feature","geometry":{"type":"Polygon","coordinates":[[[-72.975,-39.9255],[-72.8416,-39.954],[-72.8327,-39.9832],[-72.8059,-39.9778],[-72.7689,-40.0179],[-72.7121,-40.0177],[-72.6901,-39.9944],[-72.5529,-40.0997],[-72.5538,-40.1829],[-72.6687,-40.1932],[-72.7031,-40.1611],[-72.7519,-40.2012],[-72.7937,-40.1807],[-72.8404,-40.2011],[-72.8442,-40.1557],[-72.9268,-40.1782],[-73.0225,-40.1276],[-73.0119,-40.0863],[-73.0628,-40.1026],[-73.0985,-40.0687],[-73.1568,-40.0624],[-73.1723,-40.0131],[-73.0811,-40.0318],[-73.066,-39.9973],[-72.9972,-39.976],[-73.0267,-39.9504],[-72.975,-39.9255]]]},"properties":{"cod_comuna":14107,"comuna":"Paillaco","provincia":"Ranco","codregion":14}},{"type":"Feature","geometry":{"type":"Polygon","coordinates":[[[-72.7908,-39.4097],[-72.7894,-39.4323],[-72.7133,-39.426],[-72.6579,-39.4602],[-72.5323,-39.4337],[-72.517,-39.477],[-72.4399,-39.4748],[-72.327,-39.5137],[-72.4101,-39.5528],[-72.4615,-39.5448],[-72.4933,-39.5891],[-72.5498,-39.5864],[-72.5932,-39.6459],[-72.639,-39.584],[-72.747,-39.5653],[-72.7715,-39.5294],[-72.8465,-39.5097],[-72.846,-39.4294],[-72.7908,-39.4097]]]},"properties":{"cod_comuna":14103,"comuna":"Lanco","provincia":"Valdivia","codregion":14}},{"type":"Feature","geometry":{"type":"Polygon","coordinates":[[[-71.7151,-39.6478],[-71.6691,-39.6823],[-71.7121,-39.7245],[-71.6669,-39.8076],[-71.6888,-39.849],[-71.6417,-39.855],[-71.592,-39.9118],[-71.6878,-40.0324],[-71.667,-40.0942],[-71.6977,-40.1179],[-71.819,-40.0751],[-71.808,-40.0175],[-71.8294,-40.0006],[-71.7939,-39.9714],[-71.843,-39.9142],[-71.8935,-39.8964],[-72.0222,-39.9311],[-72.1224,-39.896],[-72.1606,-39.9093],[-72.1405,-39.8761],[-72.2164,-39.8338],[-72.2502,-39.8711],[-72.4903,-39.7443],[-72.5272,-39.7517],[-72.5085,-39.7192],[-72.5443,-39.6664],[-72.6041,-39.6618],[-72.5498,-39.5864],[-72.4767,-39.5826],[-72.488,-39.5628],[-72.4615,-39.5448],[-72.4101,-39.5528],[-72.2642,-39.4709],[-72.2169,-39.4683],[-72.2702,-39.5111],[-72.2074,-39.5306],[-72.1178,-39.5107],[-71.9394,-39.4201],[-71.8613,-39.4351],[-71.8421,-39.4698],[-71.7607,-39.5084],[-71.7026,-39.5031],[-71.679,-39.5656],[-71.7151,-39.6478]]]},"properties":{"cod_comuna":14108,"comuna":"Panguipulli","provincia":"Valdivia","codregion":14}},{"type":"Feature","geometry":{"type":"Polygon","coordinates":[[[-72.3992,-40.6563],[-72.6073,-40.6809],[-72.6557,-40.6253],[-72.772,-40.6012],[-72.8147,-40.5453],[-72.8581,-40.5369],[-72.8924,-40.5065],[-72.903,-40.445],[-72.9796,-40.3858],[-73.1337,-40.3409],[-73.0654,-40.3196],[-72.9111,-40.3365],[-72.8012,-40.2727],[-72.7555,-40.2856],[-72.6463,-40.2571],[-72.6242,-40.3071],[-72.5663,-40.3269],[-72.5493,-40.3786],[-72.3196,-40.4271],[-72.2965,-40.4911],[-72.1518,-40.5481],[-72.1195,-40.5816],[-72.0777,-40.5339],[-71.9846,-40.5151],[-71.8765,-40.5672],[-71.9703,-40.6348],[-72.0521,-40.63],[-72.0798,-40.6606],[-72.1989,-40.6716],[-72.2865,-40.6463],[-72.3406,-40.676],[-72.3992,-40.6563]]]},"properties":{"cod_comuna":14204,"comuna":"Río Bueno","provincia":"Ranco","codregion":14}},{"type":"Feature","geometry":{"type":"MultiPolygon","coordinates":[[[[-73.2356,-39.4496],[-73.2158,-39.4224],[-73.2426,-39.3902],[-73.1599,-39.4159],[-73.0864,-39.3887],[-73.0234,-39.2979],[-72.946,-39.3172],[-72.908,-39.2894],[-72.8582,-39.2882],[-72.8356,-39.3211],[-72.9017,-39.3883],[-72.8967,-39.4326],[-72.8688,-39.3984],[-72.8329,-39.4125],[-72.8465,-39.5097],[-72.7715,-39.5294],[-72.747,-39.5653],[-72.6396,-39.5837],[-72.6081,-39.6252],[-72.7195,-39.6117],[-72.7646,-39.6442],[-72.7986,-39.6258],[-72.785,-39.6103],[-72.9279,-39.6189],[-72.9601,-39.5921],[-73.0508,-39.6372],[-73.0922,-39.6908],[-73.1676,-39.7031],[-73.1863,-39.6897],[-73.1165,-39.6436],[-73.1613,-39.6614],[-73.1219,-39.614],[-73.1637,-39.6637],[-73.1658,-39.6219],[-73.1802,-39.6347],[-73.1618,-39.6167],[-73.1372,-39.6077],[-73.1277,-39.595],[-73.1564,-39.6088],[-73.1613,-39.6157],[-73.1747,-39.6275],[-73.1588,-39.6087],[-73.1693,-39.6081],[-73.1694,-39.6055],[-73.163,-39.6018],[-73.1613,-39.5987],[-73.1612,-39.5942],[-73.1632,-39.5922],[-73.1904,-39.6233],[-73.1966,-39.6812],[-73.3237,-39.6309],[-73.2821,-39.5881],[-73.2791,-39.5421],[-73.2513,-39.5349],[-73.265,-39.4565],[-73.2356,-39.4496]]],[[[-73.175,-39.636],[-73.1741,-39.6377],[-73.174,-39.642],[-73.179,-39.6368],[-73.175,-39.636]]],[[[-73.1845,-39.6429],[-73.1823,-39.6396],[-73.1806,-39.6351],[-73.1813,-39.6404],[-73.1845,-39.6429]]],[[[-73.1816,-39.6476],[-73.1823,-39.6465],[-73.1816,-39.6446],[-73.1799,-39.6458],[-73.1816,-39.6476]]],[[[-73.1837,-39.6492],[-73.1845,-39.6443],[-73.1837,-39.6438],[-73.1841,-39.6466],[-73.1837,-39.6492]]],[[[-73.1354,-39.6034],[-73.1364,-39.6028],[-73.1344,-39.6018],[-73.1346,-39.6027],[-73.1354,-39.6034]]],[[[-73.139,-39.605],[-73.1396,-39.6045],[-73.1377,-39.6035],[-73.1376,-39.6039],[-73.139,-39.605]]],[[[-73.1732,-39.6225],[-73.1738,-39.6218],[-73.1723,-39.6217],[-73.1723,-39.6222],[-73.1732,-39.6225]]]]},"properties":{"cod_comuna":14106,"comuna":"Mariquina","provincia":"Valdivia","codregion":14}},{"type":"Feature","geometry":{"type":"MultiPolygon","coordinates":[[[[-73.3019,-39.9524],[-73.3071,-39.9525],[-73.3106,-39.9556],[-73.3069,-39.9491],[-73.3019,-39.9524]]],[[[-73.3171,-39.9479],[-73.3177,-39.9481],[-73.3185,-39.9475],[-73.3178,-39.9473],[-73.3171,-39.9479]]],[[[-73.3155,-39.9425],[-73.3156,-39.9429],[-73.3163,-39.9425],[-73.3161,-39.9423],[-73.3155,-39.9425]]],[[[-73.351,-39.9011],[-73.3496,-39.8992],[-73.3451,-39.8993],[-73.3468,-39.902],[-73.351,-39.9011]]],[[[-73.3585,-39.8923],[-73.3601,-39.894],[-73.3609,-39.8935],[-73.361,-39.8918],[-73.3585,-39.8923]]],[[[-73.3869,-39.8953],[-73.3966,-39.8936],[-73.3938,-39.8861],[-73.3896,-39.8888],[-73.3869,-39.8953]]],[[[-73.434,-39.8606],[-73.4328,-39.8599],[-73.432,-39.8602],[-73.4325,-39.861],[-73.434,-39.8606]]],[[[-73.3061,-39.8585],[-73.2575,-39.8992],[-73.2859,-39.9461],[-73.3293,-39.9311],[-73.3314,-39.9072],[-73.3446,-39.9016],[-73.3238,-39.9088],[-73.321,-39.8988],[-73.3797,-39.884],[-73.3061,-39.8585]]],[[[-73.4296,-39.8873],[-73.4025,-39.9069],[-73.4012,-39.9164],[-73.4116,-39.9236],[-73.4119,-39.9304],[-73.4143,-39.9314],[-73.4144,-39.9321],[-73.414,-39.933],[-73.4152,-39.9335],[-73.4162,-39.9349],[-73.4164,-39.936],[-73.4022,-39.9199],[-73.3772,-39.9429],[-73.3853,-39.9094],[-73.376,-39.8943],[-73.3387,-39.9123],[-73.3268,-39.952],[-73.3073,-39.9474],[-73.2964,-39.9542],[-73.3031,-39.9707],[-73.2989,-39.9766],[-73.2944,-39.9801],[-73.2917,-39.9793],[-73.2927,-39.9805],[-73.2924,-39.9819],[-73.2894,-39.9832],[-73.2873,-39.9834],[-73.2862,-39.9829],[-73.3024,-39.971],[-73.2934,-39.959],[-73.296,-39.9527],[-73.3057,-39.9461],[-73.2856,-39.9487],[-73.272,-39.9394],[-73.2565,-39.9054],[-73.1942,-39.9494],[-73.1585,-39.9431],[-73.1389,-40.001],[-73.1733,-40.019],[-73.1423,-40.0958],[-73.2147,-40.1113],[-73.2717,-40.0667],[-73.3472,-40.065],[-73.416,-40.1161],[-73.4466,-40.1124],[-73.4785,-40.102],[-73.4627,-40.0771],[-73.4865,-40.0443],[-73.5677,-39.9967],[-73.6263,-39.9804],[-73.7068,-40.0062],[-73.677,-39.9642],[-73.5928,-39.957],[-73.5925,-39.9313],[-73.5151,-39.9154],[-73.4686,-39.8518],[-73.4325,-39.8615],[-73.4296,-39.8873]]]]},"properties":{"cod_comuna":14102,"comuna":"Corral","provincia":"Valdivia","codregion":14}},{"type":"Feature","geometry":{"type":"MultiPolygon","coordinates":[[[[-73.2551,-39.895],[-73.2557,-39.8952],[-73.2558,-39.8942],[-73.255,-39.8943],[-73.2551,-39.895]]],[[[-73.2593,-39.895],[-73.2657,-39.8924],[-73.2652,-39.8862],[-73.2627,-39.887],[-73.2593,-39.895]]],[[[-73.2815,-39.8793],[-73.282,-39.8791],[-73.2819,-39.8785],[-73.281,-39.879],[-73.2815,-39.8793]]],[[[-73.2814,-39.8771],[-73.2818,-39.877],[-73.2818,-39.8767],[-73.2813,-39.8767],[-73.2814,-39.8771]]],[[[-73.284,-39.8776],[-73.2845,-39.8787],[-73.2875,-39.8762],[-73.2862,-39.8757],[-73.284,-39.8776]]],[[[-73.2828,-39.8763],[-73.2836,-39.8762],[-73.2839,-39.8747],[-73.2829,-39.8748],[-73.2828,-39.8763]]],[[[-73.2881,-39.874],[-73.2857,-39.8744],[-73.2857,-39.8751],[-73.2881,-39.8756],[-73.2881,-39.874]]],[[[-73.2707,-39.8708],[-73.2664,-39.8757],[-73.2781,-39.8863],[-73.281,-39.876],[-73.2707,-39.8708]]],[[[-73.2524,-39.8711],[-73.2536,-39.871],[-73.2565,-39.8704],[-73.2531,-39.8697],[-73.2524,-39.8711]]],[[[-73.3181,-39.8564],[-73.3167,-39.8564],[-73.3158,-39.8571],[-73.3176,-39.8577],[-73.3181,-39.8564]]],[[[-73.2871,-39.8585],[-73.2893,-39.8591],[-73.2901,-39.858],[-73.2886,-39.857],[-73.2871,-39.8585]]],[[[-73.2637,-39.8563],[-73.2658,-39.8532],[-73.2656,-39.8527],[-73.2631,-39.8536],[-73.2637,-39.8563]]],[[[-73.2678,-39.8539],[-73.2684,-39.8576],[-73.2772,-39.8599],[-73.2717,-39.8523],[-73.2678,-39.8539]]],[[[-73.311,-39.85],[-73.3063,-39.8494],[-73.2908,-39.8562],[-73.2943,-39.8592],[-73.311,-39.85]]],[[[-73.2634,-39.8361],[-73.2609,-39.8343],[-73.2535,-39.8267],[-73.253,-39.8311],[-73.2634,-39.8361]]],[[[-73.2703,-39.8041],[-73.2664,-39.7851],[-73.2596,-39.8265],[-73.2638,-39.8238],[-73.2703,-39.8041]]],[[[-73.2505,-39.749],[-73.2518,-39.7488],[-73.2539,-39.7466],[-73.252,-39.7465],[-73.2505,-39.749]]],[[[-73.2707,-39.7386],[-73.268,-39.7416],[-73.2706,-39.7491],[-73.2764,-39.7425],[-73.2707,-39.7386]]],[[[-73.2752,-39.7381],[-73.2777,-39.7398],[-73.2805,-39.7387],[-73.2774,-39.7363],[-73.2752,-39.7381]]],[[[-73.2397,-39.741],[-73.2435,-39.7407],[-73.2389,-39.7248],[-73.2325,-39.7298],[-73.2346,-39.7313],[-73.2359,-39.7388],[-73.2397,-39.741]]],[[[-73.2515,-39.7286],[-73.2533,-39.7248],[-73.2523,-39.7235],[-73.2503,-39.7271],[-73.2515,-39.7286]]],[[[-73.203,-39.7044],[-73.1973,-39.7078],[-73.2072,-39.7116],[-73.208,-39.7061],[-73.203,-39.7044]]],[[[-73.2,-39.7005],[-73.2011,-39.6999],[-73.1983,-39.6992],[-73.1982,-39.6998],[-73.2,-39.7005]]],[[[-73.2447,-39.8088],[-73.226,-39.8232],[-73.2171,-39.8223],[-73.1905,-39.7849],[-73.1624,-39.8039],[-73.1886,-39.7824],[-73.221,-39.8194],[-73.2556,-39.7986],[-73.2532,-39.7778],[-73.2474,-39.7859],[-73.2409,-39.7899],[-73.2395,-39.7903],[-73.2365,-39.79],[-73.2333,-39.7306],[-73.1058,-39.6888],[-73.0815,-39.7103],[-73.0227,-39.6924],[-72.9883,-39.7763],[-73.0127,-39.7859],[-72.9749,-39.7934],[-72.9603,-39.9009],[-72.9407,-39.9044],[-72.9208,-39.9411],[-73.0066,-39.9328],[-73.0269,-39.9526],[-72.9972,-39.976],[-73.066,-39.9973],[-73.0811,-40.0318],[-73.1443,-40.0089],[-73.1585,-39.9431],[-73.2217,-39.9379],[-73.2597,-39.8761],[-73.2072,-39.8929],[-73.1732,-39.8876],[-73.1424,-39.9306],[-73.1364,-39.8857],[-73.1882,-39.8561],[-73.1753,-39.8838],[-73.2049,-39.8916],[-73.2261,-39.8593],[-73.2423,-39.8765],[-73.2414,-39.8686],[-73.2364,-39.8654],[-73.2342,-39.8588],[-73.236,-39.8553],[-73.2403,-39.8535],[-73.2433,-39.8759],[-73.2643,-39.8718],[-73.2447,-39.8088]]],[[[-73.3008,-39.8472],[-73.2934,-39.8514],[-73.3099,-39.8469],[-73.3288,-39.8557],[-73.3474,-39.8095],[-73.334,-39.8568],[-73.3972,-39.876],[-73.4098,-39.832],[-73.39,-39.7855],[-73.4051,-39.6944],[-73.3231,-39.6372],[-73.2366,-39.6514],[-73.2,-39.6833],[-73.2225,-39.7197],[-73.2418,-39.6918],[-73.2411,-39.719],[-73.2811,-39.7293],[-73.2971,-39.745],[-73.26,-39.7675],[-73.2802,-39.799],[-73.2681,-39.8378],[-73.3008,-39.8472]]]]},"properties":{"cod_comuna":14101,"comuna":"Valdivia","provincia":"Valdivia","codregion":14}},{"type":"Feature","geometry":{"type":"Polygon","coordinates":[[[-71.8516,-40.5257],[-71.8679,-40.5573],[-71.9532,-40.5438],[-71.9846,-40.5151],[-72.0777,-40.5339],[-72.1175,-40.5823],[-72.1518,-40.5481],[-72.2965,-40.4911],[-72.3196,-40.4271],[-72.5493,-40.3786],[-72.5663,-40.3269],[-72.6344,-40.2952],[-72.637,-40.2618],[-72.6834,-40.2571],[-72.6124,-40.2446],[-72.5607,-40.2774],[-72.5109,-40.1875],[-72.4181,-40.2005],[-72.3878,-40.2493],[-72.1852,-40.2092],[-71.9791,-40.3174],[-71.6571,-40.353],[-71.7409,-40.4372],[-71.7939,-40.4073],[-71.825,-40.42],[-71.8516,-40.5257]]]},"properties":{"cod_comuna":14203,"comuna":"Lago Ranco","provincia":"Ranco","codregion":14}},{"type":"Feature","geometry":{"type":"Polygon","coordinates":[[[-71.8005,-40.2448],[-71.7469,-40.3066],[-71.7167,-40.2787],[-71.6842,-40.2936],[-71.6571,-40.353],[-71.9791,-40.3174],[-72.1852,-40.2092],[-72.3939,-40.2481],[-72.4181,-40.2005],[-72.5077,-40.1896],[-72.5661,-40.1559],[-72.5479,-40.1072],[-72.637,-40.0427],[-72.601,-40.0238],[-72.6262,-40.0069],[-72.5823,-39.9733],[-72.5211,-40.0142],[-72.4975,-39.9925],[-72.4359,-40.0287],[-72.3775,-40.0289],[-72.2824,-40.0079],[-72.254,-39.9648],[-72.2366,-39.9948],[-72.1826,-39.9851],[-72.1637,-39.9591],[-72.1243,-39.9811],[-72.0953,-39.9576],[-72.0632,-39.9736],[-72.0283,-39.9289],[-71.8931,-39.8963],[-71.822,-39.9269],[-71.7939,-39.9714],[-71.8295,-40.001],[-71.808,-40.0186],[-71.831,-40.1064],[-71.8031,-40.11],[-71.7991,-40.1376],[-71.8285,-40.1732],[-71.7978,-40.1874],[-71.8295,-40.2169],[-71.8005,-40.2448]]]},"properties":{"cod_comuna":14202,"comuna":"Futrono","provincia":"Ranco","codregion":14}}]}