{"type":"FeatureCollection","features":[{"type":"Feature","geometry":{"type":"Polygon","coordinates":[[[-69.2537,-17.9691],[-69.1209,-18.0044],[-69.057,-18.0612],[-69.1461,-18.1638],[-69.0639,-18.2309],[-69.0742,-18.2874],[-69.038,-18.3226],[-69.0483,-18.4265],[-69.0027,-18.4823],[-69.0074,-18.6015],[-69.0368,-18.6222],[-68.9842,-18.6782],[-68.9116,-18.8907],[-68.9581,-18.9458],[-69.0202,-18.9537],[-69.0096,-18.9971],[-69.0469,-19.0338],[-69.1233,-18.9799],[-69.1527,-18.8369],[-69.269,-18.7822],[-69.3827,-18.8115],[-69.4533,-18.7033],[-69.6935,-18.5401],[-69.6257,-18.435],[-69.6795,-18.351],[-69.6507,-18.3135],[-69.6953,-18.1911],[-69.6429,-18.1629],[-69.6595,-18.1199],[-69.6298,-17.996],[-69.4654,-17.98],[-69.3952,-18.002],[-69.2537,-17.9691]]]},"properties":{"cod_comuna":15201,"comuna":"Putre","provincia":"Parinacota","codregion":15}},{"type":"Feature","geometry":{"type":"Polygon","coordinates":[[[-70.3472,-18.84],[-70.2944,-18.8151],[-70.0215,-18.9036],[-70.0192,-18.8258],[-69.8548,-18.8224],[-69.7328,-18.7486],[-69.4619,-18.6994],[-69.3827,-18.8115],[-69.269,-18.7822],[-69.1527,-18.8369],[-69.147,-18.9321],[-69.0712,-19.0312],[-69.1534,-19.1027],[-69.2334,-19.0939],[-69.3178,-19.1365],[-69.3149,-19.103],[-69.4255,-19.0247],[-69.8864,-19.0346],[-70.2853,-19.2293],[-70.2691,-19.1463],[-70.3472,-18.84]]]},"properties":{"cod_comuna":15102,"comuna":"Camarones","provincia":"Arica","codregion":15}},{"type":"Feature","geometry":{"type":"Polygon","coordinates":[[[-70.3596,-18.7927],[-70.3166,-18.5151],[-70.3335,-18.4799],[-70.3026,-18.4487],[-70.3791,-18.3501],[-70.3181,-18.3111],[-70.1494,-18.3193],[-70.0504,-18.2692],[-69.9659,-18.2621],[-69.8605,-18.1705],[-69.777,-18.0481],[-69.7459,-18.0858],[-69.7717,-18.1064],[-69.7564,-18.1347],[-69.6708,-18.1618],[-69.6953,-18.1911],[-69.6507,-18.3135],[-69.6801,-18.3486],[-69.6257,-18.435],[-69.6904,-18.5485],[-69.5138,-18.6549],[-69.4905,-18.6989],[-69.7328,-18.7486],[-69.8548,-18.8224],[-70.0192,-18.8258],[-70.0215,-18.9036],[-70.2944,-18.8151],[-70.3491,-18.8348],[-70.3596,-18.7927]]]},"properties":{"cod_comuna":15101,"comuna":"Arica","provincia":"Arica","codregion":15}},{"type":"Feature","geometry":{"type":"Polygon","coordinates":[[[-69.2844,-17.9693],[-69.3952,-18.002],[-69.4654,-17.98],[-69.6292,-17.9957],[-69.6595,-18.1199],[-69.6429,-18.1629],[-69.7445,-18.146],[-69.7717,-18.1064],[-69.7459,-18.0858],[-69.7836,-18.0482],[-69.7502,-17.9473],[-69.799,-17.8658],[-69.8222,-17.7439],[-69.7962,-17.6459],[-69.6664,-17.6603],[-69.4684,-17.4983],[-69.4678,-17.6048],[-69.3381,-17.7296],[-69.3108,-17.7944],[-69.2844,-17.9693]]]},"properties":{"cod_comuna":15202,"comuna":"General Lagos","provincia":"Parinacota","codregion":15}}]}