{"type":"FeatureCollection","features":[{"type":"Feature","geometry":{"type":"Polygon","coordinates":[[[-72.437,-36.6922],[-72.3131,-36.6961],[-72.2179,-36.7384],[-72.1343,-36.7342],[-72.1081,-36.7952],[-72.1462,-36.7869],[-72.2163,-36.9013],[-72.3804,-36.8667],[-72.4297,-36.8012],[-72.4139,-36.7587],[-72.437,-36.6922]]]},"properties":{"cod_comuna":16102,"comuna":"Bulnes","provincia":"Ñuble","codregion":16}},{"type":"Feature","geometry":{"type":"Polygon","coordinates":[[[-72.3506,-36.6904],[-72.3571,-36.6542],[-72.302,-36.6295],[-72.1368,-36.6145],[-72.1031,-36.6274],[-72.0574,-36.7468],[-72.1267,-36.7282],[-72.2179,-36.7384],[-72.3506,-36.6904]]]},"properties":{"cod_comuna":16103,"comuna":"Chillán Viejo","provincia":"Ñuble","codregion":16}},{"type":"Feature","geometry":{"type":"Polygon","coordinates":[[[-71.987,-36.51],[-71.8578,-36.5272],[-71.8908,-36.5682],[-72.013,-36.5549],[-72.0356,-36.5717],[-72.0295,-36.6044],[-71.9573,-36.6327],[-71.938,-36.666],[-71.9507,-36.6851],[-71.9826,-36.6719],[-72.001,-36.7496],[-72.0583,-36.7488],[-72.0787,-36.6683],[-72.1387,-36.6142],[-72.302,-36.6295],[-72.3571,-36.6542],[-72.348,-36.6934],[-72.383,-36.707],[-72.45,-36.6817],[-72.4599,-36.6402],[-72.224,-36.5836],[-72.1887,-36.5535],[-72.0819,-36.5522],[-71.987,-36.51]]]},"properties":{"cod_comuna":16101,"comuna":"Chillán","provincia":"Ñuble","codregion":16}},{"type":"Feature","geometry":{"type":"Polygon","coordinates":[[[-72.2619,-37.1248],[-72.2613,-37.0926],[-72.1821,-37.0468],[-72.1947,-37.0273],[-71.9895,-37.037],[-71.8736,-37.0665],[-71.6926,-37.037],[-71.5953,-36.9972],[-71.5408,-37.0411],[-71.5595,-37.1328],[-71.687,-37.1443],[-71.797,-37.1086],[-71.8442,-37.1289],[-71.8505,-37.1622],[-71.9455,-37.1924],[-72.0357,-37.1656],[-72.0662,-37.1678],[-72.062,-37.1935],[-72.1191,-37.1786],[-72.1603,-37.1974],[-72.2744,-37.1947],[-72.2619,-37.1248]]]},"properties":{"cod_comuna":16109,"comuna":"Yungay","provincia":"Ñuble","codregion":16}},{"type":"Feature","geometry":{"type":"Polygon","coordinates":[[[-72.4479,-36.6835],[-72.4139,-36.7587],[-72.4297,-36.8012],[-72.3809,-36.8581],[-72.3853,-36.9118],[-72.4615,-36.9271],[-72.4513,-36.9082],[-72.5022,-36.8957],[-72.5169,-36.9394],[-72.6525,-36.9217],[-72.6451,-36.8834],[-72.5708,-36.8937],[-72.5731,-36.8656],[-72.5384,-36.8495],[-72.5937,-36.8137],[-72.5794,-36.6987],[-72.5336,-36.7097],[-72.4479,-36.6835]]]},"properties":{"cod_comuna":16107,"comuna":"Quillón","provincia":"Ñuble","codregion":16}},{"type":"Feature","geometry":{"type":"Polygon","coordinates":[[[-72.2373,-36.2069],[-72.1542,-36.2353],[-72.1114,-36.2834],[-71.952,-36.2974],[-71.8475,-36.4089],[-71.7933,-36.3949],[-71.6756,-36.4461],[-71.681,-36.523],[-71.6963,-36.4835],[-71.7815,-36.4798],[-71.8896,-36.5212],[-71.9915,-36.5066],[-72.093,-36.5511],[-72.0493,-36.4537],[-72.0828,-36.4577],[-72.0827,-36.4392],[-72.0513,-36.4192],[-72.1784,-36.3679],[-72.3334,-36.3437],[-72.3196,-36.2799],[-72.3006,-36.2896],[-72.2373,-36.2069]]]},"properties":{"cod_comuna":16301,"comuna":"San Carlos","provincia":"Punilla","codregion":16}},{"type":"Feature","geometry":{"type":"Polygon","coordinates":[[[-72.8693,-36.3839],[-72.7896,-36.3307],[-72.7443,-36.3564],[-72.6614,-36.3271],[-72.6354,-36.4062],[-72.585,-36.3866],[-72.5759,-36.4258],[-72.5083,-36.4354],[-72.5078,-36.4688],[-72.5575,-36.5347],[-72.6357,-36.5241],[-72.7344,-36.4058],[-72.8693,-36.3839]]]},"properties":{"cod_comuna":16207,"comuna":"Treguaco","provincia":"Itata","codregion":16}},{"type":"Feature","geometry":{"type":"Polygon","coordinates":[[[-72.5884,-36.5702],[-72.4486,-36.6606],[-72.5326,-36.7095],[-72.5771,-36.6973],[-72.5954,-36.7337],[-72.6188,-36.6897],[-72.7352,-36.6372],[-72.7337,-36.6172],[-72.6507,-36.5963],[-72.6163,-36.5502],[-72.5884,-36.5702]]]},"properties":{"cod_comuna":16206,"comuna":"Ranquil","provincia":"Itata","codregion":16}},{"type":"Feature","geometry":{"type":"Polygon","coordinates":[[[-72.5027,-36.4352],[-72.4718,-36.4702],[-72.3711,-36.4758],[-72.3533,-36.4982],[-72.3613,-36.562],[-72.4347,-36.6404],[-72.4694,-36.643],[-72.6286,-36.5285],[-72.5495,-36.5306],[-72.5027,-36.4352]]]},"properties":{"cod_comuna":16205,"comuna":"Portezuelo","provincia":"Itata","codregion":16}},{"type":"Feature","geometry":{"type":"Polygon","coordinates":[[[-72.7801,-36.0187],[-72.6865,-36.0187],[-72.6552,-36.0469],[-72.6445,-36.0151],[-72.5526,-36.1114],[-72.7068,-36.1477],[-72.6442,-36.1909],[-72.6256,-36.3024],[-72.731,-36.3544],[-72.7896,-36.3307],[-72.8518,-36.3597],[-72.8087,-36.2763],[-72.815,-36.0935],[-72.7801,-36.0187]]]},"properties":{"cod_comuna":16202,"comuna":"Cobquecura","provincia":"Itata","codregion":16}},{"type":"Feature","geometry":{"type":"Polygon","coordinates":[[[-72.3601,-36.2148],[-72.4122,-36.2078],[-72.4351,-36.2482],[-72.4551,-36.2372],[-72.4833,-36.2949],[-72.4569,-36.3546],[-72.5407,-36.371],[-72.5671,-36.4246],[-72.585,-36.3866],[-72.6354,-36.4062],[-72.6614,-36.3271],[-72.6196,-36.2666],[-72.6438,-36.2565],[-72.6447,-36.1902],[-72.7068,-36.1477],[-72.5529,-36.1118],[-72.5918,-36.0903],[-72.5929,-36.065],[-72.492,-36.0727],[-72.4934,-36.1469],[-72.4021,-36.1759],[-72.3587,-36.1574],[-72.3363,-36.18],[-72.3601,-36.2148]]]},"properties":{"cod_comuna":16201,"comuna":"Quirihue","provincia":"Itata","codregion":16}},{"type":"Feature","geometry":{"type":"Polygon","coordinates":[[[-72.8706,-36.3896],[-72.8223,-36.3815],[-72.7029,-36.4252],[-72.6895,-36.4856],[-72.6049,-36.5449],[-72.6507,-36.5963],[-72.7685,-36.6253],[-72.7645,-36.6053],[-72.7982,-36.6059],[-72.8278,-36.5264],[-72.8011,-36.5107],[-72.8097,-36.4597],[-72.8778,-36.4548],[-72.8706,-36.3896]]]},"properties":{"cod_comuna":16203,"comuna":"Coelemu","provincia":"Itata","codregion":16}},{"type":"Feature","geometry":{"type":"Polygon","coordinates":[[[-72.2776,-36.2614],[-72.3006,-36.2896],[-72.3196,-36.2799],[-72.3337,-36.3428],[-72.2975,-36.3798],[-72.3372,-36.4064],[-72.3639,-36.4776],[-72.4718,-36.4702],[-72.4932,-36.4367],[-72.552,-36.416],[-72.5407,-36.371],[-72.4569,-36.3546],[-72.4833,-36.2949],[-72.4405,-36.2288],[-72.4112,-36.2229],[-72.3725,-36.2571],[-72.3135,-36.233],[-72.2776,-36.2614]]]},"properties":{"cod_comuna":16204,"comuna":"Ninhue","provincia":"Itata","codregion":16}},{"type":"Feature","geometry":{"type":"Polygon","coordinates":[[[-71.1404,-37.0642],[-71.0961,-37.1096],[-71.27,-37.1115],[-71.3841,-37.0671],[-71.41,-37.0903],[-71.497,-37.0089],[-71.5516,-37.0196],[-71.5953,-36.9972],[-71.5975,-36.9102],[-71.6474,-36.8736],[-71.7331,-36.8294],[-71.7735,-36.8339],[-71.7549,-36.8229],[-71.7554,-36.8171],[-71.8309,-36.8314],[-72.001,-36.7496],[-71.9793,-36.7207],[-71.9982,-36.693],[-71.9342,-36.6666],[-71.7551,-36.7924],[-71.6481,-36.8015],[-71.5688,-36.8447],[-71.4305,-36.8124],[-71.3449,-36.9111],[-71.2606,-36.9148],[-71.2215,-36.982],[-71.1671,-36.9972],[-71.1404,-37.0642]]]},"properties":{"cod_comuna":16106,"comuna":"Pinto","provincia":"Ñuble","codregion":16}},{"type":"Feature","geometry":{"type":"Polygon","coordinates":[[[-72.1267,-36.7282],[-71.9834,-36.7475],[-71.8309,-36.8314],[-71.7547,-36.8225],[-71.8344,-36.8504],[-72.0146,-36.8654],[-72.0943,-36.9033],[-72.2022,-36.8895],[-72.1462,-36.7869],[-72.1081,-36.7952],[-72.1267,-36.7282]]]},"properties":{"cod_comuna":16108,"comuna":"San Ignacio","provincia":"Ñuble","codregion":16}},{"type":"Feature","geometry":{"type":"Polygon","coordinates":[[[-72.3554,-36.8669],[-72.1731,-36.9083],[-72.0009,-36.9894],[-71.7112,-37.0146],[-71.6315,-36.9682],[-71.604,-36.9709],[-71.5961,-37.0048],[-71.8736,-37.0665],[-71.9895,-37.037],[-72.1727,-37.0362],[-72.3433,-36.9705],[-72.3855,-36.9116],[-72.3804,-36.8667],[-72.3554,-36.8669]]]},"properties":{"cod_comuna":16105,"comuna":"Pemuco","provincia":"Ñuble","codregion":16}},{"type":"Feature","geometry":{"type":"Polygon","coordinates":[[[-72.242,-36.3522],[-72.0513,-36.4192],[-72.0869,-36.4526],[-72.0493,-36.4537],[-72.0732,-36.4688],[-72.069,-36.5271],[-72.093,-36.5511],[-72.1887,-36.5535],[-72.224,-36.5836],[-72.3908,-36.6227],[-72.3613,-36.562],[-72.369,-36.4561],[-72.3007,-36.3883],[-72.316,-36.3588],[-72.242,-36.3522]]]},"properties":{"cod_comuna":16305,"comuna":"San Nicolás","provincia":"Punilla","codregion":16}},{"type":"Feature","geometry":{"type":"Polygon","coordinates":[[[-71.2483,-36.4559],[-71.2249,-36.4626],[-71.1154,-36.362],[-71.0593,-36.3871],[-71.0681,-36.4478],[-71.0353,-36.4742],[-71.0574,-36.6182],[-71.0073,-36.6835],[-71.0659,-36.7145],[-71.086,-36.6778],[-71.1136,-36.6803],[-71.1322,-36.8142],[-71.1797,-36.8414],[-71.1221,-36.8635],[-71.1447,-36.9291],[-71.0881,-36.9287],[-71.128,-36.9469],[-71.2486,-36.8368],[-71.2814,-36.6871],[-71.5204,-36.5968],[-71.6049,-36.5189],[-71.681,-36.523],[-71.6894,-36.4408],[-71.6293,-36.3719],[-71.5712,-36.4043],[-71.4672,-36.412],[-71.4098,-36.5032],[-71.3528,-36.5125],[-71.3365,-36.5435],[-71.2815,-36.4483],[-71.2483,-36.4559]]]},"properties":{"cod_comuna":16304,"comuna":"San Fabián","provincia":"Punilla","codregion":16}},{"type":"Feature","geometry":{"type":"Polygon","coordinates":[[[-72.099,-36.1371],[-72.0754,-36.1311],[-72.0727,-36.1562],[-72.0227,-36.175],[-71.9742,-36.2586],[-71.8115,-36.2547],[-71.6291,-36.3959],[-71.6898,-36.4413],[-71.7933,-36.3949],[-71.8206,-36.4169],[-71.952,-36.2974],[-72.1118,-36.2832],[-72.1427,-36.2418],[-72.099,-36.1371]]]},"properties":{"cod_comuna":16303,"comuna":"Ñiquén","provincia":"Punilla","codregion":16}},{"type":"Feature","geometry":{"type":"Polygon","coordinates":[[[-71.7422,-36.8288],[-71.6045,-36.9016],[-71.5936,-36.9901],[-71.6397,-36.9686],[-71.7112,-37.0146],[-71.965,-36.9953],[-72.2172,-36.9013],[-72.1913,-36.8842],[-72.0943,-36.9033],[-72.0143,-36.8653],[-71.7422,-36.8288]]]},"properties":{"cod_comuna":16104,"comuna":"El Carmen","provincia":"Ñuble","codregion":16}},{"type":"Feature","geometry":{"type":"Polygon","coordinates":[[[-71.2147,-36.9732],[-71.2606,-36.9148],[-71.3449,-36.9111],[-71.433,-36.8115],[-71.5617,-36.8458],[-71.6481,-36.8015],[-71.7551,-36.7924],[-71.9533,-36.6564],[-71.9573,-36.6327],[-72.0295,-36.6044],[-72.0356,-36.5717],[-72.013,-36.5549],[-71.8772,-36.5648],[-71.8569,-36.5142],[-71.7829,-36.4799],[-71.6963,-36.4835],[-71.6793,-36.5236],[-71.603,-36.5198],[-71.5204,-36.5968],[-71.2814,-36.6871],[-71.2486,-36.8368],[-71.1542,-36.9408],[-71.088,-36.9377],[-71.1289,-36.9774],[-71.2147,-36.9732]]]},"properties":{"cod_comuna":16302,"comuna":"Coihueco","provincia":"Punilla","codregion":16}}]}