{"type":"FeatureCollection","features":[{"type":"Feature","geometry":{"type":"Polygon","coordinates":[[[-69.4199,-21.5024],[-69.313,-21.3981],[-68.8596,-21.2849],[-68.9362,-21.4348],[-68.9926,-21.636],[-68.9324,-21.8286],[-69.1767,-22.228],[-69.147,-22.455],[-69.1907,-22.5763],[-69.5361,-22.8802],[-69.9694,-22.8708],[-69.8937,-22.6351],[-69.9182,-22.4749],[-69.9659,-22.4469],[-69.9718,-22.2757],[-69.8176,-22.2268],[-69.8117,-22.2006],[-69.7575,-22.1939],[-69.7447,-22.1554],[-69.7649,-22.0921],[-69.7424,-22.0265],[-69.7982,-21.912],[-69.8532,-21.8723],[-69.904,-21.8708],[-69.8334,-21.7495],[-69.832,-21.4423],[-69.7656,-21.4195],[-69.6667,-21.4629],[-69.6256,-21.546],[-69.5512,-21.6301],[-69.4199,-21.5024]]]},"properties":{"cod_comuna":2302,"comuna":"María Elena","provincia":"Tocopilla","codregion":2}},{"type":"Feature","geometry":{"type":"Polygon","coordinates":[[[-68.0105,-22.0331],[-67.9646,-22.0539],[-67.9392,-22.1074],[-67.9576,-22.166],[-67.9154,-22.2723],[-67.9372,-22.2732],[-67.933,-22.375],[-68.0133,-22.4325],[-68.1526,-22.4024],[-68.154,-22.4376],[-68.2435,-22.5079],[-68.2638,-22.5999],[-68.3601,-22.6645],[-68.4051,-22.7485],[-68.4498,-22.7691],[-68.4666,-22.8556],[-68.5067,-22.8713],[-68.5408,-23.0834],[-68.6384,-23.0838],[-68.77,-23.1412],[-68.825,-23.1208],[-68.8465,-23.1007],[-68.8018,-22.9991],[-68.8148,-22.9678],[-68.9864,-22.745],[-69.1508,-22.663],[-69.194,-22.5966],[-69.147,-22.455],[-69.1767,-22.228],[-68.9324,-21.8286],[-68.9926,-21.636],[-68.9362,-21.4348],[-68.8596,-21.2849],[-68.5326,-21.0661],[-68.4678,-21.2207],[-68.5146,-21.2782],[-68.5219,-21.5463],[-68.3116,-21.6926],[-68.3402,-21.8892],[-68.1928,-21.9058],[-68.0105,-22.0331]]]},"properties":{"cod_comuna":2201,"comuna":"Calama","provincia":"El Loa","codregion":2}},{"type":"Feature","geometry":{"type":"MultiPolygon","coordinates":[[[[-70.2898,-22.5709],[-70.2883,-22.5709],[-70.2892,-22.573],[-70.2919,-22.5715],[-70.2898,-22.5709]]],[[[-70.2196,-22.0963],[-70.2216,-22.0963],[-70.2187,-22.0938],[-70.2183,-22.0947],[-70.2196,-22.0963]]],[[[-70.2501,-22.4782],[-70.2685,-22.4605],[-70.232,-22.1703],[-70.1692,-21.9319],[-70.1902,-21.9016],[-70.143,-21.8487],[-70.1458,-21.6367],[-70.0942,-21.5929],[-70.0549,-21.4279],[-69.8411,-21.437],[-69.8334,-21.7495],[-69.904,-21.8708],[-69.805,-21.9039],[-69.7424,-22.0265],[-69.7649,-22.0921],[-69.7422,-22.1247],[-69.7522,-22.1846],[-69.9688,-22.2717],[-69.9651,-22.4251],[-70.2632,-22.6318],[-70.2843,-22.5715],[-70.2525,-22.5391],[-70.2501,-22.4782]]]]},"properties":{"cod_comuna":2301,"comuna":"Tocopilla","provincia":"Tocopilla","codregion":2}},{"type":"Feature","geometry":{"type":"MultiPolygon","coordinates":[[[[-70.5642,-24.4727],[-70.5636,-24.4728],[-70.5639,-24.4746],[-70.5644,-24.4732],[-70.5642,-24.4727]]],[[[-70.5243,-24.2095],[-70.5252,-24.2092],[-70.5237,-24.2071],[-70.5234,-24.2088],[-70.5243,-24.2095]]],[[[-70.5181,-23.9279],[-70.5196,-23.9275],[-70.5201,-23.9258],[-70.5175,-23.9273],[-70.5181,-23.9279]]],[[[-70.6071,-23.4304],[-70.6017,-23.4385],[-70.6101,-23.4477],[-70.6169,-23.4365],[-70.6071,-23.4304]]],[[[-70.5801,-23.5217],[-70.599,-23.5062],[-70.6186,-23.5211],[-70.6289,-23.5156],[-70.5895,-23.4277],[-70.6063,-23.3592],[-70.5514,-23.3623],[-70.3992,-23.2968],[-70.1852,-23.3444],[-70.1319,-23.2031],[-70.0778,-23.1731],[-70.0137,-23.0579],[-69.9697,-23.3293],[-70.0477,-23.6234],[-69.6004,-23.626],[-69.4381,-23.6041],[-69.3456,-23.6605],[-69.1452,-23.6665],[-69.0809,-23.6892],[-68.874,-23.875],[-68.3455,-23.9978],[-68.065,-24.3264],[-68.2604,-24.403],[-68.3105,-24.4906],[-68.3872,-24.4857],[-68.4332,-24.6057],[-68.4677,-24.6228],[-68.4951,-24.5999],[-68.4918,-24.6643],[-68.5615,-24.763],[-68.5196,-24.8733],[-68.4314,-24.906],[-68.4127,-25.0195],[-68.3743,-25.0358],[-68.3432,-25.1106],[-68.4085,-25.1445],[-68.4649,-25.1307],[-68.5073,-25.168],[-68.5089,-25.2325],[-68.5498,-25.2609],[-68.53,-25.2913],[-68.6574,-25.3035],[-68.6719,-25.3606],[-68.7249,-25.3903],[-68.7827,-25.4029],[-68.8257,-25.3696],[-68.9611,-25.3903],[-69.1769,-25.2848],[-69.246,-25.1746],[-69.1571,-24.9527],[-69.1194,-24.9206],[-69.1736,-24.6839],[-70.4067,-24.6274],[-70.58,-24.5487],[-70.5422,-24.4253],[-70.535,-24.248],[-70.5029,-24.1782],[-70.5198,-24.0208],[-70.495,-23.9053],[-70.5263,-23.862],[-70.3921,-23.6131],[-70.402,-23.5353],[-70.4715,-23.4709],[-70.5133,-23.4675],[-70.5434,-23.5362],[-70.5801,-23.5217]]]]},"properties":{"cod_comuna":2101,"comuna":"Antofagasta","provincia":"Antofagasta","codregion":2}},{"type":"Feature","geometry":{"type":"Polygon","coordinates":[[[-70.5919,-23.216],[-70.5607,-23.1897],[-70.5821,-23.1048],[-70.5502,-23.0537],[-70.5079,-23.0255],[-70.4854,-23.0975],[-70.4219,-23.0913],[-70.3114,-22.9643],[-70.2887,-22.9091],[-70.316,-22.8046],[-70.2804,-22.7178],[-70.2861,-22.6464],[-69.9651,-22.4251],[-69.9616,-22.4546],[-69.9182,-22.4749],[-69.8937,-22.6351],[-70.0106,-23.0558],[-70.0778,-23.1731],[-70.1319,-23.2031],[-70.1852,-23.3444],[-70.3992,-23.2968],[-70.5514,-23.3623],[-70.6063,-23.3592],[-70.5823,-23.3262],[-70.6038,-23.2895],[-70.5919,-23.216]]]},"properties":{"cod_comuna":2102,"comuna":"Mejillones","provincia":"Antofagasta","codregion":2}},{"type":"Feature","geometry":{"type":"MultiPolygon","coordinates":[[[[-70.7016,-25.8917],[-70.7005,-25.8938],[-70.7046,-25.8935],[-70.7042,-25.8911],[-70.7016,-25.8917]]],[[[-70.7393,-25.827],[-70.7399,-25.8271],[-70.7397,-25.8259],[-70.7393,-25.8259],[-70.7393,-25.827]]],[[[-70.5123,-25.0994],[-70.5132,-25.0992],[-70.5125,-25.0982],[-70.5114,-25.0989],[-70.5123,-25.0994]]],[[[-70.5124,-25.0957],[-70.5135,-25.0959],[-70.5138,-25.0952],[-70.5122,-25.0946],[-70.5124,-25.0957]]],[[[-70.7231,-25.8314],[-70.7306,-25.7791],[-70.6849,-25.7436],[-70.6924,-25.6804],[-70.6363,-25.6447],[-70.6469,-25.53],[-70.5303,-25.4806],[-70.5171,-25.3959],[-70.4922,-25.4093],[-70.4465,-25.3649],[-70.4353,-25.199],[-70.5079,-25.0966],[-70.4665,-24.9948],[-70.5289,-24.9156],[-70.5215,-24.8665],[-70.5777,-24.7322],[-70.5502,-24.5953],[-70.5793,-24.5493],[-70.4067,-24.6274],[-69.1736,-24.6839],[-69.1194,-24.9206],[-69.1571,-24.9527],[-69.2474,-25.1697],[-69.1782,-25.2838],[-68.9872,-25.3851],[-69.0358,-25.4422],[-68.9958,-25.5054],[-69.0848,-25.5841],[-69.0506,-25.6348],[-69.0947,-25.7199],[-69.0582,-25.7276],[-69.0982,-25.8017],[-69.2666,-25.8666],[-69.3802,-25.8802],[-69.439,-25.8596],[-69.5121,-25.9512],[-69.7565,-25.9173],[-69.8543,-25.9452],[-69.9084,-25.8944],[-70.0229,-25.9198],[-70.0759,-25.965],[-70.2404,-25.916],[-70.2647,-25.9307],[-70.301,-25.8961],[-70.3243,-25.9311],[-70.3931,-25.9287],[-70.526,-26.0096],[-70.6051,-26.0041],[-70.6191,-26.061],[-70.6585,-26.0615],[-70.6279,-25.9942],[-70.7231,-25.8314]]]]},"properties":{"cod_comuna":2104,"comuna":"Taltal","provincia":"Antofagasta","codregion":2}},{"type":"Feature","geometry":{"type":"Polygon","coordinates":[[[-69.9908,-23.0043],[-69.9694,-22.8708],[-69.5361,-22.8802],[-69.1907,-22.5763],[-69.1508,-22.663],[-68.9864,-22.745],[-68.8125,-22.9712],[-68.8449,-23.1049],[-68.77,-23.1412],[-68.6778,-23.1003],[-68.6197,-23.173],[-68.7177,-23.387],[-68.7086,-23.5673],[-68.6651,-23.6987],[-68.6985,-23.9231],[-68.874,-23.875],[-69.0809,-23.6892],[-69.1452,-23.6665],[-69.3456,-23.6605],[-69.4381,-23.6041],[-69.6004,-23.626],[-70.0477,-23.6234],[-69.9697,-23.3293],[-70.0137,-23.0579],[-69.9908,-23.0043]]]},"properties":{"cod_comuna":2103,"comuna":"Sierra Gorda","provincia":"Antofagasta","codregion":2}},{"type":"Feature","geometry":{"type":"Polygon","coordinates":[[[-68.065,-24.3264],[-68.3455,-23.9978],[-68.6985,-23.9231],[-68.6651,-23.6987],[-68.7086,-23.5673],[-68.7177,-23.387],[-68.6191,-23.1755],[-68.6614,-23.1064],[-68.6384,-23.0838],[-68.5392,-23.0813],[-68.5205,-22.8998],[-68.4666,-22.8556],[-68.438,-22.7532],[-68.4058,-22.7492],[-68.3601,-22.6645],[-68.2638,-22.5999],[-68.2435,-22.5079],[-68.154,-22.4376],[-68.1526,-22.4024],[-68.0142,-22.4326],[-67.9414,-22.3805],[-67.9,-22.407],[-67.8929,-22.4991],[-67.8409,-22.533],[-67.8319,-22.5812],[-67.8833,-22.628],[-67.8818,-22.834],[-67.826,-22.8452],[-67.799,-22.8811],[-67.5685,-22.898],[-67.1803,-22.8141],[-66.9901,-22.9999],[-67.3226,-24.0341],[-68.065,-24.3264]]]},"properties":{"cod_comuna":2203,"comuna":"San Pedro de Atacama","provincia":"El Loa","codregion":2}},{"type":"Feature","geometry":{"type":"Polygon","coordinates":[[[-68.5222,-21.0353],[-68.4808,-20.9412],[-68.4124,-20.9345],[-68.1791,-21.3019],[-68.1806,-21.604],[-68.0605,-21.77],[-68.0711,-21.9821],[-68.1928,-21.9058],[-68.3402,-21.8892],[-68.3116,-21.6926],[-68.5219,-21.5463],[-68.5146,-21.2782],[-68.4678,-21.2207],[-68.5355,-21.0641],[-68.5222,-21.0353]]]},"properties":{"cod_comuna":2202,"comuna":"Ollagüe","provincia":"El Loa","codregion":2}}]}