{"type":"FeatureCollection","features":[{"type":"Feature","geometry":{"type":"Polygon","coordinates":[[[-69.6899,-28.602],[-69.7326,-28.7012],[-69.6932,-28.7721],[-69.7661,-28.8995],[-69.7545,-28.9841],[-69.7937,-29.0499],[-69.7872,-29.1297],[-69.8758,-29.1387],[-69.9526,-29.1887],[-69.9372,-29.2481],[-70.0188,-29.3211],[-70.0212,-29.3844],[-69.967,-29.4124],[-69.9814,-29.4516],[-69.9516,-29.5009],[-70.0859,-29.5351],[-70.1723,-29.5257],[-70.2988,-29.3761],[-70.3654,-29.3699],[-70.3938,-29.3987],[-70.4592,-29.3818],[-70.4679,-29.2396],[-70.5421,-29.0978],[-70.4986,-28.9909],[-70.5012,-28.9058],[-70.5852,-28.8612],[-70.5342,-28.7914],[-70.5755,-28.7167],[-70.6187,-28.693],[-70.5862,-28.6404],[-70.542,-28.6422],[-70.5041,-28.6093],[-70.4245,-28.6624],[-70.3824,-28.6311],[-70.3275,-28.6674],[-70.3143,-28.7111],[-70.1438,-28.5776],[-70.0691,-28.6389],[-70.0125,-28.5802],[-69.9614,-28.578],[-69.8028,-28.6433],[-69.7503,-28.6305],[-69.7233,-28.5781],[-69.6899,-28.602]]]},"properties":{"cod_comuna":3302,"comuna":"Alto del Carmen","provincia":"Huasco","codregion":3}},{"type":"Feature","geometry":{"type":"Polygon","coordinates":[[[-71.3144,-28.5716],[-71.2895,-28.5969],[-71.1963,-28.5835],[-71.1317,-28.6159],[-71.1303,-28.4732],[-71.0502,-28.4307],[-71.0043,-28.4333],[-71.0462,-28.3843],[-70.9946,-28.2893],[-70.9013,-28.2988],[-70.8792,-28.2795],[-70.8439,-28.3286],[-70.8144,-28.327],[-70.8121,-28.38],[-70.9126,-28.5106],[-70.9624,-28.6656],[-71.0084,-28.6443],[-71.0871,-28.6651],[-71.0739,-28.7369],[-70.9845,-28.7329],[-70.9781,-28.7631],[-71.0714,-28.8869],[-70.9928,-29.1033],[-71.0731,-29.1917],[-71.1406,-29.1656],[-71.2822,-29.1868],[-71.3516,-29.1414],[-71.4146,-29.1841],[-71.498,-29.1823],[-71.5035,-29.1441],[-71.4616,-29.1043],[-71.5021,-29.0781],[-71.4788,-29.0555],[-71.4917,-28.9838],[-71.5256,-28.9868],[-71.5042,-28.9523],[-71.5222,-28.9167],[-71.4848,-28.8501],[-71.3789,-28.7948],[-71.365,-28.7422],[-71.2959,-28.6804],[-71.2798,-28.6326],[-71.3144,-28.5716]]]},"properties":{"cod_comuna":3303,"comuna":"Freirina","provincia":"Huasco","codregion":3}},{"type":"Feature","geometry":{"type":"Polygon","coordinates":[[[-71.1435,-27.9752],[-71.1428,-27.9649],[-71.1042,-27.9952],[-71.0085,-28.0045],[-70.9715,-28.0648],[-70.8796,-28.0657],[-70.8502,-28.0892],[-70.7689,-28.0673],[-70.7732,-28.3378],[-70.8439,-28.3286],[-70.8792,-28.2795],[-70.9013,-28.2988],[-70.9946,-28.2893],[-71.0462,-28.3843],[-71.0043,-28.4333],[-71.0502,-28.4307],[-71.1303,-28.4732],[-71.1394,-28.6178],[-71.1963,-28.5835],[-71.2895,-28.5969],[-71.3141,-28.5657],[-71.2581,-28.5415],[-71.2586,-28.4628],[-71.2124,-28.4598],[-71.1926,-28.3821],[-71.1602,-28.3584],[-71.1983,-28.3028],[-71.154,-28.2322],[-71.1849,-28.1182],[-71.1439,-28.0817],[-71.1435,-27.9752]]]},"properties":{"cod_comuna":3304,"comuna":"Huasco","provincia":"Huasco","codregion":3}},{"type":"Feature","geometry":{"type":"MultiPolygon","coordinates":[[[[-71.261,-28.4925],[-71.261,-28.4931],[-71.2612,-28.4931],[-71.2614,-28.4927],[-71.2614,-28.4925],[-71.261,-28.4925]]],[[[-71.2606,-28.4924],[-71.2605,-28.4926],[-71.2606,-28.4927],[-71.2608,-28.4921],[-71.2606,-28.4924]]],[[[-71.2667,-28.4822],[-71.2668,-28.4816],[-71.2666,-28.4812],[-71.2663,-28.4817],[-71.2667,-28.4822]]],[[[-71.2656,-28.4813],[-71.2654,-28.4817],[-71.2654,-28.482],[-71.2661,-28.4815],[-71.2656,-28.4813]]],[[[-71.2672,-28.4808],[-71.267,-28.4814],[-71.2674,-28.4815],[-71.2676,-28.4811],[-71.2672,-28.4808]]],[[[-71.2688,-28.4796],[-71.2683,-28.4801],[-71.2691,-28.4803],[-71.2691,-28.4797],[-71.2688,-28.4796]]],[[[-71.2675,-28.4796],[-71.2677,-28.4799],[-71.2679,-28.4798],[-71.2679,-28.4795],[-71.2675,-28.4796]]],[[[-71.2692,-28.479],[-71.2691,-28.4784],[-71.2689,-28.4784],[-71.2687,-28.4787],[-71.2692,-28.479]]],[[[-70.9776,-27.6672],[-70.9681,-27.6756],[-70.9642,-27.6983],[-70.922,-27.7455],[-70.9311,-27.8002],[-70.8957,-27.8328],[-70.8049,-27.8046],[-70.7573,-27.8177],[-70.7297,-27.7632],[-70.7572,-27.7414],[-70.7362,-27.4146],[-70.7625,-27.3285],[-70.605,-27.1838],[-70.4165,-27.072],[-70.3816,-27.0851],[-70.3395,-27.0619],[-70.2447,-26.943],[-70.1403,-26.8683],[-69.9611,-26.842],[-69.9402,-26.8688],[-69.9576,-26.9027],[-69.876,-26.9214],[-69.8662,-26.8801],[-69.7573,-26.8518],[-69.7339,-26.797],[-69.6592,-26.8342],[-69.6544,-26.8829],[-69.5757,-26.8941],[-69.4982,-26.7088],[-69.4303,-26.7133],[-69.3626,-26.6649],[-69.2632,-26.6742],[-69.2503,-26.736],[-69.1921,-26.7867],[-69.0616,-26.7738],[-68.9673,-26.8224],[-68.8567,-26.8161],[-68.8505,-26.8618],[-68.8004,-26.766],[-68.7357,-26.8032],[-68.6819,-26.7888],[-68.6413,-26.8118],[-68.5871,-26.7633],[-68.4981,-26.8078],[-68.3672,-26.7963],[-68.263,-26.9186],[-68.3192,-26.9817],[-68.2943,-27.0383],[-68.3468,-27.033],[-68.4507,-27.0948],[-68.4841,-27.0573],[-68.4816,-27.1286],[-68.5579,-27.1154],[-68.5757,-27.1757],[-68.6333,-27.1617],[-68.6703,-27.0987],[-68.7878,-27.1037],[-68.8072,-27.1524],[-68.8441,-27.1607],[-68.8708,-27.2454],[-68.8085,-27.301],[-68.8714,-27.3191],[-68.8868,-27.3982],[-68.9307,-27.4093],[-68.9356,-27.445],[-68.9702,-27.4289],[-68.9882,-27.4471],[-68.9474,-27.5296],[-69.0016,-27.5208],[-69.0077,-27.4842],[-69.0857,-27.4341],[-69.0687,-27.3685],[-69.1252,-27.3236],[-69.1916,-27.1695],[-69.2196,-27.1571],[-69.3784,-27.1788],[-69.5076,-27.3507],[-69.527,-27.5283],[-69.622,-27.626],[-69.6757,-27.585],[-69.7348,-27.6363],[-69.7826,-27.6108],[-69.8981,-27.6059],[-69.8911,-27.5374],[-69.9461,-27.5074],[-70.0571,-27.5432],[-70.1467,-27.5013],[-70.2126,-27.4117],[-70.2962,-27.4384],[-70.3728,-27.5462],[-70.3692,-27.67],[-70.3388,-27.6942],[-70.3572,-27.7273],[-70.2964,-27.8669],[-70.1896,-27.9053],[-70.0995,-28.0297],[-70.1043,-28.0809],[-70.0518,-28.0878],[-70.0742,-28.1482],[-70.1427,-28.1695],[-70.2244,-28.1844],[-70.2262,-28.1472],[-70.2862,-28.1304],[-70.431,-28.1645],[-70.7456,-28.01],[-70.7762,-28.0706],[-70.8502,-28.0892],[-70.8796,-28.0657],[-70.9715,-28.0648],[-70.976,-28.0307],[-71.0307,-27.9958],[-71.1055,-27.9947],[-71.1441,-27.9642],[-71.0798,-27.7773],[-71.0355,-27.7327],[-71.051,-27.6883],[-71.0318,-27.6588],[-71.006,-27.6896],[-70.9776,-27.6672]]]]},"properties":{"cod_comuna":3101,"comuna":"Copiapó","provincia":"Copiapó","codregion":3}},{"type":"Feature","geometry":{"type":"MultiPolygon","coordinates":[[[[-70.9699,-27.2388],[-70.9688,-27.2395],[-70.9703,-27.2427],[-70.978,-27.2525],[-70.9699,-27.2388]]],[[[-70.8095,-27.0075],[-70.8107,-27.0075],[-70.8104,-27.0048],[-70.8085,-27.0062],[-70.8095,-27.0075]]],[[[-70.7234,-26.6428],[-70.5972,-26.7155],[-70.4051,-26.7797],[-70.2447,-26.9405],[-70.3395,-27.0619],[-70.3816,-27.0851],[-70.4165,-27.072],[-70.605,-27.1838],[-70.7625,-27.3285],[-70.7362,-27.4146],[-70.7572,-27.7414],[-70.7297,-27.7632],[-70.7573,-27.8177],[-70.8049,-27.8046],[-70.8866,-27.8375],[-70.9311,-27.8002],[-70.922,-27.7455],[-70.9768,-27.6668],[-70.8983,-27.6213],[-70.8844,-27.506],[-70.9673,-27.3706],[-70.9309,-27.311],[-70.9744,-27.1723],[-70.9354,-27.1094],[-70.8976,-27.1431],[-70.8615,-27.1285],[-70.8547,-27.0493],[-70.8085,-27.0564],[-70.8245,-27.035],[-70.7889,-26.9889],[-70.8339,-26.8783],[-70.7811,-26.7764],[-70.7381,-26.7566],[-70.7581,-26.7102],[-70.726,-26.6865],[-70.7234,-26.6428]]]]},"properties":{"cod_comuna":3102,"comuna":"Caldera","provincia":"Copiapó","codregion":3}},{"type":"Feature","geometry":{"type":"MultiPolygon","coordinates":[[[[-70.6866,-26.1497],[-70.6778,-26.155],[-70.6807,-26.1622],[-70.69,-26.1529],[-70.6866,-26.1497]]],[[[-70.6568,-26.2715],[-70.6627,-26.0873],[-70.6572,-26.061],[-70.6146,-26.0581],[-70.6051,-26.0041],[-70.526,-26.0096],[-70.3931,-25.9287],[-70.3243,-25.9311],[-70.301,-25.8961],[-70.2647,-25.9307],[-70.2404,-25.916],[-70.0759,-25.965],[-69.9582,-25.9013],[-69.8816,-25.9135],[-69.9686,-26.0651],[-69.9859,-26.1545],[-70.0318,-26.1649],[-70.0508,-26.2066],[-70.1696,-26.2855],[-70.2025,-26.3624],[-70.2093,-26.4135],[-70.1048,-26.4608],[-70.1082,-26.4953],[-70.0385,-26.572],[-70.102,-26.784],[-70.0254,-26.8097],[-70.0517,-26.8564],[-70.1403,-26.8683],[-70.2584,-26.959],[-70.251,-26.9138],[-70.4051,-26.7797],[-70.5972,-26.7155],[-70.7241,-26.6427],[-70.6817,-26.5662],[-70.7113,-26.5276],[-70.6867,-26.4642],[-70.6991,-26.3913],[-70.6277,-26.3473],[-70.6409,-26.3079],[-70.6739,-26.2995],[-70.6568,-26.2715]],[[-70.6295,-26.3491],[-70.6295,-26.3491],[-70.6295,-26.349],[-70.6296,-26.3491],[-70.6295,-26.3491]]]]},"properties":{"cod_comuna":3201,"comuna":"Chañaral","provincia":"Chañaral","codregion":3}},{"type":"Feature","geometry":{"type":"Polygon","coordinates":[[[-69.6669,-28.5545],[-69.6689,-28.5896],[-69.7233,-28.5781],[-69.7503,-28.6305],[-69.7956,-28.6435],[-69.9614,-28.578],[-70.0097,-28.5841],[-70.0309,-28.5578],[-70.0031,-28.5129],[-70.052,-28.3421],[-70.0276,-28.2768],[-70.0896,-28.1897],[-70.0518,-28.0878],[-70.1043,-28.0809],[-70.0995,-28.0297],[-70.1896,-27.9053],[-70.2975,-27.8653],[-70.3572,-27.7273],[-70.3387,-27.6948],[-70.3692,-27.67],[-70.3728,-27.5462],[-70.3368,-27.47],[-70.2209,-27.4084],[-70.1467,-27.5013],[-70.0591,-27.5428],[-69.9579,-27.5028],[-69.8911,-27.5374],[-69.8981,-27.6059],[-69.7826,-27.6108],[-69.7348,-27.6363],[-69.6757,-27.585],[-69.6139,-27.6235],[-69.5221,-27.5176],[-69.5069,-27.3494],[-69.3784,-27.1788],[-69.2133,-27.1581],[-69.1252,-27.3236],[-69.0687,-27.3685],[-69.0857,-27.4341],[-69.0077,-27.4842],[-68.9752,-27.5595],[-69.0516,-27.6167],[-69.0437,-27.6957],[-69.09,-27.722],[-69.1214,-27.8984],[-69.173,-27.9715],[-69.2379,-27.9669],[-69.3076,-28.1293],[-69.3832,-28.1841],[-69.3911,-28.227],[-69.4566,-28.1838],[-69.524,-28.3305],[-69.5822,-28.3528],[-69.5969,-28.3924],[-69.6261,-28.3783],[-69.6496,-28.3965],[-69.6329,-28.4302],[-69.6807,-28.4711],[-69.6557,-28.5029],[-69.6669,-28.5545]]]},"properties":{"cod_comuna":3103,"comuna":"Tierra Amarilla","provincia":"Copiapó","codregion":3}},{"type":"Feature","geometry":{"type":"Polygon","coordinates":[[[-68.7167,-25.3808],[-68.6719,-25.3606],[-68.6574,-25.3035],[-68.5774,-25.2859],[-68.5212,-25.3296],[-68.5242,-25.3789],[-68.5903,-25.4156],[-68.5894,-25.4483],[-68.5186,-25.5723],[-68.5445,-25.6341],[-68.4768,-25.7024],[-68.381,-26.1779],[-68.5574,-26.2864],[-68.588,-26.492],[-68.3672,-26.7963],[-68.4981,-26.8078],[-68.5871,-26.7633],[-68.6413,-26.8118],[-68.6819,-26.7888],[-68.7357,-26.8032],[-68.8004,-26.766],[-68.8505,-26.8618],[-68.8567,-26.8161],[-68.9673,-26.8224],[-69.0616,-26.7738],[-69.1921,-26.7867],[-69.2503,-26.736],[-69.2632,-26.6742],[-69.3626,-26.6649],[-69.4303,-26.7133],[-69.4982,-26.7088],[-69.5757,-26.8941],[-69.6544,-26.8829],[-69.6592,-26.8342],[-69.7347,-26.797],[-69.7573,-26.8518],[-69.8662,-26.8801],[-69.876,-26.9214],[-69.9576,-26.9027],[-69.9522,-26.8479],[-70.0408,-26.8453],[-70.0273,-26.8077],[-70.102,-26.784],[-70.0385,-26.572],[-70.1082,-26.4953],[-70.1048,-26.4608],[-70.2092,-26.4084],[-70.1696,-26.2855],[-70.0508,-26.2066],[-70.0318,-26.1649],[-69.9859,-26.1545],[-69.9686,-26.0651],[-69.8816,-25.9135],[-69.8543,-25.9452],[-69.7565,-25.9173],[-69.5121,-25.9512],[-69.439,-25.8596],[-69.3802,-25.8802],[-69.2666,-25.8666],[-69.0982,-25.8017],[-69.0582,-25.7276],[-69.0947,-25.7199],[-69.0506,-25.6348],[-69.0848,-25.5841],[-68.9958,-25.5054],[-69.0358,-25.4422],[-68.9874,-25.3768],[-68.8217,-25.3701],[-68.7827,-25.4029],[-68.7167,-25.3808]]]},"properties":{"cod_comuna":3202,"comuna":"Diego de Almagro","provincia":"Chañaral","codregion":3}},{"type":"Feature","geometry":{"type":"Polygon","coordinates":[[[-70.7164,-28.0312],[-70.5538,-28.0868],[-70.431,-28.1645],[-70.279,-28.131],[-70.2262,-28.1472],[-70.2223,-28.1842],[-70.0811,-28.1424],[-70.0868,-28.2207],[-70.0276,-28.2768],[-70.052,-28.3421],[-70.0031,-28.5129],[-70.032,-28.5556],[-70.0135,-28.5852],[-70.0691,-28.6389],[-70.1223,-28.5795],[-70.1636,-28.5839],[-70.2483,-28.6774],[-70.3143,-28.7111],[-70.3275,-28.6674],[-70.3824,-28.6311],[-70.4245,-28.6624],[-70.5041,-28.6093],[-70.542,-28.6422],[-70.5862,-28.6404],[-70.6187,-28.693],[-70.5755,-28.7167],[-70.534,-28.7926],[-70.5852,-28.8612],[-70.5012,-28.9058],[-70.4986,-28.9909],[-70.5328,-29.0605],[-70.6458,-29.0394],[-70.7242,-29.0574],[-70.7316,-29.1049],[-70.8021,-29.1389],[-70.9071,-29.1304],[-70.9742,-29.1774],[-71.0196,-29.3348],[-71.0926,-29.3563],[-71.0857,-29.3063],[-71.1834,-29.2839],[-71.2004,-29.1856],[-71.1072,-29.1665],[-71.0731,-29.1917],[-70.9992,-29.1242],[-71.0714,-28.8869],[-70.9781,-28.7631],[-70.9845,-28.7329],[-71.0739,-28.7369],[-71.0871,-28.6651],[-71.0084,-28.6443],[-70.966,-28.6667],[-70.9471,-28.6439],[-70.9126,-28.5106],[-70.8121,-28.38],[-70.8142,-28.3277],[-70.7732,-28.3378],[-70.7709,-28.0593],[-70.7456,-28.01],[-70.7164,-28.0312]]]},"properties":{"cod_comuna":3301,"comuna":"Vallenar","provincia":"Huasco","codregion":3}}]}