{"type":"FeatureCollection","features":[{"type":"Feature","geometry":{"type":"Polygon","coordinates":[[[-71.1243,-30.1114],[-71.0205,-30.1817],[-71.0186,-30.2572],[-70.9328,-30.2386],[-70.9058,-30.2895],[-70.9461,-30.3139],[-71.0064,-30.2851],[-71.0791,-30.3661],[-71.0655,-30.3865],[-71.158,-30.4041],[-71.2207,-30.3123],[-71.212,-30.2582],[-71.1803,-30.2505],[-71.2146,-30.1462],[-71.1243,-30.1114]]]},"properties":{"cod_comuna":4103,"comuna":"Andacollo","provincia":"Elqui","codregion":4}},{"type":"Feature","geometry":{"type":"MultiPolygon","coordinates":[[[[-71.5442,-31.7289],[-71.4987,-31.7181],[-71.4739,-31.6768],[-71.4402,-31.7238],[-71.4034,-31.731],[-71.385,-31.7856],[-71.327,-31.757],[-71.1755,-31.8984],[-71.1063,-31.8785],[-71.0356,-31.9076],[-70.9685,-31.9507],[-70.9758,-32.0433],[-71.0411,-32.0324],[-71.0311,-32.0738],[-71.1811,-32.171],[-71.2218,-32.1273],[-71.2557,-32.1722],[-71.3385,-32.203],[-71.4777,-32.155],[-71.5403,-32.1782],[-71.5126,-32.1214],[-71.5238,-32.0042],[-71.4906,-31.9683],[-71.5272,-31.9492],[-71.5005,-31.8708],[-71.5594,-31.8509],[-71.5058,-31.7761],[-71.5442,-31.7289]]],[[[-71.5305,-31.9071],[-71.5276,-31.9052],[-71.5249,-31.9065],[-71.5279,-31.9087],[-71.5305,-31.9071]]],[[[-71.5449,-31.8226],[-71.5457,-31.8245],[-71.5485,-31.824],[-71.5468,-31.8209],[-71.5449,-31.8226]]],[[[-71.5031,-31.9789],[-71.5036,-31.979],[-71.5041,-31.9781],[-71.503,-31.978],[-71.5031,-31.9789]]],[[[-71.5272,-32.0432],[-71.5268,-32.0434],[-71.5267,-32.044],[-71.5272,-32.0437],[-71.5272,-32.0432]]],[[[-71.5281,-32.1131],[-71.5281,-32.1126],[-71.5277,-32.1125],[-71.5276,-32.113],[-71.5281,-32.1131]]],[[[-71.5019,-31.9785],[-71.5026,-31.9787],[-71.5026,-31.9782],[-71.5024,-31.9782],[-71.5019,-31.9785]]],[[[-71.5357,-32.1642],[-71.5352,-32.164],[-71.5352,-32.1644],[-71.5356,-32.1645],[-71.5357,-32.1642]]],[[[-71.5289,-32.0424],[-71.5289,-32.0422],[-71.5285,-32.0419],[-71.5291,-32.0427],[-71.5289,-32.0424]]],[[[-71.5276,-32.1017],[-71.5273,-32.1016],[-71.5271,-32.102],[-71.5274,-32.1021],[-71.5276,-32.1017]]],[[[-71.5272,-32.1033],[-71.5272,-32.1031],[-71.527,-32.103],[-71.527,-32.1035],[-71.5272,-32.1033]]],[[[-71.5243,-32.045],[-71.5241,-32.045],[-71.524,-32.0451],[-71.5242,-32.0452],[-71.5243,-32.045]]],[[[-71.5287,-32.0428],[-71.5287,-32.0427],[-71.5284,-32.0426],[-71.5285,-32.0427],[-71.5287,-32.0428]]],[[[-71.503,-31.9789],[-71.503,-31.9789],[-71.503,-31.9789],[-71.503,-31.9789]]]]},"properties":{"cod_comuna":4203,"comuna":"Los Vilos","provincia":"Choapa","codregion":4}},{"type":"Feature","geometry":{"type":"Polygon","coordinates":[[[-71.647,-31.2187],[-71.5797,-31.1613],[-71.4858,-31.1892],[-71.4694,-31.1574],[-71.4398,-31.177],[-71.2977,-31.1417],[-71.2786,-31.19],[-71.137,-31.2063],[-71.0926,-31.2863],[-71.0859,-31.3276],[-71.1309,-31.3399],[-71.1454,-31.4242],[-71.2001,-31.4642],[-71.2305,-31.4407],[-71.2925,-31.4704],[-71.2957,-31.4944],[-71.2461,-31.5223],[-71.2412,-31.6022],[-71.3963,-31.606],[-71.3965,-31.6564],[-71.3262,-31.7168],[-71.327,-31.757],[-71.3762,-31.7872],[-71.4034,-31.731],[-71.4402,-31.7238],[-71.4739,-31.6768],[-71.4987,-31.7181],[-71.5419,-31.7271],[-71.5817,-31.5945],[-71.5695,-31.5002],[-71.6197,-31.3911],[-71.647,-31.2187]]]},"properties":{"cod_comuna":4202,"comuna":"Canela","provincia":"Choapa","codregion":4}},{"type":"Feature","geometry":{"type":"Polygon","coordinates":[[[-71.6695,-30.3453],[-71.6197,-30.3462],[-71.5554,-30.4111],[-71.4806,-30.4168],[-71.4822,-30.4715],[-71.429,-30.4967],[-71.397,-30.4758],[-71.3717,-30.5183],[-71.3231,-30.4113],[-71.2844,-30.4071],[-71.2928,-30.3292],[-71.2224,-30.3123],[-71.1604,-30.4035],[-71.0655,-30.3865],[-71.0525,-30.4355],[-71.0768,-30.4614],[-71.0222,-30.549],[-70.9368,-30.5346],[-70.9047,-30.5004],[-70.8526,-30.5382],[-70.8979,-30.578],[-70.9563,-30.5838],[-70.9919,-30.6502],[-71.0313,-30.6467],[-71.0288,-30.7046],[-71.1156,-30.7795],[-71.1618,-30.7651],[-71.2099,-30.7834],[-71.2649,-30.7434],[-71.2602,-30.7088],[-71.3142,-30.7637],[-71.36,-30.7781],[-71.3872,-30.7559],[-71.3739,-30.8894],[-71.4649,-30.9172],[-71.518,-30.8994],[-71.5229,-30.9633],[-71.5514,-30.9811],[-71.5264,-31.0129],[-71.5479,-31.0556],[-71.4925,-31.0788],[-71.4764,-31.175],[-71.5484,-31.1865],[-71.5797,-31.1613],[-71.6414,-31.2162],[-71.6704,-31.1442],[-71.6493,-30.9763],[-71.6835,-30.9215],[-71.715,-30.7158],[-71.6695,-30.3453]]]},"properties":{"cod_comuna":4301,"comuna":"Ovalle","provincia":"Limarí","codregion":4}},{"type":"Feature","geometry":{"type":"Polygon","coordinates":[[[-71.3507,-29.9693],[-71.3649,-29.9524],[-71.3377,-29.9326],[-71.3307,-29.9596],[-71.2441,-29.9518],[-71.2322,-29.9829],[-71.1482,-30.0143],[-71.1484,-30.084],[-71.1098,-30.0745],[-71.1456,-30.1244],[-71.2146,-30.1462],[-71.1803,-30.2505],[-71.212,-30.2582],[-71.2205,-30.3129],[-71.2928,-30.3292],[-71.2844,-30.4071],[-71.3228,-30.411],[-71.3772,-30.5185],[-71.397,-30.4758],[-71.429,-30.4967],[-71.4822,-30.4715],[-71.4806,-30.4168],[-71.5554,-30.4111],[-71.6197,-30.3462],[-71.6711,-30.3437],[-71.6273,-30.2373],[-71.6073,-30.2983],[-71.5397,-30.2975],[-71.4982,-30.2719],[-71.5094,-30.2537],[-71.4786,-30.2432],[-71.4485,-30.1655],[-71.4301,-30.1956],[-71.3936,-30.1831],[-71.3713,-30.0784],[-71.4169,-29.999],[-71.3507,-29.9693]]]},"properties":{"cod_comuna":4102,"comuna":"Coquimbo","provincia":"Elqui","codregion":4}},{"type":"Feature","geometry":{"type":"Polygon","coordinates":[[[-71.3134,-29.6522],[-71.3048,-29.6522],[-71.2921,-29.6869],[-71.278,-29.693],[-71.2672,-29.6701],[-71.1017,-29.6145],[-71.0719,-29.5794],[-71.0199,-29.5633],[-70.9678,-29.5991],[-70.8844,-29.5367],[-70.7963,-29.6213],[-70.7101,-29.6303],[-70.6848,-29.689],[-70.7785,-29.6953],[-70.8458,-29.7321],[-70.9001,-29.8329],[-70.9855,-29.8621],[-71.0076,-30.0308],[-71.0784,-30.1372],[-71.1266,-30.1094],[-71.1128,-30.07],[-71.1518,-30.0797],[-71.1492,-30.0133],[-71.2866,-29.9492],[-71.2797,-29.8407],[-71.3453,-29.7555],[-71.3134,-29.6522]]]},"properties":{"cod_comuna":4101,"comuna":"La Serena","provincia":"Elqui","codregion":4}},{"type":"Feature","geometry":{"type":"Polygon","coordinates":[[[-70.8854,-31.3638],[-70.9475,-31.3223],[-71.0491,-31.3838],[-71.137,-31.2063],[-71.2875,-31.1813],[-71.2589,-31.0803],[-71.2863,-30.9676],[-71.177,-30.8913],[-71.1861,-30.8665],[-71.1057,-30.8433],[-71.0574,-30.946],[-71.0308,-30.9155],[-70.9667,-30.9681],[-70.8885,-30.9753],[-70.8923,-30.9976],[-70.8354,-30.9759],[-70.7769,-31.0929],[-70.6282,-31.155],[-70.6072,-31.3006],[-70.7029,-31.3452],[-70.73,-31.3136],[-70.8401,-31.4347],[-70.8884,-31.4065],[-70.8854,-31.3638]]]},"properties":{"cod_comuna":4302,"comuna":"Combarbalá","provincia":"Limarí","codregion":4}},{"type":"Feature","geometry":{"type":"Polygon","coordinates":[[[-71.2594,-30.709],[-71.2649,-30.7434],[-71.2099,-30.7834],[-71.1613,-30.7651],[-71.0929,-30.8076],[-71.0197,-30.7976],[-71.0232,-30.8417],[-71.0926,-30.8726],[-71.1107,-30.8422],[-71.1861,-30.8665],[-71.177,-30.8913],[-71.2863,-30.9676],[-71.259,-31.0796],[-71.2734,-31.1337],[-71.4398,-31.177],[-71.5029,-31.0614],[-71.5479,-31.0556],[-71.5264,-31.0129],[-71.5514,-30.9811],[-71.5144,-30.9396],[-71.5384,-30.9324],[-71.5033,-30.8939],[-71.4649,-30.9172],[-71.3844,-30.9001],[-71.3879,-30.7566],[-71.36,-30.7781],[-71.3142,-30.7637],[-71.2594,-30.709]]]},"properties":{"cod_comuna":4304,"comuna":"Punitaqui","provincia":"Limarí","codregion":4}},{"type":"Feature","geometry":{"type":"Polygon","coordinates":[[[-70.3425,-29.983],[-70.3359,-30.0216],[-70.2903,-30.0399],[-70.319,-30.1131],[-70.2758,-30.1487],[-70.2694,-30.1935],[-70.224,-30.2025],[-70.1176,-30.4261],[-70.1951,-30.4923],[-70.2903,-30.4688],[-70.2802,-30.4475],[-70.3138,-30.4151],[-70.3428,-30.4072],[-70.3984,-30.4516],[-70.4498,-30.3943],[-70.4858,-30.3951],[-70.4813,-30.3545],[-70.5257,-30.3291],[-70.5738,-30.2084],[-70.5502,-30.1822],[-70.5674,-30.0373],[-70.5476,-29.9833],[-70.4859,-29.9886],[-70.4431,-29.964],[-70.4263,-29.9837],[-70.3515,-29.9648],[-70.3425,-29.983]]]},"properties":{"cod_comuna":4105,"comuna":"Paihuano","provincia":"Elqui","codregion":4}},{"type":"Feature","geometry":{"type":"Polygon","coordinates":[[[-70.5858,-31.2805],[-70.5454,-31.3071],[-70.527,-31.3649],[-70.56,-31.4207],[-70.5626,-31.5617],[-70.6222,-31.5384],[-70.6502,-31.6144],[-70.7111,-31.6394],[-70.7594,-31.6157],[-70.9637,-31.6786],[-71.0118,-31.6559],[-71.0937,-31.723],[-71.0904,-31.8806],[-71.1755,-31.8984],[-71.3232,-31.7653],[-71.3299,-31.7083],[-71.3965,-31.6564],[-71.3911,-31.604],[-71.2406,-31.6011],[-71.2461,-31.5223],[-71.2957,-31.4944],[-71.2893,-31.4656],[-71.2305,-31.4407],[-71.2001,-31.4642],[-71.1454,-31.4242],[-71.1227,-31.334],[-71.088,-31.333],[-71.0302,-31.3851],[-70.9798,-31.3315],[-70.9227,-31.322],[-70.8867,-31.3581],[-70.8884,-31.4065],[-70.8401,-31.4347],[-70.8026,-31.4148],[-70.808,-31.3838],[-70.7571,-31.3298],[-70.7192,-31.3127],[-70.6883,-31.3425],[-70.5858,-31.2805]]]},"properties":{"cod_comuna":4201,"comuna":"Illapel","provincia":"Choapa","codregion":4}},{"type":"Feature","geometry":{"type":"MultiPolygon","coordinates":[[[[-71.3366,-29.3575],[-71.3724,-29.2989],[-71.4691,-29.2491],[-71.4984,-29.1837],[-71.4146,-29.1841],[-71.3516,-29.1414],[-71.2822,-29.1868],[-71.2,-29.1855],[-71.1834,-29.2839],[-71.0857,-29.3063],[-71.0941,-29.3554],[-71.0597,-29.3566],[-71.0083,-29.3189],[-70.9659,-29.1692],[-70.9071,-29.1304],[-70.8021,-29.1389],[-70.7316,-29.1049],[-70.7236,-29.0571],[-70.6096,-29.0376],[-70.5348,-29.0607],[-70.5322,-29.1285],[-70.4679,-29.2396],[-70.4804,-29.2869],[-70.4446,-29.3268],[-70.5463,-29.4013],[-70.5242,-29.4959],[-70.5953,-29.7178],[-70.6252,-29.6902],[-70.6848,-29.689],[-70.7108,-29.6298],[-70.7963,-29.6213],[-70.8844,-29.5367],[-70.9674,-29.599],[-71.0293,-29.5634],[-71.2878,-29.6909],[-71.3202,-29.647],[-71.2887,-29.6066],[-71.3346,-29.5546],[-71.3256,-29.5387],[-71.3363,-29.4911],[-71.3169,-29.4888],[-71.3034,-29.4488],[-71.3404,-29.4011],[-71.3366,-29.3575]]],[[[-71.5396,-29.2491],[-71.5394,-29.281],[-71.5453,-29.2848],[-71.5499,-29.2773],[-71.5396,-29.2491]]],[[[-71.4713,-29.2524],[-71.4729,-29.2647],[-71.4873,-29.2667],[-71.4837,-29.2566],[-71.4713,-29.2524]]],[[[-71.5334,-29.5798],[-71.5345,-29.5889],[-71.5413,-29.5923],[-71.5426,-29.5863],[-71.5334,-29.5798]]],[[[-71.3331,-29.5418],[-71.334,-29.5473],[-71.3425,-29.5499],[-71.3424,-29.5431],[-71.3331,-29.5418]]],[[[-71.5301,-29.2286],[-71.5207,-29.2381],[-71.5222,-29.2427],[-71.5283,-29.236],[-71.535,-29.2347],[-71.5301,-29.2286]]],[[[-71.5464,-29.555],[-71.5512,-29.5551],[-71.5525,-29.5484],[-71.5486,-29.5507],[-71.5464,-29.555]]],[[[-71.3556,-29.4107],[-71.3538,-29.4131],[-71.3582,-29.417],[-71.3603,-29.4107],[-71.3556,-29.4107]]],[[[-71.3335,-29.4844],[-71.332,-29.4858],[-71.3326,-29.4871],[-71.3346,-29.4861],[-71.3335,-29.4844]]],[[[-71.5345,-29.2306],[-71.5343,-29.231],[-71.5347,-29.2311],[-71.5349,-29.2309],[-71.5345,-29.2306]]],[[[-71.5349,-29.2306],[-71.5349,-29.2309],[-71.5353,-29.2309],[-71.5351,-29.2305],[-71.5349,-29.2306]]],[[[-71.5342,-29.2351],[-71.5342,-29.2354],[-71.5345,-29.2353],[-71.5345,-29.2351],[-71.5342,-29.2351]]],[[[-71.5356,-29.2325],[-71.5354,-29.2326],[-71.5354,-29.2328],[-71.5356,-29.2328],[-71.5356,-29.2325]]],[[[-71.533,-29.2359],[-71.5331,-29.236],[-71.5335,-29.2359],[-71.5329,-29.2359],[-71.533,-29.2359]]],[[[-71.5207,-29.2378],[-71.5207,-29.2379],[-71.5208,-29.2376],[-71.5206,-29.2377],[-71.5207,-29.2378]]],[[[-71.5351,-29.2327],[-71.5349,-29.2326],[-71.5352,-29.2328],[-71.5352,-29.2325],[-71.5351,-29.2327]]],[[[-71.5198,-29.2445],[-71.5199,-29.2445],[-71.5199,-29.2444],[-71.5198,-29.2444],[-71.5198,-29.2445]]],[[[-71.5209,-29.2376],[-71.521,-29.2376],[-71.521,-29.2375],[-71.5209,-29.2376],[-71.5209,-29.2376]]],[[[-71.5351,-29.2328],[-71.5351,-29.2328],[-71.5351,-29.2328],[-71.535,-29.2328],[-71.5351,-29.2328]]]]},"properties":{"cod_comuna":4104,"comuna":"La Higuera","provincia":"Elqui","codregion":4}},{"type":"Feature","geometry":{"type":"Polygon","coordinates":[[[-70.4569,-31.0849],[-70.5093,-31.1487],[-70.5265,-31.2786],[-70.5553,-31.3058],[-70.602,-31.2695],[-70.6287,-31.1545],[-70.6501,-31.1629],[-70.7769,-31.0929],[-70.835,-30.9762],[-70.8923,-30.9976],[-70.8885,-30.9753],[-70.9667,-30.9681],[-71.0308,-30.9155],[-71.0574,-30.946],[-71.0975,-30.884],[-71.0355,-30.8593],[-71.0188,-30.7982],[-71.0929,-30.8076],[-71.1167,-30.7799],[-71.0288,-30.7046],[-71.0313,-30.6467],[-70.9919,-30.6502],[-70.9563,-30.5838],[-70.8979,-30.578],[-70.8738,-30.5453],[-70.7356,-30.5255],[-70.6972,-30.4913],[-70.6496,-30.5108],[-70.5987,-30.4951],[-70.5505,-30.5105],[-70.5227,-30.5613],[-70.4568,-30.5577],[-70.4143,-30.6353],[-70.2584,-30.6935],[-70.2455,-30.7284],[-70.2883,-30.7882],[-70.2797,-30.8311],[-70.3231,-30.9308],[-70.2695,-31.0438],[-70.3217,-31.0432],[-70.4017,-31.1683],[-70.4569,-31.0849]]]},"properties":{"cod_comuna":4303,"comuna":"Monte Patria","provincia":"Limarí","codregion":4}},{"type":"Feature","geometry":{"type":"Polygon","coordinates":[[[-70.1909,-30.5492],[-70.2645,-30.6951],[-70.4143,-30.6353],[-70.4568,-30.5577],[-70.5227,-30.5613],[-70.5754,-30.4971],[-70.6496,-30.5108],[-70.6972,-30.4913],[-70.7356,-30.5255],[-70.8481,-30.5416],[-70.9047,-30.5004],[-70.9368,-30.5346],[-71.0202,-30.5496],[-71.0768,-30.4614],[-71.0525,-30.4355],[-71.0805,-30.37],[-71.0064,-30.2851],[-70.9461,-30.3139],[-70.9058,-30.2895],[-70.9255,-30.2184],[-70.8266,-30.2562],[-70.7744,-30.2353],[-70.7188,-30.2504],[-70.6657,-30.2162],[-70.5846,-30.2354],[-70.5701,-30.209],[-70.5257,-30.3291],[-70.4811,-30.355],[-70.4858,-30.3951],[-70.4498,-30.3943],[-70.3984,-30.4516],[-70.3428,-30.4072],[-70.3138,-30.4151],[-70.2802,-30.4475],[-70.2903,-30.4688],[-70.1943,-30.4929],[-70.1909,-30.5492]]]},"properties":{"cod_comuna":4305,"comuna":"Río Hurtado","provincia":"Limarí","codregion":4}},{"type":"Feature","geometry":{"type":"Polygon","coordinates":[[[-70.3105,-32.2385],[-70.3264,-32.2762],[-70.3609,-32.2538],[-70.4201,-32.2801],[-70.4559,-32.1725],[-70.5324,-32.1481],[-70.5454,-32.1751],[-70.6448,-32.139],[-70.657,-32.0548],[-70.6911,-32.0632],[-70.7395,-32.0207],[-70.9375,-32.0764],[-70.9768,-32.0411],[-70.971,-31.9464],[-71.0804,-31.9038],[-71.0914,-31.8795],[-71.0914,-31.7188],[-71.0294,-31.6909],[-71.0118,-31.6559],[-70.9637,-31.6786],[-70.7594,-31.6157],[-70.7111,-31.6394],[-70.6502,-31.6144],[-70.6222,-31.5384],[-70.5704,-31.5558],[-70.566,-31.6012],[-70.5032,-31.6596],[-70.5133,-31.6899],[-70.4667,-31.7012],[-70.4606,-31.8436],[-70.3747,-31.8859],[-70.2799,-31.8839],[-70.2094,-31.9595],[-70.2881,-32.0511],[-70.3538,-32.0257],[-70.3879,-32.0434],[-70.3352,-32.0699],[-70.3408,-32.1102],[-70.304,-32.1359],[-70.3105,-32.2385]]]},"properties":{"cod_comuna":4204,"comuna":"Salamanca","provincia":"Choapa","codregion":4}},{"type":"Feature","geometry":{"type":"Polygon","coordinates":[[[-70.498,-29.357],[-70.4087,-29.399],[-70.3654,-29.3699],[-70.2988,-29.3761],[-70.1723,-29.5257],[-70.0859,-29.5351],[-69.9516,-29.5009],[-69.9398,-29.6546],[-69.8774,-29.7264],[-69.9136,-29.8008],[-69.8767,-29.8624],[-69.914,-30.0255],[-69.9654,-30.0856],[-69.937,-30.1201],[-69.9052,-30.106],[-69.8182,-30.1273],[-69.809,-30.1536],[-69.8355,-30.2192],[-69.8853,-30.2184],[-69.8918,-30.3509],[-69.955,-30.3857],[-70.0632,-30.3946],[-70.1066,-30.352],[-70.1585,-30.3481],[-70.224,-30.2025],[-70.2694,-30.1935],[-70.2758,-30.1487],[-70.319,-30.1131],[-70.2903,-30.0399],[-70.3362,-30.0212],[-70.3511,-29.9649],[-70.3733,-29.9839],[-70.4431,-29.964],[-70.4859,-29.9886],[-70.5476,-29.9833],[-70.5674,-30.0373],[-70.5502,-30.1822],[-70.5841,-30.2353],[-70.6657,-30.2162],[-70.7188,-30.2504],[-70.7744,-30.2353],[-70.8266,-30.2562],[-70.9051,-30.214],[-70.9361,-30.24],[-71.0228,-30.2501],[-71.0202,-30.1822],[-71.0738,-30.1343],[-71.0076,-30.0308],[-70.9855,-29.8621],[-70.9001,-29.8329],[-70.8468,-29.7331],[-70.779,-29.6954],[-70.6765,-29.6836],[-70.5953,-29.7178],[-70.5727,-29.6964],[-70.5891,-29.6586],[-70.5242,-29.4959],[-70.5464,-29.4017],[-70.498,-29.357]]]},"properties":{"cod_comuna":4106,"comuna":"Vicuña","provincia":"Elqui","codregion":4}}]}