{"type":"FeatureCollection", "features": [
{"type":"Feature","geometry":{"type":"Polygon","coordinates":[[[-70.6588,-32.8255],[-70.7103,-32.8002],[-70.7678,-32.8258],[-70.7196,-32.9535],[-70.6772,-32.906],[-70.6588,-32.8255]]]},"properties":{"cod_comuna":5303,"comuna":"Rinconada","provincia":"Los Andes","codregion":5}},
{"type":"Feature","geometry":{"type":"Polygon","coordinates":[[[-70.8022,-32.443],[-70.6569,-32.4668],[-70.612,-32.3685],[-70.4335,-32.336],[-70.4115,-32.2881],[-70.4513,-32.2242],[-70.5243,-32.2588],[-70.768,-32.2851],[-70.9112,-32.3406],[-70.9827,-32.3209],[-71.1049,-32.3657],[-71.0942,-32.4203],[-71.1343,-32.4387],[-71.1414,-32.4853],[-71.1236,-32.5187],[-71.0461,-32.5523],[-71.0553,-32.6262],[-70.9509,-32.6304],[-70.8926,-32.6072],[-70.8193,-32.6299],[-70.783,-32.5469],[-70.8022,-32.443]]]},"properties":{"cod_comuna":5402,"comuna":"Cabildo","provincia":"Petorca","codregion":5}},
{"type":"Feature","geometry":{"type":"Polygon","coordinates":[[[-70.5243,-32.2588],[-70.4554,-32.2112],[-70.6536,-32.1339],[-70.7299,-32.0266],[-70.9305,-32.0795],[-71.0311,-32.0738],[-71.1819,-32.1712],[-71.1574,-32.3004],[-71.1049,-32.3657],[-70.9827,-32.3209],[-70.9112,-32.3406],[-70.768,-32.2851],[-70.5243,-32.2588]]]},"properties":{"cod_comuna":5404,"comuna":"Petorca","provincia":"Petorca","codregion":5}},
{"type":"Feature","geometry":{"type":"Polygon","coordinates":[[[-70.9482,-32.8012],[-70.9476,-32.8242],[-70.7758,-32.8291],[-70.7417,-32.7545],[-70.7789,-32.7317],[-70.9482,-32.8012]]]},"properties":{"cod_comuna":5704,"comuna":"Panquehue","provincia":"San Felipe","codregion":5}},
{"type":"Feature","geometry":{"type":"Polygon","coordinates":[[[-71.2172,-32.9731],[-71.1361,-33.1212],[-71.0385,-33.0962],[-71.0008,-33.0501],[-71.0277,-32.989],[-71.2172,-32.9731]]]},"properties":{"cod_comuna":5803,"comuna":"Olmué","provincia":"Marga Marga","codregion":5}},
{"type":"Feature","geometry":{"type":"Polygon","coordinates":[[[-71.4774,-33.4753],[-71.515,-33.5188],[-71.6271,-33.5522],[-71.4101,-33.6095],[-71.329,-33.5819],[-71.3917,-33.4551],[-71.4373,-33.4892],[-71.4774,-33.4753]]]},"properties":{"cod_comuna":5603,"comuna":"Cartagena","provincia":"San Antonio","codregion":5}},
{"type":"Feature","geometry":{"type":"Polygon","coordinates":[[[-70.8193,-32.6299],[-70.8917,-32.6074],[-70.9807,-32.6317],[-71.0195,-32.6132],[-71.0547,-32.6384],[-71.0332,-32.6722],[-71.0533,-32.7406],[-71.002,-32.8286],[-70.9803,-32.801],[-70.9475,-32.8242],[-70.9482,-32.8012],[-70.8527,-32.7714],[-70.8709,-32.7318],[-70.8193,-32.6299]]]},"properties":{"cod_comuna":5702,"comuna":"Catemu","provincia":"San Felipe","codregion":5}},
{"type":"Feature","geometry":{"type":"Polygon","coordinates":[[[-71.0401,-32.8368],[-71.0142,-32.9767],[-70.9066,-32.9359],[-70.8419,-32.9224],[-70.7282,-32.9245],[-70.7667,-32.8258],[-70.9134,-32.8338],[-70.966,-32.7988],[-71.0401,-32.8368]]]},"properties":{"cod_comuna":5703,"comuna":"Llaillay","provincia":"San Felipe","codregion":5}},
{"type":"Feature","geometry":{"type":"Polygon","coordinates":[[[-70.7377,-32.6955],[-70.8254,-32.6474],[-70.8707,-32.7311],[-70.8527,-32.7714],[-70.7664,-32.7332],[-70.7366,-32.758],[-70.7619,-32.8014],[-70.7129,-32.7869],[-70.7125,-32.8166],[-70.6588,-32.8255],[-70.6342,-32.8006],[-70.684,-32.7759],[-70.6636,-32.6889],[-70.7442,-32.7145],[-70.7377,-32.6955]]]},"properties":{"cod_comuna":5701,"comuna":"San Felipe","provincia":"San Felipe","codregion":5}},
{"type":"Feature","geometry":{"type":"Polygon","coordinates":[[[-70.5667,-32.6348],[-70.514,-32.6053],[-70.5584,-32.5722],[-70.6213,-32.6109],[-70.6831,-32.7476],[-70.684,-32.7759],[-70.6137,-32.7255],[-70.5667,-32.6348]]]},"properties":{"cod_comuna":5706,"comuna":"Santa María","provincia":"San Felipe","codregion":5}},
{"type":"Feature","geometry":{"type":"Polygon","coordinates":[[[-71.3991,-33.0132],[-71.3983,-33.0462],[-71.3585,-33.0983],[-71.3031,-33.1209],[-71.2598,-33.1075],[-71.2954,-33.0114],[-71.3308,-33.0446],[-71.3991,-33.0132]]]},"properties":{"cod_comuna":5804,"comuna":"Villa Alemana","provincia":"Marga Marga","codregion":5}},
{"type":"Feature","geometry":{"type":"Polygon","coordinates":[[[-71.795,-33.7872],[-71.8379,-33.9239],[-71.7197,-33.9559],[-71.5808,-33.8668],[-71.5563,-33.8722],[-71.5365,-33.7477],[-71.5993,-33.6321],[-71.6309,-33.6163],[-71.6689,-33.7173],[-71.795,-33.7872]]]},"properties":{"cod_comuna":5606,"comuna":"Santo Domingo","provincia":"San Antonio","codregion":5}},
{"type":"Feature","geometry":{"type":"Polygon","coordinates":[[[-71.6253,-33.6029],[-71.5232,-33.7774],[-71.3628,-33.759],[-71.4378,-33.6798],[-71.4108,-33.6096],[-71.6253,-33.6029]]]},"properties":{"cod_comuna":5601,"comuna":"San Antonio","provincia":"San Antonio","codregion":5}},
{"type":"Feature","geometry":{"type":"Polygon","coordinates":[[[-71.593,-33.4615],[-71.5776,-33.5322],[-71.5106,-33.5164],[-71.4774,-33.4753],[-71.593,-33.4615]]]},"properties":{"cod_comuna":5605,"comuna":"El Tabo","provincia":"San Antonio","codregion":5}},
{"type":"Feature","geometry":{"type":"Polygon","coordinates":[[[-71.6905,-33.4383],[-71.5906,-33.4328],[-71.5891,-33.3997],[-71.6516,-33.4029],[-71.6905,-33.4383]]]},"properties":{"cod_comuna":5604,"comuna":"El Quisco","provincia":"San Antonio","codregion":5}},
{"type":"Feature","geometry":{"type":"Polygon","coordinates":[[[-71.5474,-33.3951],[-71.5334,-33.2615],[-71.6458,-33.2628],[-71.6551,-33.2977],[-71.6554,-33.3531],[-71.695,-33.3724],[-71.6507,-33.4031],[-71.5474,-33.3951]]]},"properties":{"cod_comuna":5602,"comuna":"Algarrobo","provincia":"San Antonio","codregion":5}},
{"type":"Feature","geometry":{"type":"Polygon","coordinates":[[[-71.6228,-33.1589],[-71.6681,-33.2797],[-71.5953,-33.2519],[-71.527,-33.2679],[-71.5474,-33.3951],[-71.593,-33.4615],[-71.4373,-33.4892],[-71.3917,-33.4551],[-71.2229,-33.3731],[-71.1955,-33.3111],[-71.2301,-33.2418],[-71.3459,-33.2042],[-71.3675,-33.1757],[-71.5365,-33.2138],[-71.6228,-33.1589]]]},"properties":{"cod_comuna":5102,"comuna":"Casablanca","provincia":"Valparaíso","codregion":5}},
{"type":"Feature","geometry":{"type":"Polygon","coordinates":[[[-71.5437,-33.1044],[-71.6468,-33.0202],[-71.7061,-33.1532],[-71.6228,-33.1589],[-71.5365,-33.2138],[-71.5437,-33.1044]]]},"properties":{"cod_comuna":5101,"comuna":"Valparaíso","provincia":"Valparaíso","codregion":5}},
{"type":"Feature","geometry":{"type":"Polygon","coordinates":[[[-71.4427,-33.002],[-71.5491,-32.948],[-71.587,-33.0284],[-71.5437,-33.1044],[-71.4427,-33.002]]]},"properties":{"cod_comuna":5109,"comuna":"Viña del Mar","provincia":"Valparaíso","codregion":5}},
{"type":"Feature","geometry":{"type":"Polygon","coordinates":[[[-71.4427,-33.002],[-71.4083,-32.9351],[-71.5076,-32.9157],[-71.5545,-32.9421],[-71.4427,-33.002]]]},"properties":{"cod_comuna":5103,"comuna":"Concón","provincia":"Valparaíso","codregion":5}},
{"type":"Feature","geometry":{"type":"Polygon","coordinates":[[[-71.4645,-32.8008],[-71.4522,-32.8909],[-71.4218,-32.8424],[-71.4645,-32.8008]]]},"properties":{"cod_comuna":5107,"comuna":"Quintero","provincia":"Valparaíso","codregion":5}},
{"type":"Feature","geometry":{"type":"Polygon","coordinates":[[[-71.37,-32.677],[-71.4692,-32.7103],[-71.4645,-32.8008],[-71.4218,-32.8424],[-71.293,-32.784],[-71.3133,-32.7342],[-71.2779,-32.698],[-71.37,-32.677]]]},"properties":{"cod_comuna":5105,"comuna":"Puchuncaví","provincia":"Valparaíso","codregion":5}},
{"type":"Feature","geometry":{"type":"Polygon","coordinates":[[[-71.3867,-32.5527],[-71.37,-32.677],[-71.31,-32.6727],[-71.2011,-32.6042],[-71.3009,-32.4979],[-71.3867,-32.5527]]]},"properties":{"cod_comuna":5405,"comuna":"Zapallar","provincia":"Petorca","codregion":5}},
{"type":"Feature","geometry":{"type":"Polygon","coordinates":[[[-71.3255,-32.4034],[-71.41,-32.41],[-71.4528,-32.5373],[-71.3867,-32.5527],[-71.3009,-32.4979],[-71.3211,-32.4416],[-71.3255,-32.4034]]]},"properties":{"cod_comuna":5403,"comuna":"Papudo","provincia":"Petorca","codregion":5}},
{"type":"Feature","geometry":{"type":"Polygon","coordinates":[[[-71.1574,-32.3004],[-71.2028,-32.1335],[-71.3385,-32.203],[-71.4777,-32.155],[-71.4708,-32.345],[-71.3255,-32.4034],[-71.3211,-32.4416],[-71.32,-32.467],[-71.2011,-32.6042],[-71.1609,-32.5909],[-71.081,-32.6172],[-71.046,-32.5526],[-71.1397,-32.491],[-71.1343,-32.4387],[-71.0942,-32.4203],[-71.1574,-32.3004]]]},"properties":{"cod_comuna":5401,"comuna":"La Ligua","provincia":"Petorca","codregion":5}},
{"type":"Feature","geometry":{"type":"MultiPolygon","coordinates":[[[[-78.9384,-33.6662],[-78.9384,-33.6661],[-78.9385,-33.6662],[-78.9384,-33.6662]]],[[[-78.7764,-33.6596],[-78.7764,-33.6595],[-78.7765,-33.6595],[-78.7764,-33.6596]]],[[[-78.8287,-33.6306],[-78.8288,-33.6305],[-78.8288,-33.6306],[-78.8287,-33.6306]]],[[[-78.8316,-33.629],[-78.8317,-33.6289],[-78.8317,-33.629],[-78.8316,-33.629]]],[[[-78.8321,-33.6288],[-78.832,-33.6289],[-78.832,-33.6288],[-78.8321,-33.6288]]],[[[-78.8745,-33.6056],[-78.9149,-33.6562],[-78.7732,-33.6783],[-78.7892,-33.641],[-78.8745,-33.6056]]]]},"properties":{"cod_comuna":5104,"comuna":"Juan Fernández","provincia":"Valparaíso","codregion":5}},
{"type":"Feature","geometry":{"type":"Polygon","coordinates":[[[-109.3978,-27.0677],[-109.4306,-27.1968],[-109.2278,-27.1065],[-109.3978,-27.0677]]]},"properties":{"cod_comuna":5201,"comuna":"Isla de Pascua","provincia":"Isla de Pascua","codregion":5}},
{"type":"Feature","geometry":{"type":"Polygon","coordinates":[[[-71.3739,-32.918],[-71.4333,-33.0012],[-71.3308,-33.0446],[-71.2954,-33.0114],[-71.2922,-33.0645],[-71.2365,-33.1439],[-71.1957,-33.1616],[-71.1334,-33.1379],[-71.2172,-32.9731],[-71.3317,-32.9517],[-71.3739,-32.918]]]},"properties":{"cod_comuna":5802,"comuna":"Limache","provincia":"Marga Marga","codregion":5}},
{"type":"Feature","geometry":{"type":"Polygon","coordinates":[[[-71.1454,-32.8679],[-71.2962,-32.8312],[-71.4522,-32.8909],[-71.3739,-32.918],[-71.2453,-32.9738],[-71.1195,-32.9546],[-71.1519,-32.9295],[-71.1454,-32.8679]]]},"properties":{"cod_comuna":5501,"comuna":"Quillota","provincia":"Quillota","codregion":5}},
{"type":"Feature","geometry":{"type":"Polygon","coordinates":[[[-71.2299,-32.789],[-71.1936,-32.8148],[-71.1454,-32.8673],[-71.1277,-32.8453],[-71.1099,-32.7971],[-71.198,-32.766],[-71.2299,-32.789]]]},"properties":{"cod_comuna":5502,"comuna":"Calera","provincia":"Quillota","codregion":5}},
{"type":"Feature","geometry":{"type":"Polygon","coordinates":[[[-71.198,-32.766],[-71.1349,-32.7699],[-71.0451,-32.7346],[-71.0547,-32.5998],[-71.0888,-32.6211],[-71.1552,-32.5978],[-71.2322,-32.604],[-71.3188,-32.6762],[-71.2779,-32.698],[-71.3133,-32.7342],[-71.2424,-32.8117],[-71.198,-32.766]]]},"properties":{"cod_comuna":5506,"comuna":"Nogales","provincia":"Quillota","codregion":5}},
{"type":"Feature","geometry":{"type":"Polygon","coordinates":[[[-70.4066,-33.0011],[-70.5077,-32.8808],[-70.5887,-32.8531],[-70.6588,-32.8252],[-70.6772,-32.906],[-70.5947,-32.9475],[-70.5078,-33.0893],[-70.4066,-33.0011]]]},"properties":{"cod_comuna":5302,"comuna":"Calle Larga","provincia":"Los Andes","codregion":5}},
{"type":"Feature","geometry":{"type":"Polygon","coordinates":[[[-71.2424,-32.8117],[-71.1454,-32.8679],[-71.2112,-32.8002],[-71.2299,-32.789],[-71.2424,-32.8117]]]},"properties":{"cod_comuna":5504,"comuna":"La Cruz","provincia":"Quillota","codregion":5}},
{"type":"Feature","geometry":{"type":"Polygon","coordinates":[[[-70.2567,-32.4738],[-70.2223,-32.3254],[-70.3619,-32.254],[-70.476,-32.3561],[-70.6124,-32.3687],[-70.6384,-32.4604],[-70.7774,-32.4293],[-70.8022,-32.443],[-70.783,-32.5469],[-70.8212,-32.6454],[-70.7377,-32.6955],[-70.743,-32.7146],[-70.6426,-32.6718],[-70.5753,-32.5698],[-70.5136,-32.6022],[-70.3889,-32.6056],[-70.2567,-32.4738]]]},"properties":{"cod_comuna":5705,"comuna":"Putaendo","provincia":"San Felipe","codregion":5}},
{"type":"Feature","geometry":{"type":"Polygon","coordinates":[[[-70.3628,-32.91],[-70.172,-32.7694],[-70.1261,-32.575],[-70.135,-32.4879],[-70.2567,-32.4738],[-70.3889,-32.6056],[-70.5667,-32.6348],[-70.6137,-32.7255],[-70.6072,-32.8134],[-70.4102,-32.8655],[-70.3628,-32.91]]]},"properties":{"cod_comuna":5304,"comuna":"San Esteban","provincia":"Los Andes","codregion":5}},
{"type":"Feature","geometry":{"type":"Polygon","coordinates":[[[-70.4066,-33.0011],[-70.3852,-33.0935],[-70.2719,-33.1315],[-70.1558,-33.1131],[-70.0198,-33.0073],[-69.9893,-32.8982],[-70.1746,-32.7721],[-70.3628,-32.91],[-70.4102,-32.8655],[-70.5074,-32.8811],[-70.4066,-33.0011]]]},"properties":{"cod_comuna":5301,"comuna":"Los Andes","provincia":"Los Andes","codregion":5}},
{"type":"Feature","geometry":{"type":"Polygon","coordinates":[[[-71.1277,-32.8453],[-71.1425,-32.9409],[-71.0968,-32.9777],[-71.016,-32.9777],[-71.0401,-32.8368],[-71.002,-32.8286],[-71.0592,-32.7358],[-71.1099,-32.7971],[-71.1277,-32.8453]]]},"properties":{"cod_comuna":5503,"comuna":"Hijuelas","provincia":"Quillota","codregion":5}},
{"type":"Feature","geometry":{"type":"Polygon","coordinates":[[[-71.3991,-33.0132],[-71.4306,-33.0022],[-71.489,-33.054],[-71.4639,-33.1563],[-71.3675,-33.1757],[-71.3459,-33.2042],[-71.2256,-33.2465],[-70.9969,-33.1975],[-71.0291,-33.084],[-71.1976,-33.1614],[-71.2673,-33.1166],[-71.3589,-33.0981],[-71.4009,-33.0676],[-71.3991,-33.0132]]]},"properties":{"cod_comuna":5801,"comuna":"Quilpué","provincia":"Marga Marga","codregion":5}}
]}