{"type":"FeatureCollection","features":[{"type":"Feature","geometry":{"type":"Polygon","coordinates":[[[-71.8007,-34.2072],[-71.7295,-34.3146],[-71.6903,-34.3216],[-71.6333,-34.2804],[-71.574,-34.3046],[-71.5453,-34.2736],[-71.5217,-34.3011],[-71.454,-34.301],[-71.4927,-34.4169],[-71.5184,-34.4312],[-71.5774,-34.4127],[-71.595,-34.4892],[-71.6911,-34.4854],[-71.7466,-34.5275],[-71.7687,-34.474],[-71.8203,-34.4464],[-71.798,-34.395],[-71.8146,-34.3105],[-71.8649,-34.3177],[-71.8789,-34.2739],[-71.8007,-34.2072]]]},"properties":{"cod_comuna":6204,"comuna":"Marchigüe","provincia":"Cardenal Caro","codregion":6}},{"type":"Feature","geometry":{"type":"Polygon","coordinates":[[[-70.3529,-33.9526],[-70.3276,-34.0103],[-70.5281,-34.0746],[-70.5743,-34.1469],[-70.6837,-34.145],[-70.6701,-34.0494],[-70.7267,-34.0496],[-70.7166,-34.0225],[-70.6812,-34.0075],[-70.6388,-34.0332],[-70.5093,-34.0421],[-70.488,-34.0124],[-70.4112,-34.0133],[-70.3786,-33.9188],[-70.3529,-33.9526]]]},"properties":{"cod_comuna":6102,"comuna":"Codegua","provincia":"Cachapoal","codregion":6}},{"type":"Feature","geometry":{"type":"Polygon","coordinates":[[[-70.9005,-34.237],[-70.8704,-34.2681],[-70.9057,-34.2586],[-70.9436,-34.3113],[-71.0771,-34.3333],[-71.0884,-34.3128],[-70.9367,-34.2274],[-70.903,-34.2156],[-70.9005,-34.237]]]},"properties":{"cod_comuna":6103,"comuna":"Coinco","provincia":"Cachapoal","codregion":6}},{"type":"Feature","geometry":{"type":"Polygon","coordinates":[[[-71.0249,-34.1705],[-70.9657,-34.1761],[-70.9797,-34.2552],[-71.1215,-34.324],[-71.1522,-34.3697],[-71.1327,-34.4113],[-71.1808,-34.3402],[-71.1814,-34.2557],[-71.1127,-34.2475],[-71.0702,-34.1827],[-71.0249,-34.1705]]]},"properties":{"cod_comuna":6104,"comuna":"Coltauco","provincia":"Cachapoal","codregion":6}},{"type":"Feature","geometry":{"type":"Polygon","coordinates":[[[-70.7771,-34.0057],[-70.7166,-34.0224],[-70.7267,-34.0496],[-70.6701,-34.0494],[-70.6893,-34.138],[-70.7149,-34.1063],[-70.7846,-34.1135],[-70.8039,-34.0883],[-70.8178,-34.0355],[-70.7933,-33.9969],[-70.7771,-34.0057]]]},"properties":{"cod_comuna":6106,"comuna":"Graneros","provincia":"Cachapoal","codregion":6}},{"type":"Feature","geometry":{"type":"Polygon","coordinates":[[[-71.0279,-34.3896],[-71.0103,-34.4055],[-70.9071,-34.3951],[-70.906,-34.4285],[-70.7241,-34.5186],[-70.7175,-34.5681],[-70.8057,-34.5527],[-70.9049,-34.4773],[-70.9697,-34.5145],[-70.9801,-34.4349],[-71.0495,-34.4156],[-71.0279,-34.3896]]]},"properties":{"cod_comuna":6109,"comuna":"Malloa","provincia":"Cachapoal","codregion":6}},{"type":"Feature","geometry":{"type":"Polygon","coordinates":[[[-71.1879,-34.2524],[-71.1808,-34.3402],[-71.1327,-34.4113],[-71.1472,-34.4202],[-71.2275,-34.3964],[-71.3053,-34.3281],[-71.2638,-34.2573],[-71.1879,-34.2524]]]},"properties":{"cod_comuna":6112,"comuna":"Peumo","provincia":"Cachapoal","codregion":6}},{"type":"Feature","geometry":{"type":"Polygon","coordinates":[[[-71.4421,-34.255],[-71.432,-34.276],[-71.3597,-34.2775],[-71.2275,-34.3964],[-71.1838,-34.4054],[-71.1966,-34.4446],[-71.2361,-34.4403],[-71.2492,-34.4838],[-71.4029,-34.4244],[-71.4247,-34.3608],[-71.4586,-34.362],[-71.4628,-34.2375],[-71.4421,-34.255]]]},"properties":{"cod_comuna":6113,"comuna":"Pichidegua","provincia":"Cachapoal","codregion":6}},{"type":"Feature","geometry":{"type":"Polygon","coordinates":[[[-70.8438,-34.0292],[-70.8039,-34.0449],[-70.7846,-34.1135],[-70.7154,-34.1061],[-70.6843,-34.1417],[-70.7231,-34.2151],[-70.7603,-34.1911],[-70.8497,-34.1913],[-70.9292,-34.1351],[-70.9349,-34.0867],[-70.893,-34.0758],[-70.8888,-34.0386],[-70.8438,-34.0292]]]},"properties":{"cod_comuna":6101,"comuna":"Rancagua","provincia":"Cachapoal","codregion":6}},{"type":"Feature","geometry":{"type":"Polygon","coordinates":[[[-70.7379,-34.209],[-70.5035,-34.2929],[-70.4604,-34.3444],[-70.4621,-34.3944],[-70.5308,-34.4897],[-70.5657,-34.4939],[-70.5845,-34.4523],[-70.6694,-34.4623],[-70.6703,-34.4034],[-70.8343,-34.3347],[-70.8267,-34.3115],[-70.9242,-34.2847],[-70.9055,-34.2585],[-70.8706,-34.2683],[-70.8736,-34.2384],[-70.7379,-34.209]]]},"properties":{"cod_comuna":6116,"comuna":"Requínoa","provincia":"Cachapoal","codregion":6}},{"type":"Feature","geometry":{"type":"Polygon","coordinates":[[[-70.4274,-33.8548],[-70.3686,-33.9063],[-70.3985,-33.9968],[-70.488,-34.0124],[-70.5093,-34.0421],[-70.6388,-34.0332],[-70.6812,-34.0075],[-70.7277,-34.0301],[-70.825,-33.9616],[-70.71,-33.9057],[-70.6591,-33.938],[-70.6,-33.8944],[-70.4274,-33.8548]]]},"properties":{"cod_comuna":6110,"comuna":"Mostazal","provincia":"Cachapoal","codregion":6}},{"type":"Feature","geometry":{"type":"Polygon","coordinates":[[[-71.0884,-34.3128],[-71.0611,-34.3433],[-71.0744,-34.3741],[-71.0276,-34.3839],[-71.0494,-34.4159],[-70.9781,-34.4375],[-70.9697,-34.5141],[-71.1587,-34.5911],[-71.2623,-34.5842],[-71.2927,-34.554],[-71.2361,-34.4403],[-71.1983,-34.4454],[-71.1819,-34.4115],[-71.1321,-34.4108],[-71.1481,-34.3596],[-71.0884,-34.3128]]]},"properties":{"cod_comuna":6117,"comuna":"San Vicente","provincia":"Cachapoal","codregion":6}},{"type":"Feature","geometry":{"type":"Polygon","coordinates":[[[-71.1702,-34.5858],[-71.108,-34.7098],[-71.1556,-34.7557],[-71.185,-34.7545],[-71.1747,-34.7297],[-71.2095,-34.7008],[-71.3175,-34.6585],[-71.2874,-34.6283],[-71.2383,-34.6446],[-71.205,-34.6209],[-71.216,-34.5947],[-71.1702,-34.5858]]]},"properties":{"cod_comuna":6305,"comuna":"Nancagua","provincia":"Colchagua","codregion":6}},{"type":"Feature","geometry":{"type":"Polygon","coordinates":[[[-71.4295,-34.3608],[-71.373,-34.4836],[-71.4145,-34.4852],[-71.4154,-34.5074],[-71.4719,-34.5148],[-71.5403,-34.5671],[-71.5931,-34.5178],[-71.6421,-34.5117],[-71.5876,-34.4815],[-71.5774,-34.4127],[-71.5184,-34.4312],[-71.4891,-34.3757],[-71.4295,-34.3608]]]},"properties":{"cod_comuna":6307,"comuna":"Peralillo","provincia":"Colchagua","codregion":6}},{"type":"Feature","geometry":{"type":"Polygon","coordinates":[[[-71.031,-34.5479],[-71.0466,-34.5901],[-71.0076,-34.6072],[-71.0102,-34.6374],[-71.1143,-34.6937],[-71.1587,-34.5911],[-71.031,-34.5479]]]},"properties":{"cod_comuna":6308,"comuna":"Placilla","provincia":"Colchagua","codregion":6}},{"type":"Feature","geometry":{"type":"Polygon","coordinates":[[[-71.6861,-34.4896],[-71.5315,-34.5617],[-71.5442,-34.6371],[-71.604,-34.6789],[-71.7775,-34.6924],[-71.8595,-34.5133],[-71.7707,-34.5454],[-71.6861,-34.4896]],[[-71.6544,-34.5296],[-71.6544,-34.5299],[-71.6544,-34.5296],[-71.6544,-34.5296]]]},"properties":{"cod_comuna":6309,"comuna":"Pumanque","provincia":"Colchagua","codregion":6}},{"type":"Feature","geometry":{"type":"Polygon","coordinates":[[[-72.0516,-34.5489],[-71.9833,-34.5415],[-71.92,-34.5761],[-71.9022,-34.5238],[-71.8782,-34.5352],[-71.8733,-34.5119],[-71.8544,-34.5086],[-71.7916,-34.6744],[-71.8269,-34.6738],[-71.7807,-34.7647],[-71.8097,-34.8371],[-71.9134,-34.8151],[-71.9531,-34.7573],[-71.9973,-34.7405],[-72.005,-34.7049],[-72.0562,-34.687],[-72.0516,-34.5489]]]},"properties":{"cod_comuna":6206,"comuna":"Paredones","provincia":"Cardenal Caro","codregion":6}},{"type":"Feature","geometry":{"type":"Polygon","coordinates":[[[-71.9999,-34.1837],[-71.9452,-34.1625],[-71.8092,-34.1984],[-71.8789,-34.2739],[-71.8649,-34.3177],[-71.8146,-34.3105],[-71.798,-34.395],[-71.8204,-34.4461],[-71.7579,-34.487],[-71.7557,-34.5429],[-71.8324,-34.5358],[-71.8557,-34.5078],[-71.8782,-34.5352],[-71.9022,-34.5238],[-71.92,-34.5761],[-71.9833,-34.5415],[-72.0517,-34.5477],[-72.0244,-34.4869],[-72.0491,-34.4254],[-71.9757,-34.3483],[-71.9999,-34.1837]]]},"properties":{"cod_comuna":6201,"comuna":"Pichilemu","provincia":"Cardenal Caro","codregion":6}},{"type":"Feature","geometry":{"type":"Polygon","coordinates":[[[-71.9465,-34.0747],[-71.8584,-34.1114],[-71.7879,-34.0954],[-71.6923,-33.995],[-71.7032,-33.9682],[-71.5873,-34.034],[-71.5667,-33.9871],[-71.472,-34.0109],[-71.5151,-34.0698],[-71.5753,-34.0642],[-71.5478,-34.0994],[-71.5742,-34.1467],[-71.6679,-34.1344],[-71.6631,-34.1708],[-71.7605,-34.2442],[-71.7928,-34.2403],[-71.8286,-34.1845],[-72.0016,-34.1727],[-72.0087,-34.1321],[-71.9465,-34.0747]]]},"properties":{"cod_comuna":6203,"comuna":"Litueche","provincia":"Cardenal Caro","codregion":6}},{"type":"Feature","geometry":{"type":"MultiPolygon","coordinates":[[[[-71.8507,-33.9365],[-71.8445,-33.9107],[-71.8353,-33.9037],[-71.8399,-33.9229],[-71.809,-33.9073],[-71.7812,-33.9352],[-71.7488,-33.9205],[-71.6923,-33.995],[-71.7879,-34.0954],[-71.8584,-34.1114],[-71.9441,-34.0695],[-71.8507,-33.9365]]],[[[-71.8833,-33.9599],[-71.8837,-33.9601],[-71.8837,-33.9595],[-71.8832,-33.9595],[-71.8833,-33.9599]]],[[[-71.8857,-33.9615],[-71.886,-33.9618],[-71.8862,-33.9616],[-71.8857,-33.9613],[-71.8857,-33.9615]]]]},"properties":{"cod_comuna":6205,"comuna":"Navidad","provincia":"Cardenal Caro","codregion":6}},{"type":"Feature","geometry":{"type":"Polygon","coordinates":[[[-71.6893,-34.1729],[-71.6631,-34.1708],[-71.6679,-34.1344],[-71.5742,-34.1467],[-71.5374,-34.0918],[-71.483,-34.1378],[-71.4547,-34.286],[-71.5217,-34.3011],[-71.5453,-34.2736],[-71.574,-34.3046],[-71.6344,-34.2805],[-71.6903,-34.3216],[-71.7406,-34.3105],[-71.792,-34.2407],[-71.7339,-34.2387],[-71.6893,-34.1729]]]},"properties":{"cod_comuna":6202,"comuna":"La Estrella","provincia":"Cardenal Caro","codregion":6}},{"type":"Feature","geometry":{"type":"Polygon","coordinates":[[[-70.9059,-34.1524],[-70.8428,-34.1915],[-70.8542,-34.2072],[-70.9968,-34.2563],[-70.9687,-34.172],[-70.9059,-34.1524]]]},"properties":{"cod_comuna":6105,"comuna":"Doñihue","provincia":"Cachapoal","codregion":6}},{"type":"Feature","geometry":{"type":"Polygon","coordinates":[[[-70.8678,-34.2136],[-70.8247,-34.1884],[-70.7603,-34.1911],[-70.7298,-34.2118],[-70.9006,-34.2375],[-70.8678,-34.2136]]]},"properties":{"cod_comuna":6111,"comuna":"Olivar","provincia":"Cachapoal","codregion":6}},{"type":"Feature","geometry":{"type":"Polygon","coordinates":[[[-70.9365,-34.3753],[-70.9331,-34.2792],[-70.8267,-34.3115],[-70.8343,-34.3347],[-70.6684,-34.4048],[-70.6694,-34.4623],[-70.5847,-34.4523],[-70.5598,-34.4977],[-70.4867,-34.4963],[-70.473,-34.5998],[-70.5219,-34.6087],[-70.5806,-34.5766],[-70.6459,-34.5919],[-70.6568,-34.5499],[-70.7044,-34.5542],[-70.8158,-34.4569],[-70.906,-34.4285],[-70.9071,-34.3951],[-70.957,-34.3999],[-70.9365,-34.3753]]]},"properties":{"cod_comuna":6115,"comuna":"Rengo","provincia":"Cachapoal","codregion":6}},{"type":"Feature","geometry":{"type":"Polygon","coordinates":[[[-71.3969,-34.6017],[-71.3624,-34.6212],[-71.2419,-34.5772],[-71.2047,-34.6198],[-71.2444,-34.6473],[-71.2874,-34.6283],[-71.3175,-34.6585],[-71.2744,-34.6715],[-71.2839,-34.6982],[-71.384,-34.7466],[-71.4221,-34.7329],[-71.4323,-34.7561],[-71.4981,-34.7319],[-71.4983,-34.6429],[-71.5442,-34.6371],[-71.5478,-34.6027],[-71.4914,-34.5278],[-71.4154,-34.5649],[-71.3969,-34.6017]]]},"properties":{"cod_comuna":6310,"comuna":"Santa Cruz","provincia":"Colchagua","codregion":6}},{"type":"Feature","geometry":{"type":"Polygon","coordinates":[[[-71.386,-34.4336],[-71.3397,-34.4368],[-71.2517,-34.4925],[-71.2927,-34.554],[-71.2658,-34.5802],[-71.3624,-34.6212],[-71.4822,-34.5334],[-71.4154,-34.5074],[-71.4145,-34.4852],[-71.373,-34.4836],[-71.386,-34.4336]]]},"properties":{"cod_comuna":6306,"comuna":"Palmilla","provincia":"Colchagua","codregion":6}},{"type":"Feature","geometry":{"type":"Polygon","coordinates":[[[-70.9474,-34.3222],[-70.9316,-34.3736],[-70.976,-34.3986],[-71.0744,-34.3741],[-71.0607,-34.3272],[-70.9474,-34.3222]]]},"properties":{"cod_comuna":6114,"comuna":"Quinta de Tilcoco","provincia":"Cachapoal","codregion":6}},{"type":"Feature","geometry":{"type":"Polygon","coordinates":[[[-70.1563,-34.5458],[-70.2178,-34.6118],[-70.216,-34.6842],[-70.2535,-34.7037],[-70.3352,-34.6227],[-70.4678,-34.5898],[-70.4831,-34.5013],[-70.5311,-34.4882],[-70.4559,-34.3515],[-70.5035,-34.2929],[-70.7231,-34.2151],[-70.6837,-34.145],[-70.5743,-34.1469],[-70.5281,-34.0746],[-70.4677,-34.0685],[-70.4347,-34.036],[-70.3806,-34.0389],[-70.3434,-34.0093],[-70.3211,-34.0154],[-70.3403,-34.0532],[-70.3084,-34.0669],[-70.2616,-34.0713],[-70.2404,-34.0327],[-70.1803,-34.0355],[-70.1417,-34.1202],[-70.1642,-34.1591],[-70.0506,-34.2259],[-70.0091,-34.3944],[-70.0813,-34.4729],[-70.1317,-34.4878],[-70.1563,-34.5458]]]},"properties":{"cod_comuna":6108,"comuna":"Machalí","provincia":"Cachapoal","codregion":6}},{"type":"Feature","geometry":{"type":"Polygon","coordinates":[[[-71.27,-34.0535],[-71.2674,-34.0836],[-71.1848,-34.1584],[-71.071,-34.1897],[-71.1228,-34.2512],[-71.2633,-34.257],[-71.3062,-34.3281],[-71.3605,-34.277],[-71.435,-34.2745],[-71.4746,-34.2188],[-71.4842,-34.1357],[-71.5753,-34.0642],[-71.5151,-34.0698],[-71.472,-34.0109],[-71.4134,-34.0357],[-71.3902,-34.0759],[-71.3007,-34.0303],[-71.27,-34.0535]]]},"properties":{"cod_comuna":6107,"comuna":"Las Cabras","provincia":"Cachapoal","codregion":6}},{"type":"Feature","geometry":{"type":"Polygon","coordinates":[[[-70.9991,-34.6127],[-70.8828,-34.6688],[-70.8886,-34.7356],[-70.8369,-34.7803],[-70.8202,-34.8711],[-70.8833,-34.8501],[-70.9574,-34.872],[-71.0468,-34.7924],[-71.0987,-34.8281],[-71.1348,-34.7864],[-71.1167,-34.7664],[-71.1805,-34.7657],[-70.9991,-34.6127]]]},"properties":{"cod_comuna":6303,"comuna":"Chimbarongo","provincia":"Colchagua","codregion":6}},{"type":"Feature","geometry":{"type":"Polygon","coordinates":[[[-71.68,-34.8821],[-71.6734,-34.9211],[-71.7096,-34.9373],[-71.7966,-34.8267],[-71.7807,-34.7647],[-71.8269,-34.6738],[-71.7014,-34.6957],[-71.6858,-34.6713],[-71.604,-34.6789],[-71.5529,-34.6327],[-71.509,-34.632],[-71.478,-34.7468],[-71.5717,-34.832],[-71.5482,-34.8744],[-71.6063,-34.8832],[-71.657,-34.8548],[-71.68,-34.8821]]]},"properties":{"cod_comuna":6304,"comuna":"Lolol","provincia":"Colchagua","codregion":6}},{"type":"Feature","geometry":{"type":"Polygon","coordinates":[[[-71.3555,-34.8263],[-71.3869,-34.8688],[-71.3658,-34.9129],[-71.4377,-34.88],[-71.464,-34.9006],[-71.5466,-34.8759],[-71.5723,-34.8366],[-71.4775,-34.7436],[-71.384,-34.7466],[-71.2844,-34.6985],[-71.2727,-34.6861],[-71.2806,-34.6761],[-71.2724,-34.6706],[-71.1824,-34.7187],[-71.178,-34.7684],[-71.116,-34.7672],[-71.2128,-34.8352],[-71.261,-34.8243],[-71.2788,-34.7916],[-71.3555,-34.8263]]]},"properties":{"cod_comuna":6302,"comuna":"Chépica","provincia":"Colchagua","codregion":6}},{"type":"Feature","geometry":{"type":"Polygon","coordinates":[[[-70.3601,-35.0024],[-70.4152,-34.9836],[-70.4777,-34.9941],[-70.5413,-34.9339],[-70.6148,-34.9608],[-70.6222,-34.9876],[-70.7675,-34.8609],[-70.8131,-34.8527],[-70.8369,-34.7803],[-70.8885,-34.7358],[-70.8921,-34.6569],[-71.0463,-34.5914],[-71.0079,-34.5154],[-70.9568,-34.5174],[-70.9049,-34.4773],[-70.76,-34.5717],[-70.6607,-34.5482],[-70.6459,-34.5919],[-70.5767,-34.577],[-70.5219,-34.6087],[-70.4359,-34.5865],[-70.3029,-34.6451],[-70.2534,-34.7078],[-70.3094,-34.7697],[-70.2482,-34.7991],[-70.3326,-34.9371],[-70.3332,-34.9902],[-70.3601,-35.0024]]]},"properties":{"cod_comuna":6301,"comuna":"San Fernando","provincia":"Colchagua","codregion":6}}]}