{"type":"FeatureCollection","features":[{"type":"Feature","geometry":{"type":"Polygon","coordinates":[[[-72.1498,-35.0589],[-72.124,-35.036],[-72.0669,-35.0389],[-72.0004,-34.9812],[-71.9584,-35.0094],[-71.8164,-34.9716],[-71.7653,-35.0015],[-71.6713,-35.1551],[-71.7699,-35.1501],[-71.7898,-35.1894],[-71.8771,-35.2139],[-71.8968,-35.2584],[-71.9879,-35.2914],[-72.0404,-35.3467],[-72.0674,-35.2504],[-72.1257,-35.2349],[-72.1444,-35.1503],[-72.2122,-35.1223],[-72.185,-34.9726],[-72.1498,-35.0589]]]},"properties":{"cod_comuna":7103,"comuna":"Curepto","provincia":"Talca","codregion":7}},{"type":"Feature","geometry":{"type":"Polygon","coordinates":[[[-72.3141,-35.4807],[-72.2479,-35.5118],[-72.2282,-35.5837],[-72.174,-35.5797],[-72.1875,-35.6159],[-72.1388,-35.6659],[-72.0911,-35.6457],[-72.0843,-35.6725],[-72.032,-35.6712],[-72.0629,-35.7156],[-72.139,-35.6994],[-72.2399,-35.7354],[-72.2722,-35.6939],[-72.3244,-35.6737],[-72.373,-35.6935],[-72.4587,-35.6441],[-72.4218,-35.5344],[-72.4442,-35.5221],[-72.3837,-35.4851],[-72.3141,-35.4807]]]},"properties":{"cod_comuna":7104,"comuna":"Empedrado","provincia":"Talca","codregion":7}},{"type":"Feature","geometry":{"type":"Polygon","coordinates":[[[-71.7446,-35.1478],[-71.6788,-35.1615],[-71.669,-35.205],[-71.6289,-35.2281],[-71.5774,-35.2057],[-71.5564,-35.2268],[-71.5731,-35.2931],[-71.6518,-35.3143],[-71.668,-35.3778],[-71.7391,-35.4628],[-71.9667,-35.4704],[-72.0725,-35.4177],[-72.0934,-35.4422],[-72.1064,-35.4388],[-72.0893,-35.3734],[-71.9962,-35.3721],[-72.0214,-35.3374],[-71.9879,-35.2914],[-71.9354,-35.287],[-71.8771,-35.2139],[-71.7903,-35.1897],[-71.7446,-35.1478]]]},"properties":{"cod_comuna":7107,"comuna":"Pencahue","provincia":"Talca","codregion":7}},{"type":"Feature","geometry":{"type":"Polygon","coordinates":[[[-71.7381,-35.7046],[-71.7045,-35.7716],[-71.5121,-35.7846],[-71.4049,-35.8544],[-71.3378,-35.8383],[-71.2568,-35.8614],[-71.0462,-35.8589],[-71.0814,-35.9499],[-71.1328,-36.0004],[-71.0803,-36.0263],[-71.0709,-35.9918],[-71.035,-35.9996],[-71.0461,-36.0455],[-71.0056,-36.0879],[-71.0418,-36.2191],[-71.0634,-36.2256],[-71.1544,-36.0946],[-71.1975,-36.0935],[-71.2354,-36.1414],[-71.3086,-36.1687],[-71.3749,-36.1512],[-71.4016,-36.0438],[-71.4826,-35.9852],[-71.5086,-35.9158],[-71.6207,-35.893],[-71.7945,-35.7852],[-71.7737,-35.7192],[-71.7381,-35.7046]]]},"properties":{"cod_comuna":7401,"comuna":"Linares","provincia":"Linares","codregion":7}},{"type":"Feature","geometry":{"type":"Polygon","coordinates":[[[-71.7936,-35.7859],[-71.6207,-35.893],[-71.5086,-35.9158],[-71.4826,-35.9852],[-71.4016,-36.0438],[-71.3963,-36.1097],[-71.3581,-36.1603],[-71.2513,-36.1489],[-71.1873,-36.0914],[-71.1223,-36.1166],[-71.0613,-36.213],[-71.1555,-36.2624],[-71.1256,-36.3278],[-71.1671,-36.3866],[-71.2875,-36.3472],[-71.3688,-36.2354],[-71.5575,-36.2214],[-71.7184,-36.0394],[-71.7259,-35.9152],[-71.7644,-35.8912],[-71.7733,-35.8489],[-71.825,-35.8276],[-71.7936,-35.7859]]]},"properties":{"cod_comuna":7403,"comuna":"Longaví","provincia":"Linares","codregion":7}},{"type":"Feature","geometry":{"type":"Polygon","coordinates":[[[-71.6393,-35.3131],[-71.6212,-35.3554],[-71.5436,-35.359],[-71.5655,-35.413],[-71.4929,-35.423],[-71.5686,-35.5308],[-71.6447,-35.4561],[-71.7218,-35.4474],[-71.6393,-35.3131]]]},"properties":{"cod_comuna":7101,"comuna":"Talca","provincia":"Talca","codregion":7}},{"type":"Feature","geometry":{"type":"Polygon","coordinates":[[[-72.5643,-35.7552],[-72.6376,-35.6035],[-72.6183,-35.5618],[-72.5273,-35.578],[-72.4358,-35.541],[-72.4591,-35.6435],[-72.373,-35.6935],[-72.323,-35.6746],[-72.3414,-35.7496],[-72.3911,-35.8215],[-72.4668,-35.8477],[-72.4552,-35.8812],[-72.527,-35.8244],[-72.5289,-35.7799],[-72.5643,-35.7552]]]},"properties":{"cod_comuna":7202,"comuna":"Chanco","provincia":"Cauquenes","codregion":7}},{"type":"Feature","geometry":{"type":"Polygon","coordinates":[[[-72.5646,-35.7562],[-72.529,-35.7796],[-72.527,-35.8244],[-72.4274,-35.908],[-72.4596,-35.9438],[-72.4988,-35.9177],[-72.5626,-35.9592],[-72.6027,-35.9399],[-72.6338,-35.9516],[-72.6552,-36.0469],[-72.6865,-36.0187],[-72.778,-36.0144],[-72.7849,-35.9752],[-72.693,-35.9154],[-72.6489,-35.8465],[-72.577,-35.8132],[-72.5646,-35.7562]]]},"properties":{"cod_comuna":7203,"comuna":"Pelluhue","provincia":"Cauquenes","codregion":7}},{"type":"Feature","geometry":{"type":"Polygon","coordinates":[[[-72.4051,-35.2666],[-72.3724,-35.2111],[-72.2002,-35.1038],[-72.1971,-35.1406],[-72.1573,-35.1367],[-72.1363,-35.1642],[-72.1257,-35.2349],[-72.0674,-35.2504],[-72.0473,-35.3388],[-71.9959,-35.3717],[-72.0981,-35.3813],[-72.0961,-35.4325],[-72.2001,-35.5941],[-72.2963,-35.4774],[-72.3837,-35.4851],[-72.4442,-35.5221],[-72.4268,-35.5439],[-72.4871,-35.5483],[-72.5268,-35.5779],[-72.6177,-35.5658],[-72.4882,-35.4628],[-72.499,-35.3909],[-72.4088,-35.3191],[-72.4051,-35.2666]]]},"properties":{"cod_comuna":7102,"comuna":"Constitución","provincia":"Talca","codregion":7}},{"type":"Feature","geometry":{"type":"Polygon","coordinates":[[[-72.1598,-34.8806],[-72.0904,-34.907],[-72.0577,-34.9744],[-71.8868,-34.9371],[-71.8311,-34.9698],[-71.9584,-35.0094],[-72.0004,-34.9812],[-72.0669,-35.0389],[-72.124,-35.036],[-72.1539,-35.0584],[-72.1868,-34.9638],[-72.1598,-34.8806]]]},"properties":{"cod_comuna":7303,"comuna":"Licantén","provincia":"Curicó","codregion":7}},{"type":"Feature","geometry":{"type":"Polygon","coordinates":[[[-72.0603,-34.6892],[-72.005,-34.7049],[-71.9259,-34.8072],[-71.8679,-34.8183],[-71.8941,-34.8714],[-71.9433,-34.8531],[-71.9188,-34.9493],[-71.9627,-34.9657],[-72.0583,-34.9742],[-72.0904,-34.907],[-72.1578,-34.878],[-72.0603,-34.6892]]]},"properties":{"cod_comuna":7309,"comuna":"Vichuquén","provincia":"Curicó","codregion":7}},{"type":"Feature","geometry":{"type":"Polygon","coordinates":[[[-72.3207,-35.678],[-72.2399,-35.7354],[-72.139,-35.6994],[-72.0658,-35.7116],[-72.0666,-35.7597],[-71.9762,-35.8227],[-72.0209,-35.8341],[-72.01,-35.8562],[-72.0386,-35.8728],[-72.0173,-35.9072],[-72.0646,-35.9679],[-72.081,-36.0708],[-72.1065,-36.0815],[-72.0986,-36.156],[-72.1391,-36.2459],[-72.2373,-36.2069],[-72.2776,-36.2614],[-72.3156,-36.2326],[-72.3801,-36.2541],[-72.4122,-36.2078],[-72.3377,-36.2055],[-72.3384,-36.1744],[-72.5013,-36.1436],[-72.492,-36.0727],[-72.5832,-36.0779],[-72.6468,-36.0166],[-72.6338,-35.9516],[-72.6027,-35.9399],[-72.5626,-35.9592],[-72.4988,-35.9177],[-72.455,-35.9402],[-72.427,-35.9072],[-72.4668,-35.8477],[-72.3911,-35.8215],[-72.3207,-35.678]]]},"properties":{"cod_comuna":7201,"comuna":"Cauquenes","provincia":"Cauquenes","codregion":7}},{"type":"Feature","geometry":{"type":"Polygon","coordinates":[[[-71.3845,-35.2831],[-71.3618,-35.2657],[-71.4611,-35.2595],[-71.4316,-35.244],[-71.444,-35.2149],[-71.36,-35.1415],[-71.3096,-35.135],[-71.2259,-35.1831],[-71.1175,-35.3024],[-71.1123,-35.3715],[-71.0377,-35.4517],[-71.1213,-35.38],[-71.152,-35.3876],[-71.1886,-35.3357],[-71.2797,-35.3058],[-71.3711,-35.3239],[-71.3845,-35.2831]]]},"properties":{"cod_comuna":7108,"comuna":"Río Claro","provincia":"Talca","codregion":7}},{"type":"Feature","geometry":{"type":"Polygon","coordinates":[[[-71.3822,-35.3208],[-71.2707,-35.3074],[-71.1449,-35.3734],[-71.1568,-35.3918],[-71.2529,-35.37],[-71.272,-35.4692],[-71.3179,-35.4363],[-71.3893,-35.4445],[-71.5655,-35.413],[-71.5436,-35.359],[-71.434,-35.368],[-71.3822,-35.3208]]]},"properties":{"cod_comuna":7106,"comuna":"Pelarco","provincia":"Talca","codregion":7}},{"type":"Feature","geometry":{"type":"Polygon","coordinates":[[[-71.6537,-35.5607],[-71.5828,-35.5849],[-71.5999,-35.6237],[-71.5789,-35.6523],[-71.765,-35.6152],[-71.7632,-35.7106],[-71.7911,-35.7957],[-71.8214,-35.8086],[-71.8075,-35.843],[-71.8364,-35.8571],[-72.0272,-35.8026],[-72.0689,-35.739],[-72.032,-35.6712],[-72.0843,-35.6725],[-72.0911,-35.6457],[-72.1388,-35.6659],[-72.1877,-35.6152],[-72.1875,-35.5771],[-72.0748,-35.4177],[-71.9667,-35.4704],[-71.8853,-35.4631],[-71.7883,-35.5209],[-71.7535,-35.5733],[-71.692,-35.5499],[-71.6537,-35.5607]]]},"properties":{"cod_comuna":7406,"comuna":"San Javier","provincia":"Linares","codregion":7}},{"type":"Feature","geometry":{"type":"Polygon","coordinates":[[[-71.6271,-35.6453],[-71.5791,-35.6515],[-71.5745,-35.6885],[-71.6208,-35.692],[-71.6603,-35.7789],[-71.7045,-35.7716],[-71.7349,-35.7051],[-71.7702,-35.6997],[-71.7488,-35.6456],[-71.767,-35.6173],[-71.6271,-35.6453]]]},"properties":{"cod_comuna":7407,"comuna":"Villa Alegre","provincia":"Linares","codregion":7}},{"type":"Feature","geometry":{"type":"Polygon","coordinates":[[[-71.5756,-35.5859],[-71.4284,-35.6089],[-71.4397,-35.6452],[-71.5181,-35.7831],[-71.6648,-35.7838],[-71.6208,-35.692],[-71.5745,-35.6885],[-71.5999,-35.6237],[-71.5756,-35.5859]]]},"properties":{"cod_comuna":7408,"comuna":"Yerbas Buenas","provincia":"Linares","codregion":7}},{"type":"Feature","geometry":{"type":"Polygon","coordinates":[[[-71.7053,-35.4466],[-71.6447,-35.4561],[-71.5686,-35.5308],[-71.5735,-35.5864],[-71.69,-35.5498],[-71.7535,-35.5733],[-71.7883,-35.5209],[-71.8523,-35.4974],[-71.8841,-35.4639],[-71.7053,-35.4466]]]},"properties":{"cod_comuna":7105,"comuna":"Maule","provincia":"Talca","codregion":7}},{"type":"Feature","geometry":{"type":"Polygon","coordinates":[[[-71.4434,-35.2192],[-71.4316,-35.244],[-71.4539,-35.2479],[-71.4611,-35.2595],[-71.3618,-35.2657],[-71.4309,-35.3662],[-71.6212,-35.3554],[-71.6344,-35.3069],[-71.5731,-35.2931],[-71.5565,-35.2268],[-71.5072,-35.2451],[-71.4434,-35.2192]]]},"properties":{"cod_comuna":7110,"comuna":"San Rafael","provincia":"Talca","codregion":7}},{"type":"Feature","geometry":{"type":"Polygon","coordinates":[[[-71.3081,-34.9849],[-71.2565,-35.0384],[-71.3036,-35.0758],[-71.318,-35.0549],[-71.3348,-35.0776],[-71.4018,-35.0821],[-71.4996,-35.2414],[-71.5774,-35.2057],[-71.6289,-35.2281],[-71.6644,-35.21],[-71.7015,-35.0994],[-71.6224,-35.0848],[-71.5792,-35.0458],[-71.5012,-35.0428],[-71.4245,-34.9883],[-71.3081,-34.9849]]]},"properties":{"cod_comuna":7307,"comuna":"Sagrada Familia","provincia":"Curicó","codregion":7}},{"type":"Feature","geometry":{"type":"Polygon","coordinates":[[[-71.9365,-35.8289],[-71.8975,-35.8321],[-71.8963,-35.8511],[-71.835,-35.8568],[-71.8129,-35.8283],[-71.7733,-35.8489],[-71.7644,-35.8912],[-71.7257,-35.9155],[-71.7184,-36.0394],[-71.6792,-36.1037],[-71.568,-36.1903],[-71.575,-36.2112],[-71.6682,-36.2139],[-71.7739,-36.172],[-71.8714,-36.0059],[-71.9256,-36.0281],[-71.8902,-36.0624],[-71.9207,-36.0921],[-71.9936,-36.0522],[-72.0389,-35.8737],[-72.01,-35.8562],[-72.0209,-35.8341],[-71.9365,-35.8289]]]},"properties":{"cod_comuna":7405,"comuna":"Retiro","provincia":"Linares","codregion":7}},{"type":"Feature","geometry":{"type":"Polygon","coordinates":[[[-70.3882,-35.5165],[-70.425,-35.5598],[-70.435,-35.5076],[-70.5409,-35.3904],[-70.661,-35.3309],[-70.8434,-35.3059],[-70.9106,-35.3306],[-70.9762,-35.303],[-71.1815,-35.1345],[-71.2895,-34.9909],[-71.3889,-34.9818],[-71.2136,-34.8905],[-71.1587,-34.9037],[-71.2158,-34.9835],[-71.1592,-34.9631],[-71.1114,-34.9964],[-71.1052,-35.0596],[-70.9608,-35.0882],[-70.7272,-35.1932],[-70.7266,-35.2528],[-70.6444,-35.2443],[-70.632,-35.2641],[-70.5877,-35.2616],[-70.565,-35.3002],[-70.4321,-35.3184],[-70.4468,-35.4631],[-70.3675,-35.5213],[-70.3882,-35.5165]]]},"properties":{"cod_comuna":7301,"comuna":"Curicó","provincia":"Curicó","codregion":7}},{"type":"Feature","geometry":{"type":"Polygon","coordinates":[[[-70.4179,-35.627],[-70.4325,-35.5961],[-70.498,-35.5678],[-70.4948,-35.5157],[-70.5413,-35.4652],[-70.5932,-35.4772],[-70.6191,-35.5153],[-70.7342,-35.5439],[-70.7485,-35.5724],[-70.788,-35.5048],[-70.9334,-35.4999],[-71.0347,-35.4593],[-71.1123,-35.3715],[-71.1175,-35.3024],[-71.2259,-35.1831],[-71.3096,-35.135],[-71.36,-35.1415],[-71.4219,-35.2106],[-71.4948,-35.2355],[-71.4992,-35.2115],[-71.4506,-35.1792],[-71.4016,-35.0819],[-71.3348,-35.0776],[-71.318,-35.0549],[-71.3036,-35.0758],[-71.2487,-35.0277],[-71.1815,-35.1345],[-70.9762,-35.303],[-70.9106,-35.3306],[-70.857,-35.3069],[-70.7111,-35.3159],[-70.5419,-35.3895],[-70.4037,-35.5632],[-70.3846,-35.6058],[-70.4179,-35.627]]]},"properties":{"cod_comuna":7304,"comuna":"Molina","provincia":"Curicó","codregion":7}},{"type":"Feature","geometry":{"type":"Polygon","coordinates":[[[-70.6733,-36.249],[-70.7055,-36.272],[-70.6836,-36.3047],[-70.7111,-36.3448],[-70.6776,-36.3887],[-70.7124,-36.4268],[-70.7389,-36.4291],[-70.7465,-36.4058],[-70.7886,-36.4287],[-70.8174,-36.3959],[-70.8477,-36.4184],[-70.8843,-36.3965],[-70.8889,-36.4663],[-70.9571,-36.5034],[-71.0606,-36.4633],[-71.0593,-36.3871],[-71.1138,-36.3618],[-71.1556,-36.2629],[-71.0418,-36.2191],[-71.0183,-36.1795],[-71.0309,-36.123],[-71.0056,-36.0879],[-71.0461,-36.0455],[-71.0352,-35.9992],[-71.0709,-35.9918],[-71.0803,-36.0263],[-71.1328,-36.0004],[-71.0814,-35.9499],[-71.0462,-35.8589],[-71.2568,-35.8614],[-71.3378,-35.8383],[-71.4049,-35.8544],[-71.4842,-35.8202],[-71.5178,-35.7795],[-71.4284,-35.6089],[-71.3659,-35.6279],[-71.3347,-35.6801],[-71.2643,-35.6755],[-71.1981,-35.7256],[-71.0785,-35.7066],[-71.0011,-35.8644],[-70.8719,-35.9911],[-70.7823,-35.9655],[-70.5758,-36.004],[-70.6206,-36.0396],[-70.5993,-36.0577],[-70.6245,-36.1039],[-70.5727,-36.1214],[-70.571,-36.175],[-70.6324,-36.239],[-70.6733,-36.249]]]},"properties":{"cod_comuna":7402,"comuna":"Colbún","provincia":"Linares","codregion":7}},{"type":"Feature","geometry":{"type":"Polygon","coordinates":[[[-70.4758,-36.1737],[-70.6238,-36.1069],[-70.5993,-36.0577],[-70.6206,-36.0396],[-70.5773,-36.003],[-70.7823,-35.9655],[-70.8719,-35.9911],[-70.8903,-35.9567],[-70.9344,-35.9428],[-71.0785,-35.7066],[-71.1981,-35.7256],[-71.2643,-35.6755],[-71.3369,-35.679],[-71.4032,-35.6094],[-71.5759,-35.5867],[-71.5707,-35.5314],[-71.4929,-35.423],[-71.3179,-35.4363],[-71.272,-35.4692],[-71.2529,-35.37],[-71.1585,-35.3917],[-71.1223,-35.3797],[-71.0092,-35.4719],[-70.9334,-35.4999],[-70.7876,-35.505],[-70.7485,-35.5724],[-70.7342,-35.5439],[-70.6191,-35.5153],[-70.5932,-35.4772],[-70.5403,-35.4656],[-70.4948,-35.5157],[-70.4989,-35.5665],[-70.4279,-35.6],[-70.3745,-35.7002],[-70.3582,-35.7534],[-70.3793,-35.7869],[-70.3117,-35.8132],[-70.4212,-35.8763],[-70.423,-35.9152],[-70.365,-35.925],[-70.4224,-35.9725],[-70.3747,-35.9947],[-70.3692,-36.0382],[-70.4119,-36.0602],[-70.4209,-36.156],[-70.4758,-36.1737]]]},"properties":{"cod_comuna":7109,"comuna":"San Clemente","provincia":"Talca","codregion":7}},{"type":"Feature","geometry":{"type":"Polygon","coordinates":[[[-71.8647,-34.8184],[-71.8179,-34.8408],[-71.7945,-34.8277],[-71.7096,-34.9373],[-71.6749,-34.9236],[-71.6886,-34.897],[-71.6617,-34.8552],[-71.6063,-34.8832],[-71.5341,-34.8696],[-71.5776,-34.9373],[-71.4616,-34.9633],[-71.4617,-34.9836],[-71.5656,-35.0079],[-71.6224,-35.0848],[-71.7065,-35.0986],[-71.7734,-34.9952],[-71.8474,-34.9787],[-71.8531,-34.9408],[-71.9188,-34.9493],[-71.9372,-34.9252],[-71.9433,-34.8531],[-71.8941,-34.8714],[-71.8647,-34.8184]]]},"properties":{"cod_comuna":7302,"comuna":"Hualañé","provincia":"Curicó","codregion":7}},{"type":"Feature","geometry":{"type":"Polygon","coordinates":[[[-71.3609,-34.8332],[-71.3359,-34.8669],[-71.2635,-34.8685],[-71.2631,-34.9296],[-71.4397,-34.9946],[-71.5012,-35.0428],[-71.5918,-35.0544],[-71.5656,-35.0079],[-71.4827,-34.9967],[-71.4574,-34.9722],[-71.5776,-34.9373],[-71.5687,-34.9106],[-71.5156,-34.8757],[-71.3653,-34.9127],[-71.3873,-34.8741],[-71.3609,-34.8332]]]},"properties":{"cod_comuna":7305,"comuna":"Rauco","provincia":"Curicó","codregion":7}},{"type":"Feature","geometry":{"type":"Polygon","coordinates":[[[-71.1318,-34.7902],[-71.0987,-34.8281],[-71.0468,-34.7924],[-70.9574,-34.872],[-70.8833,-34.8501],[-70.8217,-34.8713],[-70.8095,-34.8523],[-70.7699,-34.8594],[-70.7496,-34.8947],[-70.7969,-34.9891],[-70.8273,-35.0032],[-70.9806,-34.9709],[-71.0026,-34.9447],[-71.199,-34.8877],[-71.2631,-34.9296],[-71.2635,-34.8685],[-71.3648,-34.8467],[-71.3022,-34.7951],[-71.2133,-34.8353],[-71.1318,-34.7902]]]},"properties":{"cod_comuna":7308,"comuna":"Teno","provincia":"Curicó","codregion":7}},{"type":"Feature","geometry":{"type":"Polygon","coordinates":[[[-70.6183,-34.9783],[-70.5413,-34.9339],[-70.4777,-34.9941],[-70.4106,-34.9846],[-70.3613,-35.0206],[-70.3747,-35.1701],[-70.4723,-35.2038],[-70.5269,-35.1942],[-70.5817,-35.2725],[-70.6444,-35.2443],[-70.7266,-35.2528],[-70.7265,-35.1936],[-70.9608,-35.0882],[-71.1052,-35.0596],[-71.1114,-34.9964],[-71.1592,-34.9631],[-71.2158,-34.9835],[-71.1587,-34.9037],[-70.8263,-35.0031],[-70.7481,-34.8846],[-70.6183,-34.9783]]]},"properties":{"cod_comuna":7306,"comuna":"Romeral","provincia":"Curicó","codregion":7}},{"type":"Feature","geometry":{"type":"Polygon","coordinates":[[[-72.0233,-35.9163],[-71.9936,-36.0522],[-71.9207,-36.0921],[-71.8902,-36.0624],[-71.9256,-36.0281],[-71.8714,-36.0059],[-71.7754,-36.1704],[-71.7215,-36.202],[-71.6055,-36.2181],[-71.564,-36.196],[-71.5213,-36.238],[-71.4822,-36.2189],[-71.4483,-36.2374],[-71.3871,-36.2289],[-71.2371,-36.3792],[-71.1671,-36.3866],[-71.1256,-36.3269],[-71.1138,-36.3618],[-71.2249,-36.4626],[-71.2815,-36.4483],[-71.3374,-36.5434],[-71.3528,-36.5125],[-71.4098,-36.5032],[-71.4672,-36.412],[-71.5712,-36.4043],[-71.701,-36.3532],[-71.8115,-36.2547],[-71.9727,-36.2594],[-72.0227,-36.175],[-72.1031,-36.1232],[-72.0646,-35.9679],[-72.0233,-35.9163]]]},"properties":{"cod_comuna":7404,"comuna":"Parral","provincia":"Linares","codregion":7}}]}