{"type":"FeatureCollection","features":[{"type":"Feature","geometry":{"type":"Polygon","coordinates":[[[-73.3638,-37.6934],[-73.2447,-37.7468],[-73.1156,-37.7036],[-73.1017,-37.7265],[-73.0405,-37.71],[-73.0156,-37.7473],[-73.0415,-37.7805],[-73.0234,-37.8043],[-73.0767,-37.8624],[-73.1476,-37.8477],[-73.2019,-37.8761],[-73.275,-37.8388],[-73.2585,-37.8591],[-73.323,-37.9131],[-73.297,-37.9403],[-73.3522,-37.9469],[-73.252,-38.0602],[-73.3115,-38.0636],[-73.3184,-38.1145],[-73.4427,-38.1309],[-73.5452,-37.8697],[-73.496,-37.8392],[-73.4324,-37.7126],[-73.3896,-37.6961],[-73.3726,-37.7117],[-73.3638,-37.6934]]]},"properties":{"cod_comuna":8203,"comuna":"Cañete","provincia":"Arauco","codregion":8}},{"type":"Feature","geometry":{"type":"Polygon","coordinates":[[[-73.2713,-37.8392],[-73.2019,-37.8761],[-73.1476,-37.8477],[-73.0767,-37.8624],[-73.1251,-37.8774],[-73.12,-37.9594],[-73.1863,-37.9882],[-73.2062,-38.0531],[-73.0814,-38.0951],[-73.0727,-38.1238],[-73.0924,-38.1918],[-73.1314,-38.1836],[-73.1383,-38.2156],[-73.2014,-38.2312],[-73.2222,-38.2719],[-73.2771,-38.2973],[-73.2329,-38.2433],[-73.3253,-38.1691],[-73.3275,-38.1169],[-73.3016,-38.1038],[-73.3115,-38.0636],[-73.252,-38.0602],[-73.3523,-37.9464],[-73.297,-37.9403],[-73.323,-37.9131],[-73.2585,-37.8591],[-73.2713,-37.8392]]]},"properties":{"cod_comuna":8204,"comuna":"Contulmo","provincia":"Arauco","codregion":8}},{"type":"Feature","geometry":{"type":"Polygon","coordinates":[[[-73.3923,-37.3529],[-73.3064,-37.3596],[-73.279,-37.3296],[-73.2247,-37.3571],[-73.1269,-37.3557],[-73.1217,-37.428],[-72.9859,-37.4461],[-73.0808,-37.6768],[-73.1258,-37.6828],[-73.1264,-37.641],[-73.1643,-37.6062],[-73.3117,-37.5946],[-73.3814,-37.5473],[-73.4388,-37.559],[-73.4186,-37.4756],[-73.4888,-37.4525],[-73.4796,-37.4305],[-73.5053,-37.4232],[-73.487,-37.3844],[-73.4266,-37.3675],[-73.3983,-37.3287],[-73.3923,-37.3529]]]},"properties":{"cod_comuna":8205,"comuna":"Curanilahue","provincia":"Arauco","codregion":8}},{"type":"Feature","geometry":{"type":"MultiPolygon","coordinates":[[[[-73.9507,-38.3161],[-73.8657,-38.3689],[-73.886,-38.4184],[-73.9399,-38.4179],[-73.9507,-38.3161]]],[[[-73.6575,-37.7261],[-73.6801,-37.6265],[-73.6453,-37.5565],[-73.5979,-37.5282],[-73.5972,-37.4395],[-73.5411,-37.4504],[-73.5152,-37.4232],[-73.4834,-37.429],[-73.4888,-37.4525],[-73.4186,-37.4758],[-73.476,-37.5991],[-73.5022,-37.5913],[-73.506,-37.6154],[-73.5298,-37.5864],[-73.5409,-37.585],[-73.4933,-37.649],[-73.5193,-37.6672],[-73.5125,-37.7437],[-73.5575,-37.8074],[-73.5829,-37.8159],[-73.6575,-37.7261]]]]},"properties":{"cod_comuna":8201,"comuna":"Lebu","provincia":"Arauco","codregion":8}},{"type":"Feature","geometry":{"type":"Polygon","coordinates":[[[-73.4226,-37.5447],[-73.3117,-37.5946],[-73.1643,-37.6062],[-73.1264,-37.641],[-73.114,-37.7035],[-73.2148,-37.7224],[-73.2311,-37.7468],[-73.3525,-37.6943],[-73.4248,-37.7075],[-73.496,-37.8392],[-73.5452,-37.8697],[-73.5816,-37.8162],[-73.5125,-37.7437],[-73.5193,-37.6672],[-73.5043,-37.66],[-73.4933,-37.649],[-73.5409,-37.585],[-73.5054,-37.6153],[-73.5022,-37.5913],[-73.4781,-37.6006],[-73.4633,-37.5582],[-73.4226,-37.5447]]]},"properties":{"cod_comuna":8206,"comuna":"Los Alamos","provincia":"Arauco","codregion":8}},{"type":"Feature","geometry":{"type":"Polygon","coordinates":[[[-72.5997,-37.229],[-72.5163,-37.2417],[-72.438,-37.3254],[-72.4324,-37.3531],[-72.4819,-37.392],[-72.5788,-37.3937],[-72.7064,-37.3489],[-72.7323,-37.2734],[-72.5997,-37.229]]]},"properties":{"cod_comuna":8304,"comuna":"Laja","provincia":"Bío-Bío","codregion":8}},{"type":"Feature","geometry":{"type":"Polygon","coordinates":[[[-72.1182,-37.1789],[-72.0399,-37.2051],[-72.0671,-37.2301],[-72.0857,-37.2206],[-72.1366,-37.316],[-72.0967,-37.3208],[-72.0678,-37.4001],[-72.1057,-37.4465],[-72.0422,-37.4472],[-72.1766,-37.5423],[-72.1235,-37.5653],[-72.1574,-37.586],[-72.1753,-37.663],[-72.2317,-37.6106],[-72.2647,-37.6165],[-72.3495,-37.5689],[-72.4411,-37.5568],[-72.5743,-37.5799],[-72.5998,-37.5048],[-72.6817,-37.4757],[-72.6714,-37.3727],[-72.4819,-37.392],[-72.4324,-37.3531],[-72.5088,-37.2514],[-72.4715,-37.2195],[-72.1182,-37.1789]]]},"properties":{"cod_comuna":8301,"comuna":"Los Angeles","provincia":"Bío-Bío","codregion":8}},{"type":"Feature","geometry":{"type":"Polygon","coordinates":[[[-72.4333,-37.5619],[-72.2317,-37.6106],[-72.1867,-37.6622],[-71.9934,-37.7325],[-71.9695,-37.8089],[-71.9172,-37.8444],[-71.7802,-37.8947],[-71.7597,-37.9286],[-71.692,-37.9311],[-71.6415,-37.9598],[-71.6497,-38.0426],[-71.6224,-38.0538],[-71.636,-38.0934],[-71.6127,-38.1073],[-71.6408,-38.1373],[-71.6665,-38.1315],[-71.6862,-38.1822],[-71.7066,-38.1885],[-71.6939,-38.1691],[-71.7214,-38.1462],[-71.7005,-38.0697],[-71.7379,-38.0413],[-71.7765,-38.0303],[-71.8887,-38.0755],[-71.9656,-37.9942],[-72.0491,-38.0141],[-72.102,-37.9987],[-72.1291,-37.953],[-72.2452,-37.8784],[-72.3177,-37.8815],[-72.4005,-37.8423],[-72.4794,-37.7479],[-72.4817,-37.5847],[-72.531,-37.578],[-72.4333,-37.5619]]]},"properties":{"cod_comuna":8305,"comuna":"Mulchén","provincia":"Bío-Bío","codregion":8}},{"type":"Feature","geometry":{"type":"Polygon","coordinates":[[[-72.7201,-37.3025],[-72.6666,-37.3835],[-72.6817,-37.4757],[-72.595,-37.5107],[-72.6528,-37.5344],[-72.6331,-37.6008],[-72.655,-37.6254],[-72.7272,-37.626],[-72.776,-37.5817],[-72.9274,-37.6197],[-73.0674,-37.624],[-73.0132,-37.5578],[-73.0235,-37.4989],[-72.9692,-37.4479],[-72.9432,-37.3702],[-72.8971,-37.344],[-72.8113,-37.3443],[-72.8034,-37.3073],[-72.7499,-37.3229],[-72.729,-37.2758],[-72.7201,-37.3025]]]},"properties":{"cod_comuna":8306,"comuna":"Nacimiento","provincia":"Bío-Bío","codregion":8}},{"type":"Feature","geometry":{"type":"Polygon","coordinates":[[[-72.5955,-37.531],[-72.5743,-37.5799],[-72.4839,-37.5804],[-72.4916,-37.6553],[-72.6509,-37.6646],[-72.6331,-37.6008],[-72.6528,-37.5344],[-72.5955,-37.531]]]},"properties":{"cod_comuna":8307,"comuna":"Negrete","provincia":"Bío-Bío","codregion":8}},{"type":"Feature","geometry":{"type":"Polygon","coordinates":[[[-72.076,-37.653],[-71.894,-37.7157],[-71.8246,-37.7088],[-71.7762,-37.763],[-71.7081,-37.7746],[-71.6744,-37.8118],[-71.6747,-37.8676],[-71.6039,-37.9282],[-71.5682,-37.9316],[-71.5519,-37.984],[-71.4854,-38.0025],[-71.4787,-38.0437],[-71.4283,-38.0711],[-71.4101,-38.1236],[-71.4345,-38.1754],[-71.5318,-38.204],[-71.5536,-38.2461],[-71.6086,-38.2408],[-71.6435,-38.314],[-71.7093,-38.2659],[-71.6879,-38.2456],[-71.7155,-38.21],[-71.6665,-38.1315],[-71.6408,-38.1373],[-71.6127,-38.1073],[-71.636,-38.0934],[-71.6224,-38.0538],[-71.6497,-38.0426],[-71.6407,-37.9607],[-71.692,-37.9311],[-71.7597,-37.9286],[-71.7802,-37.8947],[-71.9172,-37.8444],[-71.9695,-37.8089],[-71.9924,-37.7333],[-72.0986,-37.7071],[-72.1571,-37.6639],[-72.076,-37.653]]]},"properties":{"cod_comuna":8308,"comuna":"Quilaco","provincia":"Bío-Bío","codregion":8}},{"type":"Feature","geometry":{"type":"Polygon","coordinates":[[[-72.0304,-37.229],[-71.9222,-37.3503],[-71.7913,-37.3438],[-71.6417,-37.4034],[-71.5762,-37.4665],[-71.4639,-37.4665],[-71.4626,-37.5587],[-71.5006,-37.5711],[-71.55,-37.5411],[-71.6767,-37.5455],[-71.7918,-37.5034],[-71.8566,-37.5125],[-71.898,-37.5497],[-71.9721,-37.5315],[-72.1574,-37.586],[-72.1236,-37.5647],[-72.1766,-37.5423],[-72.0422,-37.4472],[-72.1057,-37.4465],[-72.0678,-37.4001],[-72.0967,-37.3208],[-72.1366,-37.316],[-72.131,-37.2977],[-72.0857,-37.2206],[-72.0671,-37.2301],[-72.0399,-37.2051],[-72.0304,-37.229]]]},"properties":{"cod_comuna":8309,"comuna":"Quilleco","provincia":"Bío-Bío","codregion":8}},{"type":"Feature","geometry":{"type":"Polygon","coordinates":[[[-72.7937,-37.1666],[-72.7517,-37.1952],[-72.6725,-37.1727],[-72.6419,-37.2376],[-72.7323,-37.2734],[-72.7685,-37.2125],[-72.8237,-37.1999],[-72.7937,-37.1666]]]},"properties":{"cod_comuna":8310,"comuna":"San Rosendo","provincia":"Bío-Bío","codregion":8}},{"type":"Feature","geometry":{"type":"Polygon","coordinates":[[[-71.5303,-37.0679],[-71.4844,-37.1154],[-71.5137,-37.1484],[-71.5288,-37.3142],[-71.6719,-37.3102],[-71.9143,-37.3511],[-72.062,-37.1935],[-72.0662,-37.1678],[-72.0357,-37.1656],[-71.9905,-37.1932],[-71.8898,-37.1825],[-71.797,-37.1086],[-71.687,-37.1443],[-71.5625,-37.1338],[-71.5303,-37.0679]]]},"properties":{"cod_comuna":8312,"comuna":"Tucapel","provincia":"Bío-Bío","codregion":8}},{"type":"Feature","geometry":{"type":"Polygon","coordinates":[[[-73.0403,-36.8528],[-72.9889,-36.876],[-72.946,-36.8666],[-72.9466,-36.9142],[-72.9755,-36.937],[-72.995,-36.9154],[-73.0194,-36.9662],[-73.0635,-36.853],[-73.0403,-36.8528]]]},"properties":{"cod_comuna":8103,"comuna":"Chiguayante","provincia":"Concepción","codregion":8}},{"type":"Feature","geometry":{"type":"Polygon","coordinates":[[[-72.9394,-36.7674],[-72.9071,-36.7979],[-72.8468,-36.7927],[-72.8697,-36.8622],[-72.8511,-36.9179],[-72.8862,-36.9272],[-72.9275,-36.8909],[-72.9431,-36.9038],[-72.9463,-36.8664],[-73.0635,-36.853],[-73.0905,-36.8216],[-73.0568,-36.7777],[-72.9394,-36.7674]]]},"properties":{"cod_comuna":8101,"comuna":"Concepción","provincia":"Concepción","codregion":8}},{"type":"Feature","geometry":{"type":"MultiPolygon","coordinates":[[[[-73.5232,-36.9721],[-73.5212,-37.0068],[-73.454,-37.0515],[-73.5089,-37.0429],[-73.5202,-37.0781],[-73.556,-37.0256],[-73.5232,-36.9721]]],[[[-73.1457,-37.0408],[-73.1882,-36.9995],[-73.1533,-36.9048],[-73.0865,-36.9241],[-73.066,-36.975],[-73.0322,-36.953],[-72.9555,-36.9731],[-72.9771,-37.0691],[-73.0216,-37.0717],[-73.0387,-37.103],[-73.0796,-37.0488],[-73.1398,-37.0739],[-73.1457,-37.0408]]]]},"properties":{"cod_comuna":8102,"comuna":"Coronel","provincia":"Concepción","codregion":8}},{"type":"Feature","geometry":{"type":"Polygon","coordinates":[[[-72.6965,-36.6528],[-72.6171,-36.6911],[-72.5854,-36.7483],[-72.593,-36.8161],[-72.5384,-36.8495],[-72.5731,-36.8656],[-72.5708,-36.8937],[-72.6451,-36.8834],[-72.6474,-36.9523],[-72.683,-36.937],[-72.7623,-36.9596],[-72.7914,-36.9399],[-72.8206,-36.9613],[-72.8696,-36.8628],[-72.8447,-36.8381],[-72.8698,-36.771],[-72.8572,-36.746],[-72.7371,-36.7287],[-72.705,-36.7048],[-72.7195,-36.6553],[-72.6965,-36.6528]]]},"properties":{"cod_comuna":8104,"comuna":"Florida","provincia":"Concepción","codregion":8}},{"type":"Feature","geometry":{"type":"Polygon","coordinates":[[[-72.9255,-36.8921],[-72.8862,-36.9272],[-72.8398,-36.9154],[-72.8206,-36.9613],[-72.7914,-36.9399],[-72.7373,-36.9588],[-72.775,-37.0012],[-72.7241,-37.0392],[-72.7765,-37.077],[-72.764,-37.1381],[-72.8237,-37.1999],[-72.9282,-37.1689],[-72.9796,-37.1069],[-72.9547,-36.9758],[-73.0194,-36.9662],[-72.995,-36.9154],[-72.9746,-36.9369],[-72.9255,-36.8921]]]},"properties":{"cod_comuna":8105,"comuna":"Hualqui","provincia":"Concepción","codregion":8}},{"type":"Feature","geometry":{"type":"MultiPolygon","coordinates":[[[[-73.1641,-37.1072],[-73.1642,-37.1077],[-73.1651,-37.1072],[-73.1647,-37.107],[-73.1641,-37.1072]]],[[[-73.1552,-37.073],[-73.0756,-37.0512],[-73.0422,-37.101],[-73.0666,-37.1974],[-73.1159,-37.1536],[-73.1725,-37.16],[-73.1854,-37.1523],[-73.1526,-37.1168],[-73.1742,-37.0887],[-73.1552,-37.073]]]]},"properties":{"cod_comuna":8106,"comuna":"Lota","provincia":"Concepción","codregion":8}},{"type":"Feature","geometry":{"type":"Polygon","coordinates":[[[-73.1633,-36.8179],[-73.0683,-36.8405],[-73.0322,-36.953],[-73.0649,-36.9747],[-73.0865,-36.9241],[-73.1533,-36.9048],[-73.1633,-36.8179]]]},"properties":{"cod_comuna":8108,"comuna":"San Pedro de la Paz","provincia":"Concepción","codregion":8}},{"type":"Feature","geometry":{"type":"Polygon","coordinates":[[[-72.993,-37.0683],[-72.9602,-37.1458],[-72.8542,-37.2022],[-72.7704,-37.211],[-72.7267,-37.2942],[-72.7499,-37.3229],[-72.8041,-37.3075],[-72.8113,-37.3443],[-72.9238,-37.3535],[-72.9787,-37.4511],[-73.1217,-37.428],[-73.134,-37.3543],[-73.0656,-37.2558],[-73.1179,-37.2171],[-73.0666,-37.1974],[-73.0472,-37.1097],[-72.993,-37.0683]]]},"properties":{"cod_comuna":8109,"comuna":"Santa Juana","provincia":"Concepción","codregion":8}},{"type":"Feature","geometry":{"type":"Polygon","coordinates":[[[-72.5979,-36.9243],[-72.5185,-36.932],[-72.5108,-37.0803],[-72.5326,-37.0979],[-72.4707,-37.1161],[-72.5116,-37.1354],[-72.4422,-37.1495],[-72.4513,-37.1878],[-72.4307,-37.1843],[-72.4224,-37.2145],[-72.5082,-37.2489],[-72.6419,-37.2376],[-72.6725,-37.1727],[-72.7517,-37.1952],[-72.792,-37.1673],[-72.764,-37.1381],[-72.7765,-37.077],[-72.7236,-37.0374],[-72.7744,-36.9965],[-72.7044,-36.9394],[-72.6491,-36.9527],[-72.6485,-36.9184],[-72.5979,-36.9243]]]},"properties":{"cod_comuna":8313,"comuna":"Yumbel","provincia":"Bío-Bío","codregion":8}},{"type":"Feature","geometry":{"type":"Polygon","coordinates":[[[-72.4716,-36.911],[-72.4202,-36.931],[-72.3853,-36.9118],[-72.326,-36.9814],[-72.1918,-37.0307],[-72.1872,-37.0531],[-72.2613,-37.0926],[-72.2773,-37.2049],[-72.4216,-37.2149],[-72.4307,-37.1843],[-72.4513,-37.1878],[-72.4422,-37.1495],[-72.5116,-37.1354],[-72.4707,-37.1161],[-72.5326,-37.0979],[-72.5108,-37.0803],[-72.5169,-36.9394],[-72.5022,-36.8957],[-72.4716,-36.911]]]},"properties":{"cod_comuna":8303,"comuna":"Cabrero","provincia":"Bío-Bío","codregion":8}},{"type":"Feature","geometry":{"type":"Polygon","coordinates":[[[-71.2115,-37.2726],[-71.1992,-37.3811],[-71.1518,-37.4022],[-71.1175,-37.4886],[-71.1499,-37.5393],[-71.128,-37.5876],[-71.2234,-37.659],[-71.2837,-37.5843],[-71.3932,-37.5153],[-71.416,-37.4622],[-71.5669,-37.4699],[-71.6417,-37.4034],[-71.7913,-37.3438],[-71.8721,-37.3575],[-71.8856,-37.3518],[-71.9071,-37.3537],[-71.9244,-37.3485],[-71.6719,-37.3102],[-71.5237,-37.3109],[-71.5137,-37.1484],[-71.4845,-37.1145],[-71.5137,-37.0673],[-71.5439,-37.0627],[-71.5516,-37.0196],[-71.5104,-37.0045],[-71.41,-37.0903],[-71.3841,-37.0671],[-71.27,-37.1115],[-71.0962,-37.1096],[-71.1345,-37.1422],[-71.1148,-37.2067],[-71.1697,-37.2251],[-71.1873,-37.2762],[-71.2115,-37.2726]]]},"properties":{"cod_comuna":8302,"comuna":"Antuco","provincia":"Bío-Bío","codregion":8}},{"type":"Feature","geometry":{"type":"Polygon","coordinates":[[[-71.3224,-37.5553],[-71.2429,-37.6584],[-71.2006,-37.6543],[-71.2093,-37.6983],[-71.1255,-37.8219],[-71.1833,-37.8583],[-71.1408,-37.8592],[-71.1071,-37.891],[-71.1141,-37.9517],[-71.0617,-37.9704],[-71.0556,-38.0446],[-70.992,-38.0834],[-70.9906,-38.1109],[-71.0449,-38.1222],[-71.0853,-38.0896],[-71.2828,-38.1104],[-71.3546,-38.0842],[-71.4155,-38.1065],[-71.4391,-38.0582],[-71.4787,-38.0437],[-71.4838,-38.0038],[-71.5519,-37.984],[-71.5682,-37.9316],[-71.6049,-37.9275],[-71.6908,-37.8419],[-71.6584,-37.7666],[-71.5996,-37.7537],[-71.6129,-37.7308],[-71.5825,-37.6805],[-71.5463,-37.6872],[-71.4967,-37.6395],[-71.3847,-37.6336],[-71.3825,-37.5657],[-71.3224,-37.5553]]]},"properties":{"cod_comuna":8314,"comuna":"Alto Biobío","provincia":"Bío-Bío","codregion":8}},{"type":"Feature","geometry":{"type":"Polygon","coordinates":[[[-73.4987,-38.3378],[-73.514,-38.2608],[-73.4673,-38.2293],[-73.4521,-38.1163],[-73.4415,-38.1309],[-73.4144,-38.1132],[-73.3275,-38.1169],[-73.3253,-38.1691],[-73.2329,-38.2433],[-73.3411,-38.3656],[-73.3079,-38.3747],[-73.3088,-38.4121],[-73.2722,-38.4354],[-73.2746,-38.49],[-73.3213,-38.4823],[-73.3203,-38.4375],[-73.3825,-38.3986],[-73.4738,-38.473],[-73.5172,-38.4811],[-73.5295,-38.3872],[-73.4987,-38.3378]]]},"properties":{"cod_comuna":8207,"comuna":"Tirúa","provincia":"Arauco","codregion":8}},{"type":"Feature","geometry":{"type":"Polygon","coordinates":[[[-73.1746,-36.7597],[-73.0743,-36.7851],[-73.0664,-36.7955],[-73.0905,-36.8216],[-73.1747,-36.8137],[-73.1929,-36.7812],[-73.2117,-36.7867],[-73.216,-36.7848],[-73.2179,-36.787],[-73.221,-36.7859],[-73.1917,-36.7466],[-73.1746,-36.7597]]]},"properties":{"cod_comuna":8112,"comuna":"Hualpén","provincia":"Concepción","codregion":8}},{"type":"Feature","geometry":{"type":"MultiPolygon","coordinates":[[[[-73.1363,-36.6723],[-73.1377,-36.6723],[-73.1376,-36.6715],[-73.1372,-36.6715],[-73.1363,-36.6723]]],[[[-73.141,-36.6913],[-73.1065,-36.6151],[-73.1073,-36.7211],[-73.0096,-36.7386],[-73.0664,-36.7955],[-73.1517,-36.7627],[-73.1268,-36.7369],[-73.1625,-36.7125],[-73.141,-36.6913]]],[[[-73.049,-36.604],[-73.0472,-36.6041],[-73.0513,-36.6286],[-73.0588,-36.6335],[-73.0552,-36.643],[-73.0713,-36.6478],[-73.049,-36.604]]]]},"properties":{"cod_comuna":8110,"comuna":"Talcahuano","provincia":"Concepción","codregion":8}},{"type":"Feature","geometry":{"type":"Polygon","coordinates":[[[-72.9742,-36.6912],[-72.9265,-36.6945],[-72.9114,-36.7204],[-72.8917,-36.7072],[-72.8566,-36.7494],[-72.8637,-36.7945],[-72.9071,-36.7979],[-72.9434,-36.7638],[-73.0401,-36.7766],[-72.9742,-36.6912]]]},"properties":{"cod_comuna":8107,"comuna":"Penco","provincia":"Concepción","codregion":8}},{"type":"Feature","geometry":{"type":"Polygon","coordinates":[[[-72.888,-36.4434],[-72.8097,-36.4597],[-72.8011,-36.5107],[-72.8278,-36.5264],[-72.7982,-36.6059],[-72.7337,-36.6172],[-72.7158,-36.6651],[-72.705,-36.7048],[-72.7799,-36.7417],[-72.8661,-36.7488],[-72.8917,-36.7072],[-72.9114,-36.7204],[-72.9844,-36.6727],[-72.9559,-36.6268],[-73.0019,-36.5786],[-72.9757,-36.5259],[-72.9532,-36.5234],[-72.9549,-36.5567],[-72.9317,-36.5433],[-72.888,-36.4434]]]},"properties":{"cod_comuna":8111,"comuna":"Tomé","provincia":"Concepción","codregion":8}},{"type":"Feature","geometry":{"type":"Polygon","coordinates":[[[-73.6122,-37.4154],[-73.6348,-37.375],[-73.685,-37.3674],[-73.6839,-37.3355],[-73.6557,-37.2995],[-73.6495,-37.2027],[-73.5873,-37.1453],[-73.5427,-37.2047],[-73.457,-37.2046],[-73.4301,-37.2389],[-73.3876,-37.244],[-73.2685,-37.2238],[-73.1866,-37.1525],[-73.099,-37.1629],[-73.0801,-37.202],[-73.1188,-37.2236],[-73.0656,-37.2558],[-73.1332,-37.3569],[-73.2247,-37.3571],[-73.279,-37.3296],[-73.3064,-37.3596],[-73.3901,-37.3559],[-73.3983,-37.3287],[-73.5407,-37.4502],[-73.5883,-37.4473],[-73.6122,-37.4154]]]},"properties":{"cod_comuna":8202,"comuna":"Arauco","provincia":"Arauco","codregion":8}},{"type":"Feature","geometry":{"type":"Polygon","coordinates":[[[-71.6226,-37.7696],[-71.6573,-37.7661],[-71.6948,-37.8051],[-71.7081,-37.7746],[-71.7762,-37.763],[-71.8246,-37.7088],[-71.894,-37.7157],[-72.0855,-37.6479],[-72.1722,-37.6644],[-72.1568,-37.5899],[-71.9721,-37.5315],[-71.898,-37.5497],[-71.8566,-37.5125],[-71.7918,-37.5034],[-71.7357,-37.5102],[-71.7039,-37.5405],[-71.55,-37.5411],[-71.4873,-37.5708],[-71.4626,-37.5587],[-71.4713,-37.473],[-71.416,-37.4622],[-71.3526,-37.5491],[-71.3911,-37.579],[-71.3814,-37.6288],[-71.4967,-37.6395],[-71.5463,-37.6872],[-71.5822,-37.6802],[-71.6226,-37.7696]]]},"properties":{"cod_comuna":8311,"comuna":"Santa Bárbara","provincia":"Bío-Bío","codregion":8}}]}