{"type":"FeatureCollection","features":[{"type":"Feature","geometry":{"type":"Polygon","coordinates":[[[-72.9589,-38.4687],[-72.9212,-38.4925],[-72.874,-38.4859],[-72.8455,-38.5207],[-72.8114,-38.5141],[-72.7947,-38.5906],[-72.7586,-38.5931],[-72.7566,-38.6538],[-72.8111,-38.7135],[-72.8736,-38.6871],[-72.8871,-38.6479],[-72.908,-38.6598],[-72.9628,-38.6264],[-73.0067,-38.6486],[-73.047,-38.6268],[-73.0078,-38.5055],[-73.0589,-38.4775],[-72.9589,-38.4687]]]},"properties":{"cod_comuna":9121,"comuna":"Cholchol","provincia":"Cautín","codregion":9}},{"type":"Feature","geometry":{"type":"Polygon","coordinates":[[[-71.7959,-38.7786],[-71.8548,-38.8846],[-71.8092,-38.8743],[-71.7703,-38.9033],[-71.6849,-39.0133],[-71.6311,-38.9939],[-71.5602,-39.0027],[-71.5383,-39.0701],[-71.6321,-39.0801],[-71.6156,-39.1068],[-71.6642,-39.1272],[-71.7407,-39.0994],[-71.8174,-39.1267],[-71.82,-39.15],[-71.8549,-39.147],[-71.8914,-39.1858],[-71.9609,-39.1205],[-72.0446,-39.1416],[-72.139,-39.1024],[-72.2666,-39.1114],[-72.3097,-39.0711],[-72.301,-39.032],[-72.358,-39.0061],[-72.3251,-38.949],[-72.3461,-38.94],[-72.3227,-38.8798],[-72.3438,-38.8507],[-72.1784,-38.8036],[-72.0703,-38.8293],[-71.9496,-38.7964],[-71.881,-38.8238],[-71.8873,-38.7847],[-71.8291,-38.7804],[-71.7929,-38.7359],[-71.7586,-38.7258],[-71.7959,-38.7786]]]},"properties":{"cod_comuna":9103,"comuna":"Cunco","provincia":"Cautín","codregion":9}},{"type":"Feature","geometry":{"type":"Polygon","coordinates":[[[-72.5121,-38.8708],[-72.3338,-38.9081],[-72.3461,-38.94],[-72.3251,-38.949],[-72.358,-39.0061],[-72.301,-39.032],[-72.3694,-39.1195],[-72.4957,-39.0722],[-72.529,-39.0087],[-72.6382,-38.9721],[-72.7061,-39.0054],[-72.77,-38.9959],[-72.8214,-39.0349],[-72.9148,-39.022],[-72.8709,-38.9103],[-72.8183,-38.9053],[-72.8131,-38.8264],[-72.7147,-38.8461],[-72.6367,-38.8258],[-72.6024,-38.8628],[-72.5121,-38.8708]]]},"properties":{"cod_comuna":9105,"comuna":"Freire","provincia":"Cautín","codregion":9}},{"type":"Feature","geometry":{"type":"Polygon","coordinates":[[[-72.7782,-38.3209],[-72.7498,-38.3637],[-72.6736,-38.3872],[-72.6903,-38.4179],[-72.6304,-38.4328],[-72.609,-38.4797],[-72.6352,-38.552],[-72.7083,-38.5492],[-72.7917,-38.5943],[-72.8114,-38.5141],[-72.8455,-38.5207],[-72.874,-38.4859],[-72.9212,-38.4925],[-72.989,-38.4615],[-72.9816,-38.4206],[-73.0047,-38.412],[-72.9572,-38.3891],[-72.9556,-38.3602],[-72.7782,-38.3209]]]},"properties":{"cod_comuna":9106,"comuna":"Galvarino","provincia":"Cautín","codregion":9}},{"type":"Feature","geometry":{"type":"Polygon","coordinates":[[[-72.8823,-38.672],[-72.814,-38.7165],[-72.8402,-38.8088],[-72.7991,-38.8533],[-72.8183,-38.9053],[-72.8727,-38.9132],[-72.8887,-38.8889],[-73.0294,-38.9129],[-73.067,-38.8915],[-73.0949,-38.9017],[-73.1008,-38.8214],[-73.0642,-38.7663],[-73.1267,-38.5763],[-73.0985,-38.5586],[-73.0991,-38.5189],[-73.053,-38.5188],[-73.0505,-38.4962],[-73.0078,-38.5055],[-73.047,-38.6268],[-73.0067,-38.6486],[-72.9628,-38.6264],[-72.908,-38.6598],[-72.8871,-38.6479],[-72.8823,-38.672]]]},"properties":{"cod_comuna":9111,"comuna":"Nueva Imperial","provincia":"Cautín","codregion":9}},{"type":"Feature","geometry":{"type":"Polygon","coordinates":[[[-72.3931,-38.3515],[-72.3501,-38.3598],[-72.358,-38.3831],[-72.2718,-38.4034],[-72.2363,-38.3821],[-72.2622,-38.4514],[-72.3471,-38.4827],[-72.4767,-38.4755],[-72.5311,-38.5141],[-72.5507,-38.4874],[-72.5792,-38.4972],[-72.6402,-38.4275],[-72.547,-38.4175],[-72.5227,-38.359],[-72.4568,-38.3698],[-72.3931,-38.3515]]]},"properties":{"cod_comuna":9113,"comuna":"Perquenco","provincia":"Cautín","codregion":9}},{"type":"Feature","geometry":{"type":"Polygon","coordinates":[[[-72.6259,-38.984],[-72.529,-39.0087],[-72.4957,-39.0722],[-72.3563,-39.1215],[-72.3163,-39.2372],[-72.409,-39.2146],[-72.4026,-39.197],[-72.4552,-39.1837],[-72.5049,-39.1162],[-72.7307,-39.0319],[-72.7534,-39.0348],[-72.7805,-39.1022],[-72.8158,-39.0992],[-72.8281,-39.1483],[-72.9708,-39.1383],[-72.9969,-39.0202],[-72.8214,-39.0349],[-72.77,-38.9959],[-72.7231,-39.0068],[-72.6638,-38.9766],[-72.6259,-38.984]]]},"properties":{"cod_comuna":9114,"comuna":"Pitrufquén","provincia":"Cautín","codregion":9}},{"type":"Feature","geometry":{"type":"Polygon","coordinates":[[[-72.6345,-38.762],[-72.8247,-38.7781],[-72.8157,-38.7143],[-72.7566,-38.6538],[-72.7658,-38.5838],[-72.7083,-38.5492],[-72.6297,-38.5551],[-72.562,-38.6403],[-72.4694,-38.645],[-72.5503,-38.7324],[-72.6345,-38.762]]]},"properties":{"cod_comuna":9101,"comuna":"Temuco","provincia":"Cautín","codregion":9}},{"type":"Feature","geometry":{"type":"Polygon","coordinates":[[[-73.1127,-38.896],[-73.0294,-38.9129],[-72.8887,-38.8889],[-72.8727,-38.9132],[-72.9148,-39.022],[-73.0741,-39.0089],[-73.1219,-39.043],[-73.1852,-39.1164],[-73.1613,-39.1486],[-73.18,-39.1879],[-73.2331,-39.2077],[-73.2155,-39.2327],[-73.2252,-39.2559],[-73.3292,-38.9571],[-73.2872,-38.9281],[-73.2092,-38.959],[-73.1778,-38.895],[-73.1127,-38.896]]]},"properties":{"cod_comuna":9117,"comuna":"Teodoro Schmidt","provincia":"Cautín","codregion":9}},{"type":"Feature","geometry":{"type":"Polygon","coordinates":[[[-72.2525,-38.5578],[-72.1352,-38.5721],[-72.1571,-38.5958],[-72.1031,-38.5869],[-72.0059,-38.6206],[-71.8951,-38.6057],[-71.84,-38.5692],[-71.8,-38.6369],[-71.6821,-38.6683],[-71.8288,-38.7802],[-71.8873,-38.7847],[-71.881,-38.8238],[-71.9496,-38.7964],[-72.0703,-38.8293],[-72.1784,-38.8036],[-72.3265,-38.8551],[-72.415,-38.8551],[-72.4522,-38.8206],[-72.3794,-38.738],[-72.4717,-38.727],[-72.4488,-38.7008],[-72.5195,-38.6788],[-72.4694,-38.645],[-72.4405,-38.6701],[-72.3215,-38.6104],[-72.3098,-38.5737],[-72.2525,-38.5578]]]},"properties":{"cod_comuna":9119,"comuna":"Vilcún","provincia":"Cautín","codregion":9}},{"type":"Feature","geometry":{"type":"Polygon","coordinates":[[[-72.7727,-37.5894],[-72.6998,-37.6343],[-72.71,-37.6925],[-72.6249,-37.7347],[-72.5965,-37.7897],[-72.5463,-37.7997],[-72.5284,-37.8365],[-72.4863,-37.8288],[-72.5294,-37.8893],[-72.5057,-37.9254],[-72.5578,-37.942],[-72.5412,-37.99],[-72.5707,-38.0233],[-72.6032,-38.0211],[-72.6588,-37.8913],[-72.6914,-37.9166],[-72.7773,-37.8935],[-72.803,-37.8376],[-73.0091,-37.8592],[-73.0454,-37.8423],[-73.0236,-37.721],[-73.1105,-37.7211],[-73.1244,-37.6889],[-73.0802,-37.6762],[-73.0708,-37.6208],[-73.012,-37.6304],[-72.7727,-37.5894]]]},"properties":{"cod_comuna":9201,"comuna":"Angol","provincia":"Malleco","codregion":9}},{"type":"Feature","geometry":{"type":"Polygon","coordinates":[[[-72.4571,-37.7698],[-72.4001,-37.8426],[-72.3177,-37.8815],[-72.2452,-37.8784],[-72.1291,-37.953],[-72.102,-37.9987],[-72.0491,-38.0141],[-71.9663,-37.9939],[-71.879,-38.0783],[-71.7765,-38.0303],[-71.7342,-38.0432],[-71.698,-38.0842],[-71.7214,-38.1462],[-71.6939,-38.1691],[-71.7075,-38.2034],[-71.9154,-38.2019],[-71.954,-38.1723],[-72.0348,-38.1731],[-72.1925,-38.0905],[-72.3391,-38.0504],[-72.432,-37.9669],[-72.4471,-37.9832],[-72.4648,-37.9676],[-72.482,-37.9962],[-72.5026,-37.9779],[-72.4809,-37.9452],[-72.5378,-37.9353],[-72.5057,-37.9254],[-72.5294,-37.8893],[-72.4821,-37.84],[-72.5256,-37.7778],[-72.4571,-37.7698]]]},"properties":{"cod_comuna":9202,"comuna":"Collipulli","provincia":"Malleco","codregion":9}},{"type":"Feature","geometry":{"type":"Polygon","coordinates":[[[-71.8606,-38.1972],[-71.7237,-38.2046],[-71.6886,-38.2414],[-71.7064,-38.2699],[-71.6189,-38.3242],[-71.5928,-38.3772],[-71.5219,-38.3636],[-71.4641,-38.4153],[-71.4848,-38.4355],[-71.4493,-38.472],[-71.4596,-38.5199],[-71.5872,-38.5734],[-71.5931,-38.5961],[-71.6808,-38.6061],[-71.6821,-38.6683],[-71.8,-38.6369],[-71.8666,-38.5507],[-72.1113,-38.5079],[-72.0859,-38.4192],[-72.0394,-38.4127],[-71.9779,-38.3582],[-71.9301,-38.1973],[-71.8606,-38.1972]]]},"properties":{"cod_comuna":9203,"comuna":"Curacautín","provincia":"Malleco","codregion":9}},{"type":"Feature","geometry":{"type":"Polygon","coordinates":[[[-72.5231,-37.9441],[-72.4809,-37.9452],[-72.5026,-37.9779],[-72.482,-37.9962],[-72.4648,-37.9676],[-72.4471,-37.9832],[-72.432,-37.9669],[-72.3391,-38.0504],[-72.1925,-38.0905],[-72.0355,-38.1728],[-71.9916,-38.1704],[-71.9898,-38.1881],[-72.4501,-38.1476],[-72.4632,-38.0981],[-72.5723,-38.0619],[-72.5654,-38.0],[-72.5412,-37.99],[-72.5578,-37.942],[-72.5231,-37.9441]]]},"properties":{"cod_comuna":9204,"comuna":"Ercilla","provincia":"Malleco","codregion":9}},{"type":"Feature","geometry":{"type":"Polygon","coordinates":[[[-72.9145,-37.8395],[-72.803,-37.8376],[-72.7719,-37.865],[-72.7816,-37.8917],[-72.692,-37.9166],[-72.652,-37.8959],[-72.5622,-38.0813],[-72.6399,-38.1219],[-72.7399,-38.0912],[-72.7885,-38.124],[-72.8585,-38.133],[-72.8906,-38.1082],[-72.8733,-38.0801],[-73.0332,-37.9071],[-73.0171,-37.8592],[-72.9145,-37.8395]]]},"properties":{"cod_comuna":9206,"comuna":"Los Sauces","provincia":"Malleco","codregion":9}},{"type":"Feature","geometry":{"type":"Polygon","coordinates":[[[-72.8807,-38.075],[-72.8906,-38.1082],[-72.8585,-38.133],[-72.7885,-38.124],[-72.7904,-38.1832],[-72.8236,-38.1877],[-72.8056,-38.2759],[-72.8974,-38.282],[-72.8911,-38.351],[-72.9556,-38.3602],[-72.9572,-38.3891],[-73.0041,-38.4103],[-72.9793,-38.4327],[-72.9951,-38.4781],[-73.0667,-38.4767],[-73.1153,-38.4424],[-73.1355,-38.472],[-73.15,-38.3986],[-73.2222,-38.3968],[-73.2382,-38.4486],[-73.2858,-38.458],[-73.2721,-38.4354],[-73.309,-38.4118],[-73.3011,-38.3831],[-73.341,-38.3662],[-73.3235,-38.3362],[-73.2222,-38.2719],[-73.2014,-38.2312],[-73.1383,-38.2156],[-73.1314,-38.1836],[-73.0924,-38.1918],[-73.0885,-38.1424],[-73.0484,-38.1565],[-72.9926,-38.11],[-72.9432,-38.1247],[-72.9148,-38.0716],[-72.8807,-38.075]]]},"properties":{"cod_comuna":9207,"comuna":"Lumaco","provincia":"Malleco","codregion":9}},{"type":"Feature","geometry":{"type":"Polygon","coordinates":[[[-73.0307,-37.8402],[-73.0122,-37.8517],[-73.0285,-37.9167],[-72.9908,-37.9306],[-72.9948,-37.9591],[-72.8905,-38.0735],[-72.9148,-38.0716],[-72.9432,-38.1247],[-72.994,-38.1102],[-73.051,-38.1566],[-73.0885,-38.1424],[-73.0806,-38.0957],[-73.2062,-38.0407],[-73.1848,-37.9867],[-73.12,-37.9594],[-73.1249,-37.8771],[-73.0307,-37.8402]]]},"properties":{"cod_comuna":9208,"comuna":"Purén","provincia":"Malleco","codregion":9}},{"type":"Feature","geometry":{"type":"Polygon","coordinates":[[[-72.6826,-37.6206],[-72.6533,-37.6206],[-72.632,-37.6689],[-72.4932,-37.646],[-72.4596,-37.7752],[-72.5256,-37.7778],[-72.4964,-37.8265],[-72.5284,-37.8365],[-72.5463,-37.7997],[-72.597,-37.7892],[-72.6249,-37.7347],[-72.71,-37.6925],[-72.7094,-37.6243],[-72.6826,-37.6206]]]},"properties":{"cod_comuna":9209,"comuna":"Renaico","provincia":"Malleco","codregion":9}},{"type":"Feature","geometry":{"type":"Polygon","coordinates":[[[-72.5435,-38.0701],[-72.4433,-38.1223],[-72.5219,-38.1959],[-72.5393,-38.2745],[-72.5088,-38.2621],[-72.5055,-38.3232],[-72.547,-38.4175],[-72.6903,-38.4179],[-72.6736,-38.3872],[-72.7498,-38.3637],[-72.7795,-38.3205],[-72.8984,-38.3557],[-72.8974,-38.282],[-72.8056,-38.2759],[-72.8236,-38.1877],[-72.7904,-38.1832],[-72.7867,-38.1221],[-72.7399,-38.0912],[-72.6399,-38.1219],[-72.5435,-38.0701]]]},"properties":{"cod_comuna":9210,"comuna":"Traiguén","provincia":"Malleco","codregion":9}},{"type":"Feature","geometry":{"type":"Polygon","coordinates":[[[-72.4195,-38.1456],[-72.0137,-38.1883],[-71.9487,-38.1745],[-71.926,-38.2093],[-71.9779,-38.3582],[-72.0404,-38.4132],[-72.1629,-38.4232],[-72.2413,-38.4553],[-72.2622,-38.4514],[-72.2363,-38.3821],[-72.2718,-38.4034],[-72.358,-38.3831],[-72.3501,-38.3598],[-72.3879,-38.3518],[-72.5145,-38.3651],[-72.5052,-38.2749],[-72.5401,-38.2601],[-72.5097,-38.1637],[-72.4195,-38.1456]]]},"properties":{"cod_comuna":9211,"comuna":"Victoria","provincia":"Malleco","codregion":9}},{"type":"Feature","geometry":{"type":"Polygon","coordinates":[[[-72.7393,-39.0337],[-72.5049,-39.1162],[-72.4552,-39.1837],[-72.4026,-39.197],[-72.4141,-39.2318],[-72.4355,-39.2264],[-72.4585,-39.2584],[-72.5579,-39.2349],[-72.5386,-39.277],[-72.6754,-39.2446],[-72.7335,-39.2688],[-72.8363,-39.2511],[-72.8529,-39.2902],[-72.8668,-39.2877],[-72.8642,-39.2166],[-72.9287,-39.1436],[-72.8281,-39.1483],[-72.8158,-39.0992],[-72.7805,-39.1022],[-72.7393,-39.0337]]]},"properties":{"cod_comuna":9107,"comuna":"Gorbea","provincia":"Cautín","codregion":9}},{"type":"Feature","geometry":{"type":"Polygon","coordinates":[[[-72.1247,-38.4195],[-72.0864,-38.425],[-72.1113,-38.5079],[-71.8666,-38.5507],[-71.8523,-38.5699],[-71.8864,-38.6025],[-72.0059,-38.6206],[-72.1031,-38.5869],[-72.1571,-38.5958],[-72.1352,-38.5721],[-72.2534,-38.5575],[-72.3098,-38.5737],[-72.3215,-38.6104],[-72.4405,-38.6701],[-72.454,-38.6485],[-72.5701,-38.6369],[-72.5896,-38.5818],[-72.6394,-38.5516],[-72.6105,-38.4528],[-72.5792,-38.4972],[-72.5507,-38.4874],[-72.529,-38.5141],[-72.4767,-38.4755],[-72.3471,-38.4827],[-72.3044,-38.4544],[-72.1247,-38.4195]]]},"properties":{"cod_comuna":9108,"comuna":"Lautaro","provincia":"Cautín","codregion":9}},{"type":"Feature","geometry":{"type":"Polygon","coordinates":[[[-71.251,-38.0976],[-71.1631,-38.1113],[-71.0853,-38.0896],[-70.9955,-38.1707],[-71.0325,-38.2494],[-70.997,-38.2914],[-70.9837,-38.4306],[-70.8417,-38.5395],[-70.8274,-38.5959],[-70.9033,-38.6678],[-70.8835,-38.7017],[-70.925,-38.7635],[-71.0955,-38.7548],[-71.1858,-38.8145],[-71.2384,-38.8022],[-71.2681,-38.853],[-71.3943,-38.9095],[-71.4163,-38.8472],[-71.3942,-38.8204],[-71.5131,-38.7532],[-71.4952,-38.7294],[-71.5362,-38.716],[-71.4919,-38.6626],[-71.5909,-38.5932],[-71.5589,-38.5573],[-71.4596,-38.5199],[-71.4493,-38.472],[-71.4848,-38.4355],[-71.4641,-38.4153],[-71.5219,-38.3636],[-71.5899,-38.3792],[-71.6429,-38.3135],[-71.6089,-38.2411],[-71.5536,-38.2461],[-71.5318,-38.204],[-71.436,-38.1769],[-71.4131,-38.1072],[-71.3783,-38.0857],[-71.3024,-38.0904],[-71.2828,-38.1104],[-71.251,-38.0976]]]},"properties":{"cod_comuna":9205,"comuna":"Lonquimay","provincia":"Malleco","codregion":9}},{"type":"Feature","geometry":{"type":"Polygon","coordinates":[[[-73.5121,-38.4968],[-73.5189,-38.4815],[-73.4737,-38.473],[-73.3825,-38.3986],[-73.3203,-38.4375],[-73.3067,-38.4922],[-73.2746,-38.49],[-73.2847,-38.4563],[-73.2382,-38.4486],[-73.2108,-38.3946],[-73.15,-38.3986],[-73.1355,-38.472],[-73.1153,-38.4424],[-73.0589,-38.4775],[-73.0511,-38.5176],[-73.0991,-38.5189],[-73.0985,-38.5586],[-73.1267,-38.5763],[-73.0642,-38.7663],[-73.1008,-38.8214],[-73.0955,-38.9021],[-73.1846,-38.9009],[-73.1722,-38.8225],[-73.263,-38.7818],[-73.2427,-38.7256],[-73.2714,-38.7016],[-73.3478,-38.6969],[-73.3616,-38.7515],[-73.4277,-38.7631],[-73.4884,-38.6575],[-73.5121,-38.4968]]]},"properties":{"cod_comuna":9102,"comuna":"Carahue","provincia":"Cautín","codregion":9}},{"type":"Feature","geometry":{"type":"Polygon","coordinates":[[[-73.2332,-39.3863],[-73.2038,-39.3701],[-73.2335,-39.2094],[-73.1681,-39.1662],[-73.1806,-39.1076],[-73.0781,-39.0104],[-72.9793,-39.0246],[-72.9876,-39.1099],[-72.877,-39.1885],[-72.8643,-39.2847],[-72.946,-39.3172],[-73.0234,-39.2979],[-73.0864,-39.3887],[-73.1599,-39.4159],[-73.2332,-39.3863]]]},"properties":{"cod_comuna":9118,"comuna":"Toltén","provincia":"Cautín","codregion":9}},{"type":"Feature","geometry":{"type":"Polygon","coordinates":[[[-72.6955,-39.4316],[-72.7894,-39.4323],[-72.7932,-39.4049],[-72.8392,-39.4137],[-72.8574,-39.3972],[-72.897,-39.4324],[-72.9002,-39.3812],[-72.8335,-39.3158],[-72.8529,-39.2902],[-72.8363,-39.2511],[-72.7335,-39.2688],[-72.6754,-39.2446],[-72.5386,-39.277],[-72.5579,-39.2349],[-72.4585,-39.2584],[-72.4077,-39.2148],[-72.3468,-39.2292],[-72.3605,-39.2643],[-72.3935,-39.269],[-72.351,-39.3],[-72.3478,-39.3369],[-72.4368,-39.3631],[-72.3425,-39.3961],[-72.3547,-39.4605],[-72.3004,-39.4986],[-72.3432,-39.5092],[-72.4399,-39.4748],[-72.517,-39.477],[-72.5323,-39.4337],[-72.6573,-39.4602],[-72.6955,-39.4316]]]},"properties":{"cod_comuna":9109,"comuna":"Loncoche","provincia":"Cautín","codregion":9}},{"type":"Feature","geometry":{"type":"Polygon","coordinates":[[[-71.679,-39.5656],[-71.7256,-39.4845],[-71.7104,-39.451],[-71.746,-39.3746],[-71.7157,-39.3631],[-71.7445,-39.3344],[-71.6354,-39.3513],[-71.6149,-39.3281],[-71.6397,-39.2606],[-71.5179,-39.2274],[-71.5034,-39.1852],[-71.5472,-39.1607],[-71.5209,-39.0774],[-71.5636,-39.0076],[-71.4471,-38.9736],[-71.3971,-39.046],[-71.4211,-39.1511],[-71.3736,-39.2824],[-71.3994,-39.3497],[-71.4575,-39.3716],[-71.4477,-39.4507],[-71.4731,-39.492],[-71.5341,-39.5272],[-71.5038,-39.5588],[-71.4701,-39.5519],[-71.461,-39.5833],[-71.5026,-39.6371],[-71.577,-39.6357],[-71.679,-39.5656]]]},"properties":{"cod_comuna":9104,"comuna":"Curarrehue","provincia":"Cautín","codregion":9}},{"type":"Feature","geometry":{"type":"Polygon","coordinates":[[[-73.4115,-38.7845],[-73.4223,-38.7533],[-73.3616,-38.7515],[-73.3478,-38.6969],[-73.2792,-38.6989],[-73.2435,-38.7224],[-73.263,-38.7818],[-73.1722,-38.8225],[-73.1947,-38.8589],[-73.1823,-38.9339],[-73.2092,-38.959],[-73.2881,-38.9282],[-73.3304,-38.9664],[-73.4115,-38.7845]]]},"properties":{"cod_comuna":9116,"comuna":"Saavedra","provincia":"Cautín","codregion":9}},{"type":"Feature","geometry":{"type":"Polygon","coordinates":[[[-72.2702,-39.5111],[-72.2169,-39.4683],[-72.301,-39.4972],[-72.3411,-39.4784],[-72.3396,-39.399],[-72.4368,-39.3631],[-72.3478,-39.3369],[-72.351,-39.3],[-72.3935,-39.269],[-72.3104,-39.2275],[-72.3694,-39.1195],[-72.3581,-39.0881],[-72.3321,-39.0941],[-72.3187,-39.0597],[-72.2666,-39.1114],[-72.139,-39.1024],[-72.0446,-39.1416],[-71.9597,-39.121],[-71.9091,-39.1592],[-71.9715,-39.1972],[-72.0458,-39.2078],[-72.0693,-39.3159],[-72.0118,-39.3526],[-71.9863,-39.413],[-71.9392,-39.4201],[-72.1469,-39.5208],[-72.2152,-39.531],[-72.2702,-39.5111]]]},"properties":{"cod_comuna":9120,"comuna":"Villarrica","provincia":"Cautín","codregion":9}},{"type":"Feature","geometry":{"type":"Polygon","coordinates":[[[-71.5511,-39.0666],[-71.5207,-39.0808],[-71.5472,-39.1607],[-71.5017,-39.1961],[-71.5199,-39.2293],[-71.6397,-39.2606],[-71.6149,-39.3281],[-71.6334,-39.3503],[-71.7445,-39.3344],[-71.7157,-39.3631],[-71.746,-39.3752],[-71.7187,-39.4935],[-71.7607,-39.5084],[-71.8421,-39.4698],[-71.8613,-39.4351],[-71.9863,-39.413],[-72.0118,-39.3526],[-72.0687,-39.3183],[-72.0444,-39.2066],[-71.9706,-39.1968],[-71.9288,-39.1583],[-71.8728,-39.1819],[-71.8557,-39.1475],[-71.82,-39.15],[-71.8174,-39.1267],[-71.7407,-39.0994],[-71.6622,-39.1267],[-71.6156,-39.1068],[-71.6321,-39.0801],[-71.5511,-39.0666]]]},"properties":{"cod_comuna":9115,"comuna":"Pucón","provincia":"Cautín","codregion":9}},{"type":"Feature","geometry":{"type":"Polygon","coordinates":[[[-72.4995,-38.6867],[-72.4488,-38.7008],[-72.4717,-38.727],[-72.3794,-38.738],[-72.4522,-38.8206],[-72.415,-38.8551],[-72.3443,-38.8503],[-72.3338,-38.9081],[-72.5147,-38.8656],[-72.5662,-38.873],[-72.6367,-38.8258],[-72.7759,-38.8422],[-72.8402,-38.8088],[-72.8213,-38.7767],[-72.6047,-38.7581],[-72.4995,-38.6867]]]},"properties":{"cod_comuna":9112,"comuna":"Padre Las Casas","provincia":"Cautín","codregion":9}},{"type":"Feature","geometry":{"type":"Polygon","coordinates":[[[-71.4333,-38.9657],[-71.5413,-39.0031],[-71.6311,-38.9939],[-71.6849,-39.0133],[-71.7703,-38.9033],[-71.8092,-38.8743],[-71.8548,-38.8846],[-71.7887,-38.7528],[-71.6812,-38.6674],[-71.6787,-38.6051],[-71.5909,-38.5932],[-71.4919,-38.6626],[-71.5359,-38.7165],[-71.3889,-38.8316],[-71.4163,-38.8472],[-71.3931,-38.911],[-71.4335,-38.9291],[-71.4333,-38.9657]]]},"properties":{"cod_comuna":9110,"comuna":"Melipeuco","provincia":"Cautín","codregion":9}}]}